Address,City,State,Zip
4900 SAN LEANDRO ST,Oakland,CA,
68TH AV & AVENAL AV,Oakland,CA,
22ND ST & BRUSH ST,Oakland,CA,
2900 82ND AV,Oakland,CA,
100 CITY LIMITS CIR,Oakland,CA,
1100 CENTER ST,Oakland,CA,
800 36TH AV,Oakland,CA,
6600 GUNN DR,Oakland,CA,
1100 WEBSTER ST,Oakland,CA,
700 E 19TH ST,Oakland,CA,
800 85TH AV,Oakland,CA,
800 16TH ST,Oakland,CA,
8600 E ST,Oakland,CA,
40TH ST CORRIDOR,Oakland,CA,
2800 KINGSLAND AV,Oakland,CA,
E 12TH ST & 45TH AV,Oakland,CA,
3500 REDWOOD RD,Oakland,CA,
6600 HELEN CT,Oakland,CA,
88TH AV & A ST,Oakland,CA,
77TH AV & HAMILTON ST,Oakland,CA,
AREA 1,Oakland,CA,
600 RAND AV,Oakland,CA,
1800 LEIMERT BLVD,Oakland,CA,
HARRISON ST & STANLEY PL,Oakland,CA,
8100 RUDSDALE ST,Oakland,CA,
60TH AV & BRANN ST,Oakland,CA,
7700 HANSOM DR,Oakland,CA,
1600 MILLER AV,Oakland,CA,
4900 COCHRANE AV,Oakland,CA,
80TH AV & B ST,Oakland,CA,
7900 WINTHROPE ST,Oakland,CA,
13300 CAMPUS DR,Oakland,CA,
6000 GLENARMS DR,Oakland,CA,
2400 CHESTNUT ST,Oakland,CA,
E 10TH ST & 9TH AV,Oakland,CA,
87TH AV & G ST,Oakland,CA,
5500 KALES AV,Oakland,CA,
CAPP ST & SCHOOL ST,Oakland,CA,
17TH ST & WOOD ST,Oakland,CA,
21ST ST & FILBERT ST,Oakland,CA,
45TH ST & WEBSTER ST,Oakland,CA,
100 BRUSH ST,Oakland,CA,
3300 GLENLY RD,Oakland,CA,
6100 BROADWAY TER,Oakland,CA,
800 107TH AV,Oakland,CA,
1300 EXCELSIOR AV,Oakland,CA,
4600 RISING HILL CT,Oakland,CA,
BROADWAY & BROADWAY TER,Oakland,CA,
CLEVELAND AV & PARK BLVD,Oakland,CA,
2800 GLASCOCK ST,Oakland,CA,
2500 94TH AV,Oakland,CA,
5800 MACCALL ST,Oakland,CA,
COLISEUM WY & INDEPENDENT RD,Oakland,CA,
800 STONE ST,Oakland,CA,
100TH AV & B ST,Oakland,CA,
E 17TH ST & 6TH AV,Oakland,CA,
GRAND AV & JEAN ST,Oakland,CA,
19TH AV & E 24TH ST,Oakland,CA,
6200 CLIVE AV,Oakland,CA,
77TH AV & HOLLY ST,Oakland,CA,
9900 BANCROFT AV,Oakland,CA,
54TH ST & GENOA ST,Oakland,CA,
4000 CANON AV,Oakland,CA,
E 24TH ST & 8TH AV,Oakland,CA,
13TH ST & CENTER ST,Oakland,CA,
EDES AV & NEVADA ST,Oakland,CA,
17TH ST & PERALTA ST,Oakland,CA,
0 BUCKEYE AV,Oakland,CA,
7200 NEY AV,Oakland,CA,
4400 BRIAR CLIFF RD,Oakland,CA,
6500 ARTHUR ST,Oakland,CA,
4700 MARKET ST,Oakland,CA,
14000 BROADWAY TER,Oakland,CA,
10300 PIPPIN ST,Oakland,CA,
1000 GRAND VIEW DR,Oakland,CA,
1200 22ND AV,Oakland,CA,
EUCLID AV & VAN BUREN AV,Oakland,CA,
2800 BARTLETT ST,Oakland,CA,
300 60TH ST,Oakland,CA,
MAPLE AV & SCHOOL ST,Oakland,CA,
3100 ROBINSON DR,Oakland,CA,
8900 B ST,Oakland,CA,
69TH AV & WELD ST,Oakland,CA,
5200 SADDLEBROOK DR,Oakland,CA,
104TH AV & E ST,Oakland,CA,
2100 5TH AV,Oakland,CA,
5600 KEITH AV,Oakland,CA,
14TH ST & POPLAR ST,Oakland,CA,
5000 WEBSTER ST,Oakland,CA,
600 MOUNTAIN BLVD,Oakland,CA,
4000 REDDING ST,Oakland,CA,
2000 HOOVER AV,Oakland,CA,
E 17TH ST & 61ST AV,Oakland,CA,
9500 A ST,Oakland,CA,
69TH AV & ARTHUR ST,Oakland,CA,
4900 JUDD PL,Oakland,CA,
FAIRFAX AV & YGNACIO AV,Oakland,CA,
9500 WALNUT ST,Oakland,CA,
500 E 21ST ST,Oakland,CA,
6200 VIRGO RD,Oakland,CA,
9300 A ST,Oakland,CA,
10500 LINK ST,Oakland,CA,
13500 SKYLINE BLVD,Oakland,CA,
5800 FLEMING AV,Oakland,CA,
1000 3RD ST,Oakland,CA,
98TH AV & WALTER AV,Oakland,CA,
100TH AV & SAN LEANDRO ST,Oakland,CA,
7100 KRAUSE AV,Oakland,CA,
9600 CORAL RD,Oakland,CA,
1600 CHESTNUT ST,Oakland,CA,
22ND ST & VALLEY ST,Oakland,CA,
1800 22ND AV,Oakland,CA,
E 12TH ST & 2ND AV,Oakland,CA,
104TH AV & PLYMOUTH ST,Oakland,CA,
4200 OAK HILL RD,Oakland,CA,
8900 A ST,Oakland,CA,
104TH AV & GRAFFIAN ST,Oakland,CA,
800 HAWKINS DR,Oakland,CA,
6000 ASPINWALL RD,Oakland,CA,
41ST ST & MONTGOMERY ST,Oakland,CA,
CHURCH ST & FRESNO ST,Oakland,CA,
4400 ELINORA AV,Oakland,CA,
11TH AV & FOOTHILL BLVD,Oakland,CA,
11200 ETTRICK ST,Oakland,CA,
6800 WILTON DR,Oakland,CA,
E 12TH ST & 47TH AV,Oakland,CA,
65TH AV & FENHAM ST,Oakland,CA,
1600 CHANDLER ST,Oakland,CA,
1900 E 22ND ST,Oakland,CA,
6300 FENHAM ST,Oakland,CA,
3700 LAKESHORE AV,Oakland,CA,
5800 OCCIDENTAL ST,Oakland,CA,
11300 GOLF LINKS RD,Oakland,CA,
2900 MARKET ST,Oakland,CA,
34TH ST & ELM ST,Oakland,CA,
19TH AV & E 26TH ST,Oakland,CA,
5600 THORNHILL DR,Oakland,CA,
0 GRAEAGLE CT,Oakland,CA,
16TH ST & BRUSH ST,Oakland,CA,
6000 HARWOOD AV,Oakland,CA,
6200 ASCOT DR,Oakland,CA,
7000 SKYLINE BLVD,Oakland,CA,
3000 E 22ND ST,Oakland,CA,
700 E 22ND ST,Oakland,CA,
2600 E 15TH ST,Oakland,CA,
E 23RD ST & HUGHES AV,Oakland,CA,
7600 HALLIDAY AV,Oakland,CA,
80TH AV & ALDER ST,Oakland,CA,
1000 KIRKHAM CT,Oakland,CA,
9300 CORAL RD,Oakland,CA,
95TH AV & B ST,Oakland,CA,
3900 BAYO ST,Oakland,CA,
500 CRESTMONT DR,Oakland,CA,
2600 E 12TH ST,Oakland,CA,
E 10TH ST & 7TH AV,Oakland,CA,
10300 BIRCH ST,Oakland,CA,
1000 E 21ST ST,Oakland,CA,
2400 WARNER AV,Oakland,CA,
2300 24TH AV,Oakland,CA,
4100 EASTLAKE AV,Oakland,CA,
24TH ST & FILBERT ST,Oakland,CA,
33RD AV & SAN LEANDRO ST,Oakland,CA,
61ST AV & MACARTHUR BLVD,Oakland,CA,
1500 LEIMERT BLVD,Oakland,CA,
600 E 22ND ST,Oakland,CA,
900 40TH AV,Oakland,CA,
2500 BEST AV,Oakland,CA,
61ST PL & LOWELL,Oakland,CA,
MORSE DR & SEMINARY AV,Oakland,CA,
12TH ST & KIRKHAM ST,Oakland,CA,
1200 72ND AV,Oakland,CA,
9100 DATE ST,Oakland,CA,
6200 OAKDALE AV,Oakland,CA,
89TH AV & HILLSIDE ST,Oakland,CA,
10400 BYRON AV,Oakland,CA,
2900 EL MONTE AV,Oakland,CA,
3500 HARRISON ST,Oakland,CA,
4100 MOUNTAIN BLVD,Oakland,CA,
3300 OVER ST,Oakland,CA,
3000 BROOKFIELD AV,Oakland,CA,
5400 BACON RD,Oakland,CA,
5900 ALMADEN LN,Oakland,CA,
3700 CANON AV,Oakland,CA,
63RD ST & HERZOG ST,Oakland,CA,
2900 HARRISON ST,Oakland,CA,
5400 BROADWAY,Oakland,CA,
19TH AV & E 19TH ST,Oakland,CA,
6400 BENVENUE AV,Oakland,CA,
45TH ST & LINDEN ST,Oakland,CA,
EDES AV & NB HEGENBERGER OFFRP AV,Oakland,CA,
61ST ST & DOVER ST,Oakland,CA,
20TH AV & MARIN WY,Oakland,CA,
7500 ALTURA PL,Oakland,CA,
W MACARTHUR BLVD & RUBY ST,Oakland,CA,
55TH AV & WALNUT ST,Oakland,CA,
2800 GARDEN ST,Oakland,CA,
E 22ND ST & 9TH AV,Oakland,CA,
65TH AV & EASTLAWN ST,Oakland,CA,
1200 71ST AV,Oakland,CA,
E 17TH ST & 29TH AV,Oakland,CA,
8TH ST & CASTRO ST,Oakland,CA,
100 FLORENCE AV,Oakland,CA,
1400 31ST AV,Oakland,CA,
4800 CLARKE ST,Oakland,CA,
FONTAINE CT & MOUNTAIN BLVD,Oakland,CA,
1600 38TH AV,Oakland,CA,
SYCAMORE ST & WEST ST,Oakland,CA,
98TH AV & PIPPIN ST,Oakland,CA,
39TH AV & SELKIRK ST,Oakland,CA,
COLLEGE AV & TAFT AV,Oakland,CA,
1300 86TH AV,Oakland,CA,
5400 CARLTON ST,Oakland,CA,
GOLF LINKS RD & SCOTIA AV,Oakland,CA,
1400 2ND AV,Oakland,CA,
3900 HOWE ST,Oakland,CA,
200 ALICE ST,Oakland,CA,
10200 LONGFELLOW AV,Oakland,CA,
4800 REINHARDT DR,Oakland,CA,
0 BINNACLE HILL,Oakland,CA,
2400 TRUMAN AV,Oakland,CA,
3300 NICOL AV,Oakland,CA,
68TH AV & LAIRD AV,Oakland,CA,
8800 SKYLINE BLVD,Oakland,CA,
2600 12TH AV,Oakland,CA,
600 BROADWAY,Oakland,CA,
3200 BIRDSALL AV,Oakland,CA,
15TH ST & MANDELA PKWY,Oakland,CA,
500 MOUNTAIN BLVD,Oakland,CA,
EL CENTRO AV & PARK BLVD,Oakland,CA,
6100 VIEW CREST DR,Oakland,CA,
108TH AV & BANCROFT AV,Oakland,CA,
17TH AV & MARIN WY,Oakland,CA,
5700 VICENTE ST,Oakland,CA,
2600 21ST AV,Oakland,CA,
500 CHESTER ST,Oakland,CA,
BROOKLYN AV & HADDON RD,Oakland,CA,
E 15TH ST & 9TH AV,Oakland,CA,
3600 E 12TH ST,Oakland,CA,
1400 5TH AV,Oakland,CA,
98TH AV & THERMAL ST,Oakland,CA,
8400 E ST,Oakland,CA,
83RD AV & OLIVE ST,Oakland,CA,
MORAGA AV & PLEASANT VALLEY AV,Oakland,CA,
4700 E 12TH ST,Oakland,CA,
8100 IRIS ST,Oakland,CA,
16TH AV & E 20TH ST,Oakland,CA,
12TH AV & E 15TH ST,Oakland,CA,
1600 E 22ND ST,Oakland,CA,
300 26TH ST,Oakland,CA,
MADERA AV & PIERSON ST,Oakland,CA,
300 DERBY AV,Oakland,CA,
E 23RD ST & COOLIDGE AV,Oakland,CA,
ELYSIAN FIELDS DR & KELLER AV,Oakland,CA,
4400 WEBSTER ST,Oakland,CA,
2600 55TH AV,Oakland,CA,
3800 WEBSTER ST,Oakland,CA,
26TH ST & MAGNOLIA ST,Oakland,CA,
8200 SKYLINE BLVD,Oakland,CA,
ACALANES DR & BERGEDO DR,Oakland,CA,
66TH AV & ARTHUR ST,Oakland,CA,
6200 FAIRLANE DR,Oakland,CA,
4100 VALE AV,Oakland,CA,
E 19TH ST & 21ST AV,Oakland,CA,
2600 DURANT AV,Oakland,CA,
5TH ST & JEFFERSON ST,Oakland,CA,
COOLIDGE AV & HAROLD ST,Oakland,CA,
6300 VALLEY VIEW RD,Oakland,CA,
CALAVARAS AV & MOUNTAIN BLVD,Oakland,CA,
13TH AV & CHATHAM RD,Oakland,CA,
2500 MAGNOLIA ST,Oakland,CA,
2100 FUNSTON PL,Oakland,CA,
3700 WISCONSIN ST,Oakland,CA,
75TH AV & SPENCER ST,Oakland,CA,
800 HENRY ST,Oakland,CA,
77TH AV & HAWLEY ST,Oakland,CA,
10000 BURR ST,Oakland,CA,
2400 62ND AV,Oakland,CA,
2100 96TH AV,Oakland,CA,
42ND ST & LINDEN ST,Oakland,CA,
4400 BANCROFT AV,Oakland,CA,
3100 RAWSON ST,Oakland,CA,
W MACARTHUR BLVD & SHAFTER AV,Oakland,CA,
44TH ST & LINDEN ST,Oakland,CA,
57TH ST & ADELINE ST,Oakland,CA,
3000 GALINDO ST,Oakland,CA,
5700 PICARDY DR,Oakland,CA,
78TH AV & WELD ST,Oakland,CA,
7500 DEERWOOD AV,Oakland,CA,
4500 DAVENPORT AV,Oakland,CA,
5400 ADELINE ST,Oakland,CA,
11100 SUN VALLEY DR,Oakland,CA,
18TH ST & CAMPBELL ST,Oakland,CA,
4400 LINDEN ST,Oakland,CA,
2400 MAXWELL AV,Oakland,CA,
3000 RAWSON ST,Oakland,CA,
4400 MARTIN LUTHER KING JR WY,Oakland,CA,
2900 MORGAN AV,Oakland,CA,
300 TAURUS AV,Oakland,CA,
6TH ST & MARTIN LUTHER KING JR WY,Oakland,CA,
60TH ST & IDAHO ST,Oakland,CA,
10TH ST & LINDEN ST,Oakland,CA,
DAISY ST & DAVENPORT AV,Oakland,CA,
5100 CROCKETT PL,Oakland,CA,
11300 GLEN MANOR PL,Oakland,CA,
3400 DAKOTA ST,Oakland,CA,
53RD ST & DOVER ST,Oakland,CA,
47TH AV & YGNACIO AV,Oakland,CA,
6200 CHELTON DR,Oakland,CA,
3200 38TH AV,Oakland,CA,
3800 EVERETT AV,Oakland,CA,
8600 B ST,Oakland,CA,
55TH AV & BRANN ST,Oakland,CA,
3400 GRAND AV,Oakland,CA,
1300 35TH AV,Oakland,CA,
7100 HAMILTON ST,Oakland,CA,
2600 11TH AV,Oakland,CA,
10800 BANCROFT AV,Oakland,CA,
1500 CHESTNUT ST,Oakland,CA,
1700 WOODHAVEN WY,Oakland,CA,
17TH ST & LAKESIDE DR,Oakland,CA,
2100 MARTIN LUTHER KING JR WY,Oakland,CA,
2600 CHARLESTON ST,Oakland,CA,
CLARA ST & EDES AV,Oakland,CA,
6200 EASTLAWN ST,Oakland,CA,
75TH AV & HILLMONT DR,Oakland,CA,
600 CAPELL ST,Oakland,CA,
6300 CONTRA COSTA RD,Oakland,CA,
19TH AV & E 23RD ST,Oakland,CA,
8200 ASTER AV,Oakland,CA,
2900 E 27TH ST,Oakland,CA,
100 W MACARTHUR BLVD,Oakland,CA,
5300 THOMAS AV,Oakland,CA,
MINNA AV & PENNIMAN AV,Oakland,CA,
3RD ST & OAK ST,Oakland,CA,
4700 DUNKIRK AV,Oakland,CA,
19TH AV & E 27TH ST,Oakland,CA,
56TH ST & LOWELL ST,Oakland,CA,
1800 IRVING AV,Oakland,CA,
E 18TH ST & ATHOL AV,Oakland,CA,
100 SEQUOYAH VIEW DR,Oakland,CA,
BIENATI WY & DIMOND AV,Oakland,CA,
0 GRAVATT DR,Oakland,CA,
6600 DEAKIN ST,Oakland,CA,
1300 5TH ST,Oakland,CA,
5800 AYALA AV,Oakland,CA,
ATHOL AV & NEWTON AV,Oakland,CA,
0 KELTON CT,Oakland,CA,
2500 FRANCES ST,Oakland,CA,
9500 CORAL RD,Oakland,CA,
38TH AV & SUTER ST,Oakland,CA,
E 21ST ST & 25TH AV,Oakland,CA,
5800 HARBORD DR,Oakland,CA,
8900 BIRCH ST,Oakland,CA,
4700 WILKIE ST,Oakland,CA,
3600 BRUNELL DR,Oakland,CA,
2200 MARKET ST,Oakland,CA,
6300 THORNHILL DR,Oakland,CA,
10100 VOLTAIRE AV,Oakland,CA,
HOWE ST & RIDGEWAY AV,Oakland,CA,
82ND AV & IDLEWOOD ST,Oakland,CA,
3000 MAGNOLIA ST,Oakland,CA,
6200 BAKER ST,Oakland,CA,
5500 THOMAS AV,Oakland,CA,
65TH ST & HERZOG ST,Oakland,CA,
7000 THORNHILL DR,Oakland,CA,
0 BERNEVES CT,Oakland,CA,
48TH AV & VICKSBURG AV,Oakland,CA,
PERKINS ST & VERNON ST,Oakland,CA,
ADAMS ST & PERKINS ST,Oakland,CA,
5400 GENOA ST,Oakland,CA,
E 21ST ST & 26TH AV,Oakland,CA,
17TH AV & E 24TH ST,Oakland,CA,
3900 GARDENIA PL,Oakland,CA,
6100 HILLEGASS AV,Oakland,CA,
5800 DOVER ST,Oakland,CA,
E 12TH ST & 20TH AV,Oakland,CA,
3900 MADRONE AV,Oakland,CA,
3700 VIRDEN AV,Oakland,CA,
3100 ASHBROOK CT,Oakland,CA,
7900 RUDSDALE ST,Oakland,CA,
HARRISON ST & MOSS AV,Oakland,CA,
80TH AV & OLIVE ST,Oakland,CA,
2400 107TH AV,Oakland,CA,
5TH ST & CASTRO ST,Oakland,CA,
8000 GREENLY DR,Oakland,CA,
LEE ST & VAN BUREN AV,Oakland,CA,
6200 SHATTUCK AV,Oakland,CA,
1800 37TH AV,Oakland,CA,
4300 NORTON AV,Oakland,CA,
100 LAKESIDE DR,Oakland,CA,
APGAR ST & TELEGRAPH AV,Oakland,CA,
2200 WOOD ST,Oakland,CA,
8200 SKYLINE CIR,Oakland,CA,
LAKESIDE DR & OAK ST,Oakland,CA,
1000 RISPIN DR,Oakland,CA,
100TH AV & LONGFELLOW AV,Oakland,CA,
3500 SUTER ST,Oakland,CA,
9100 FONTAINE ST,Oakland,CA,
900 ALICE ST,Oakland,CA,
6100 RUTHLAND RD,Oakland,CA,
5800 AMY DR,Oakland,CA,
57TH ST & SHATTUCK AV,Oakland,CA,
1900 MONTANA ST,Oakland,CA,
TAC 5,Oakland,CA,
MACARTHUR BLVD & MILLSBRAE AV,Oakland,CA,
3800 WATTLING ST,Oakland,CA,
FAIRMOUNT AV & MACARTHUR BLVD,Oakland,CA,
2900 HAVENSCOURT BLVD,Oakland,CA,
75TH AV & HILLSIDE ST,Oakland,CA,
10500 ROYAL ANN ST,Oakland,CA,
0 BAY BRIDGE,Oakland,CA,
4400 TURNER AV,Oakland,CA,
5400 BOYD AV,Oakland,CA,
6100 MARGARIDO DR,Oakland,CA,
24TH ST & MYRTLE ST,Oakland,CA,
800 SANTA RAY AV,Oakland,CA,
4300 MOUNTAIN BLVD,Oakland,CA,
4400 SAN CARLOS AV,Oakland,CA,
3400 PERALTA ST,Oakland,CA,
41ST ST & MANILA AV,Oakland,CA,
1000 FOOTHILL BLVD,Oakland,CA,
1600 73RD AV,Oakland,CA,
5600 DOVER ST,Oakland,CA,
800 SUNNYHILLS RD,Oakland,CA,
1700 18TH AV,Oakland,CA,
4700 MELDON AV,Oakland,CA,
2000 COURTLAND AV,Oakland,CA,
EL MONTE AV & GOLF LINKS RD,Oakland,CA,
9700 B ST,Oakland,CA,
6200 LEONA ST,Oakland,CA,
6500 MACARTHUR BLVD,Oakland,CA,
BROOKDALE AV & FOOTHILL BLVD,Oakland,CA,
E 16TH ST & 57TH AV,Oakland,CA,
11000 GLEN ARTNEY ST,Oakland,CA,
5000 PROCTOR AV,Oakland,CA,
E 17TH ST & 22ND AV,Oakland,CA,
CARSON ST & ELINORA AV,Oakland,CA,
11TH AV & E 15TH ST,Oakland,CA,
7500 EDGEWATER DR,Oakland,CA,
10700 BEVERLY AV,Oakland,CA,
38TH AV & REDDING ST,Oakland,CA,
E 16TH ST & 37TH AV,Oakland,CA,
5900 CHABOT CREST,Oakland,CA,
36TH AV & SAN LEANDRO ST,Oakland,CA,
6800 SHERWICK DR,Oakland,CA,
71ST AV & SNELL ST,Oakland,CA,
1900 OAKVIEW DR,Oakland,CA,
0 ROBLE RD,Oakland,CA,
2ND ST & OAK ST,Oakland,CA,
4100 SEQUOYAH RD,Oakland,CA,
11TH AV & E 22ND ST,Oakland,CA,
100 FILBERT ST,Oakland,CA,
STATEN AV & VAN BUREN AV,Oakland,CA,
6000 MAJESTIC AV,Oakland,CA,
E 7TH ST & DERBY AV,Oakland,CA,
200 SHERIDAN RD,Oakland,CA,
E 23RD ST & 8TH AV,Oakland,CA,
1000 WINSOR AV,Oakland,CA,
5600 WEAVER PL,Oakland,CA,
23RD AV & E 25TH ST,Oakland,CA,
WB GOLF LINKS OFFRP RD & WB I580,Oakland,CA,
ALIDA ST & COOLIDGE AV,Oakland,CA,
EMBARCADERO & LIVINGSTON ST,Oakland,CA,
MONADNOCK WY & SEMINARY AV,Oakland,CA,
ALCATRAZ AV & HERZOG ST,Oakland,CA,
5500 MORAGA AV,Oakland,CA,
4400 ALBERT ST,Oakland,CA,
2200 MYRTLE ST,Oakland,CA,
35TH AV & QUIGLEY LN,Oakland,CA,
70TH AV & FLORA ST,Oakland,CA,
E 19TH ST & 9TH AV,Oakland,CA,
13TH AV & E 34TH ST,Oakland,CA,
8100 EARL ST,Oakland,CA,
6800 RIDGEWOOD DR,Oakland,CA,
4500 E 12TH ST,Oakland,CA,
4400 E 12TH ST,Oakland,CA,
WB S24 & TELEGRAPH AV,Oakland,CA,
2800 BELLAIRE PL,Oakland,CA,
3RD ST & ALICE ST,Oakland,CA,
5300 ADELINE ST,Oakland,CA,
4700 MANILA AV,Oakland,CA,
54TH ST & LOWELL ST,Oakland,CA,
10500 PIPPIN ST,Oakland,CA,
5700 GASKILL ST,Oakland,CA,
500 PERALTA ST,Oakland,CA,
47TH AV & MELROSE AV,Oakland,CA,
200 E 11TH ST,Oakland,CA,
100 OAK ST,Oakland,CA,
0 STEPHENS WY,Oakland,CA,
900 33RD ST,Oakland,CA,
BROWN AV & MACARTHUR BLVD,Oakland,CA,
4300 WALNUT ST,Oakland,CA,
6200 BOULDER AV,Oakland,CA,
500 BROADWAY,Oakland,CA,
6200 WESTOVER DR,Oakland,CA,
3100 62ND AV,Oakland,CA,
COURTLAND AV & THOMPSON ST,Oakland,CA,
7300 SNAKE RD,Oakland,CA,
1200 TRESTLE GLEN RD,Oakland,CA,
FISHER AV & MACARTHUR BLVD,Oakland,CA,
12500 SKYLINE BLVD,Oakland,CA,
2600 MOUNTAIN GATE WY,Oakland,CA,
62ND AV & LAIRD AV,Oakland,CA,
2000 DURANT AV,Oakland,CA,
NB 98TH OFFRP AV & NB I880,Oakland,CA,
1200 SUNNYHILLS RD,Oakland,CA,
500 52ND ST,Oakland,CA,
1700 9TH AV,Oakland,CA,
89TH AV & A ST,Oakland,CA,
5100 MASONIC AV,Oakland,CA,
1500 15TH AV,Oakland,CA,
5600 FLORENCE TER,Oakland,CA,
700 BROOKLYN AV,Oakland,CA,
4300 RETTIG AV,Oakland,CA,
3200 ELLIOT ST,Oakland,CA,
57TH ST & DOVER ST,Oakland,CA,
6600 SNAKE RD,Oakland,CA,
1100 18TH ST,Oakland,CA,
4000 LAKESHORE AV,Oakland,CA,
4600 KAPHAN AV,Oakland,CA,
35TH AV & DELAWARE ST,Oakland,CA,
4700 COLISEUM WY,Oakland,CA,
5800 BIRCH CT,Oakland,CA,
11300 ETTRICK ST,Oakland,CA,
3600 VICTOR AV,Oakland,CA,
E 15TH ST & 57TH AV,Oakland,CA,
MACARTHUR BLVD & VAN BUREN AV,Oakland,CA,
COVINGTON ST & MARLOW DR,Oakland,CA,
89TH AV & B ST,Oakland,CA,
700 33RD ST,Oakland,CA,
COURTLAND AV & FLEMING AV,Oakland,CA,
62ND ST & HERZOG ST,Oakland,CA,
CALDERWOOD CT & CAMPUS DR,Oakland,CA,
1100 MANDANA BLVD,Oakland,CA,
2000 SOLANO WY,Oakland,CA,
4300 HOWARD ST,Oakland,CA,
CHAMPION ST & HAROLD ST,Oakland,CA,
6100 SWAINLAND RD,Oakland,CA,
10300 PLYMOUTH ST,Oakland,CA,
FOREST ST & SHAFTER AV,Oakland,CA,
12TH AV & E 21ST ST,Oakland,CA,
900 27TH AV,Oakland,CA,
E 12TH ST & 53RD AV,Oakland,CA,
3200 CALIFORNIA ST,Oakland,CA,
E 10TH ST & 4TH AV,Oakland,CA,
3700 LINDEN ST,Oakland,CA,
26TH ST & VALDEZ ST,Oakland,CA,
1800 DRAKE DR,Oakland,CA,
9400 A ST,Oakland,CA,
6600 DANA ST,Oakland,CA,
CAIRO RD & HEGENBERGER LOOP,Oakland,CA,
5500 VICENTE WY,Oakland,CA,
10100 PLYMOUTH ST,Oakland,CA,
24TH ST & HARRISON ST,Oakland,CA,
E 12TH ST & 41ST AV,Oakland,CA,
6900 FLORA ST,Oakland,CA,
LEONA DR & MOUNTAIN BLVD,Oakland,CA,
9500 D ST,Oakland,CA,
5400 MASONIC AV,Oakland,CA,
6800 ARMOUR DR,Oakland,CA,
5900 ADELINE ST,Oakland,CA,
3800 BROWN AV,Oakland,CA,
ADELINE ST & MIDDLE HARBOR RD,Oakland,CA,
COLE ST & YGNACIO AV,Oakland,CA,
3500 64TH AV PL,Oakland,CA,
HANNAH ST & PERALTA ST,Oakland,CA,
7900 SHAY DR,Oakland,CA,
5300 ESTATES DR,Oakland,CA,
2500 DAMUTH ST,Oakland,CA,
4100 SAINT ANDREWS RD,Oakland,CA,
0 MERLIN CT,Oakland,CA,
2200 COLOMA ST,Oakland,CA,
4200 MAPLE AV,Oakland,CA,
3200 HIGH ST,Oakland,CA,
55TH AV & HILTON ST,Oakland,CA,
6600 LIGGETT DR,Oakland,CA,
3900 BROWN AV,Oakland,CA,
1500 MARTIN LUTHER KING JR WY,Oakland,CA,
FRUITVALE AV & PLEASANT ST,Oakland,CA,
61ST ST & MARKET ST,Oakland,CA,
3300 PARTRIDGE AV,Oakland,CA,
3600 WISCONSIN ST,Oakland,CA,
MOUNTAIN BLVD & SHONE AV,Oakland,CA,
DAMUTH ST & FRUITVALE AV,Oakland,CA,
61ST ST & RACINE ST,Oakland,CA,
3400 KANSAS ST,Oakland,CA,
10800 ETTRICK ST,Oakland,CA,
5800 CHABOT CT,Oakland,CA,
W GRAND AV & WAKE AV,Oakland,CA,
4300 BRIAR CLIFF RD,Oakland,CA,
3300 65TH AV,Oakland,CA,
E 12TH ST & 21ST AV,Oakland,CA,
100 CHESTNUT ST,Oakland,CA,
6400 BROADWAY TER,Oakland,CA,
300 CAVOUR ST,Oakland,CA,
CLIFTON ST & MANILA AV,Oakland,CA,
3500 BUTTERS DR,Oakland,CA,
100TH AV & D ST,Oakland,CA,
23RD AV & E 9TH ST,Oakland,CA,
3400 MIDVALE AV,Oakland,CA,
2500 E 20TH ST,Oakland,CA,
7000 NORFOLK RD,Oakland,CA,
5300 BELGRAVE PL,Oakland,CA,
4500 FLEMING AV,Oakland,CA,
13TH ST & WOOD ST,Oakland,CA,
7900 HANSOM DR,Oakland,CA,
4700 BOND ST,Oakland,CA,
1000 94TH AV,Oakland,CA,
2400 WEST 16TH ST,Oakland,CA,
96TH AV & PEACH ST,Oakland,CA,
2500 COLE ST,Oakland,CA,
10100 DANTE AV,Oakland,CA,
2500 PERALTA ST,Oakland,CA,
46TH ST & MARTIN LUTHER KING JR WY,Oakland,CA,
BROOKDALE AV & MONTICELLO AV,Oakland,CA,
3100 GUIDO ST,Oakland,CA,
1600 15TH AV,Oakland,CA,
ANTIOCH CT & MOUNTAIN BLVD,Oakland,CA,
3900 EDENVALE PL,Oakland,CA,
E 15TH ST & MUNSON WY,Oakland,CA,
3RD ST & JACKSON ST,Oakland,CA,
10600 BANCROFT AV,Oakland,CA,
CURRAN AV & TEXAS ST,Oakland,CA,
500 SANTA RAY AV,Oakland,CA,
E 17TH ST & 21ST AV,Oakland,CA,
6800 GUNN DR,Oakland,CA,
105TH AV & BIRCH ST,Oakland,CA,
CHAPMAN ST & DERBY AV,Oakland,CA,
7900 PLYMOUTH ST,Oakland,CA,
2800 E 12TH ST,Oakland,CA,
5500 GENOA ST,Oakland,CA,
6000 PINEWOOD RD,Oakland,CA,
BROADWAY & ROCKRIDGE BLVD,Oakland,CA,
100TH AV & A ST,Oakland,CA,
8300 PLYMOUTH ST,Oakland,CA,
0 SIENA DR,Oakland,CA,
2700 61ST AV,Oakland,CA,
6800 FLORA ST,Oakland,CA,
3100 LINDEN ST,Oakland,CA,
CURRAN AV & SCHOOL ST,Oakland,CA,
9100 B ST,Oakland,CA,
10800 FOOTHILL BLVD,Oakland,CA,
95TH AV & A ST,Oakland,CA,
8100 FONTAINE ST,Oakland,CA,
EB I580 & LAKESHORE AV,Oakland,CA,
1800 12TH AV,Oakland,CA,
W GRAND AV & PERALTA ST,Oakland,CA,
1900 DRAKE DR,Oakland,CA,
ATLAS AV & REDWOOD RD,Oakland,CA,
25TH AV & E 26TH ST,Oakland,CA,
BAYVIEW AV & ELLIOT ST,Oakland,CA,
41ST AV & CARRINGTON ST,Oakland,CA,
1200 19TH ST,Oakland,CA,
9400 EDES AV,Oakland,CA,
8300 EDGEWATER DR,Oakland,CA,
2000 22ND AV,Oakland,CA,
3200 WISCONSIN ST,Oakland,CA,
10600 ROYAL ANN ST,Oakland,CA,
E 12TH ST & 17TH AV,Oakland,CA,
1000 26TH AV,Oakland,CA,
WB HARRISON OFFRP ST & WB I580,Oakland,CA,
500 LEWIS ST,Oakland,CA,
5400 BRYANT AV,Oakland,CA,
800 LEO WY,Oakland,CA,
4000 RUSTING AV,Oakland,CA,
200 CRESTMONT DR,Oakland,CA,
900 UNDERHILLS RD,Oakland,CA,
1900 DURANT AV,Oakland,CA,
6600 EXETER DR,Oakland,CA,
65TH AV & BANCROFT AV,Oakland,CA,
BONA ST & COOLIDGE AV,Oakland,CA,
74TH AV & GARFIELD AV,Oakland,CA,
COOLIDGE AV & SUTER ST,Oakland,CA,
6900 SNELL ST,Oakland,CA,
38TH AV & SAN LEANDRO ST,Oakland,CA,
4400 PAMPAS AV,Oakland,CA,
4500 MATTIS CT,Oakland,CA,
4000 LOMA VISTA AV,Oakland,CA,
66TH ST & HERZOG ST,Oakland,CA,
1000 E 11TH ST,Oakland,CA,
9700 MADDUX DR,Oakland,CA,
62ND AV & HARMON AV,Oakland,CA,
5400 REDWOOD RD,Oakland,CA,
6500 ASCOT DR,Oakland,CA,
2200 WEST ST,Oakland,CA,
4400 SAINT ANDREWS RD,Oakland,CA,
1500 2ND AV,Oakland,CA,
21ST ST & MARTIN LUTHER KING JR WY,Oakland,CA,
3700 LILY ST,Oakland,CA,
E 20TH ST & 25TH AV,Oakland,CA,
BROADWAY & WHITMORE ST,Oakland,CA,
8800 E ST,Oakland,CA,
ALCATRAZ AV & COLBY ST,Oakland,CA,
800 12TH ST,Oakland,CA,
8100 STERLING DR,Oakland,CA,
10TH AV & E 22ND ST,Oakland,CA,
13TH AV & BAYVIEW AV,Oakland,CA,
500 49TH ST,Oakland,CA,
6900 ELVERTON DR,Oakland,CA,
5400 THOMAS AV,Oakland,CA,
500 WALAVISTA AV,Oakland,CA,
13700 CAMPUS DR,Oakland,CA,
77TH AV & SAN LEANDRO ST,Oakland,CA,
4200 COOLIDGE AV,Oakland,CA,
2900 BEST AV,Oakland,CA,
96TH AV & WALNUT ST,Oakland,CA,
42ND AV & CARRINGTON ST,Oakland,CA,
300 PORTLAND AV,Oakland,CA,
2900 PARK BLVD,Oakland,CA,
4600 WEST ST,Oakland,CA,
3400 JORDAN RD,Oakland,CA,
1700 18TH ST,Oakland,CA,
64TH AV & OUTLOOK AV,Oakland,CA,
1300 48TH AV,Oakland,CA,
62ND ST & SHATTUCK AV,Oakland,CA,
4500 HOWE ST,Oakland,CA,
7700 OUTLOOK AV,Oakland,CA,
LESTER AV & NEWTON AV,Oakland,CA,
700 20TH ST,Oakland,CA,
15TH ST & PERALTA ST,Oakland,CA,
1000 MANDANA BLVD,Oakland,CA,
6200 ANTIOCH ST,Oakland,CA,
2500 INYO AV,Oakland,CA,
2700 CARISBROOK DR,Oakland,CA,
3800 QUIGLEY ST,Oakland,CA,
8400 A ST,Oakland,CA,
CHURCH ST & HALLIDAY AV,Oakland,CA,
8000 COLLINS DR,Oakland,CA,
MACARTHUR BLVD & WARNER AV,Oakland,CA,
100TH AV & SUNNYSIDE ST,Oakland,CA,
9300 RAILROAD AV,Oakland,CA,
2400 78TH AV,Oakland,CA,
2100 CURTIS ST,Oakland,CA,
2000 107TH AV,Oakland,CA,
8700 E ST,Oakland,CA,
700 TARTARIAN ST,Oakland,CA,
11TH ST & PERALTA ST,Oakland,CA,
KINGSLAND AV & TRASK ST,Oakland,CA,
0 STONEWALL RD,Oakland,CA,
14TH AV & E 33RD ST,Oakland,CA,
70TH AV & SNELL ST,Oakland,CA,
2400 E 28TH ST,Oakland,CA,
5800 CLOVER DR,Oakland,CA,
PERKINS ST & WARWICK AV,Oakland,CA,
9500 GOLF LINKS RD,Oakland,CA,
ALICE ST & EMBARCADERO WEST,Oakland,CA,
4300 WEST ST,Oakland,CA,
39TH AV & SAN LEANDRO ST,Oakland,CA,
3500 REDDING ST,Oakland,CA,
MEDAU PL & MORAGA AV,Oakland,CA,
8400 IRIS ST,Oakland,CA,
5000 FAIR AV,Oakland,CA,
5800 MORSE DR,Oakland,CA,
0 VICENTE PL,Oakland,CA,
9200 CORAL RD,Oakland,CA,
BEAT 23,Oakland,CA,
2400 13TH AV,Oakland,CA,
10200 ROYAL OAK RD,Oakland,CA,
800 1&2 34TH ST,Oakland,CA,
6600 PINE NEEDLE DR,Oakland,CA,
69TH AV & FOOTHILL BLVD,Oakland,CA,
1400 CENTER ST,Oakland,CA,
10300 SHAW ST,Oakland,CA,
6000 HARMON AV,Oakland,CA,
19TH AV & SAN ANTONIO WY,Oakland,CA,
13000 PARKHURST DR,Oakland,CA,
4000 REINHARDT DR,Oakland,CA,
0 ALVARADO RD,Oakland,CA,
1200 1&2 MACARTHUR BLVD,Oakland,CA,
1200 19TH AV,Oakland,CA,
1200 20TH AV,Oakland,CA,
5900 HERZOG ST,Oakland,CA,
45TH AV & COLISEUM WY,Oakland,CA,
4900 PROCTOR AV,Oakland,CA,
4200 39TH AV,Oakland,CA,
2400 POPLAR ST,Oakland,CA,
8900 HILLSIDE ST,Oakland,CA,
CANON AV & MACARTHUR BLVD,Oakland,CA,
42ND ST & WEBSTER ST,Oakland,CA,
2000 BRAEMAR RD,Oakland,CA,
4300 LEACH AV,Oakland,CA,
4600 CAMDEN ST,Oakland,CA,
5300 GOLDEN GATE AV,Oakland,CA,
5500 ESTATES DR,Oakland,CA,
HARRISON ST & SANTA CLARA AV,Oakland,CA,
CARMEL ST & COOLIDGE AV,Oakland,CA,
ARLINGTON AV & MARKET ST,Oakland,CA,
57TH AV & EDGERLY ST,Oakland,CA,
CLAY ST & SAN PABLO AV,Oakland,CA,
800 MYRTLE ST,Oakland,CA,
2400 DELMER ST,Oakland,CA,
3300 PIEDMONT AV,Oakland,CA,
PARK BLVD & SPRUCE ST,Oakland,CA,
6700 LION WY,Oakland,CA,
4200 LINNET AV,Oakland,CA,
14300 SKYLINE BLVD,Oakland,CA,
35TH AV & GRAY ST,Oakland,CA,
9900 BIRCH ST,Oakland,CA,
1600 MIDDLE HARBOR RD,Oakland,CA,
33RD AV & E 9TH ST,Oakland,CA,
BROADWAY & RIDGEWAY AV,Oakland,CA,
4100 E 17TH ST,Oakland,CA,
23RD AV & E 26TH ST,Oakland,CA,
PIERSON ST & REDDING ST,Oakland,CA,
4000 MASTERSON ST,Oakland,CA,
3200 FLORIDA ST,Oakland,CA,
6900 OUTLOOK AV,Oakland,CA,
BROADWAY & LAWTON AV,Oakland,CA,
3400 ROBINSON DR,Oakland,CA,
3300 LAUREL AV,Oakland,CA,
30TH ST & BROOK ST,Oakland,CA,
87TH AV & D ST,Oakland,CA,
1600 14TH AV,Oakland,CA,
20TH ST & MARTIN LUTHER KING JR WY,Oakland,CA,
2900 SHORT ST,Oakland,CA,
2400 MANZANITA DR,Oakland,CA,
1600 9TH AV,Oakland,CA,
2800 MANDELA PKWY,Oakland,CA,
5600 MERRIEWOOD DR,Oakland,CA,
0 BAY FOREST DR,Oakland,CA,
5600 CHELTON DR,Oakland,CA,
3400 SEMINARY AV,Oakland,CA,
NORTH ST & TELEGRAPH AV,Oakland,CA,
3800 VICTOR AV,Oakland,CA,
600 JACKSON ST,Oakland,CA,
9000 SAN LEANDRO ST,Oakland,CA,
90TH AV & D ST,Oakland,CA,
GUIDO ST & MONTEREY BLVD,Oakland,CA,
1000 E 20TH ST,Oakland,CA,
2700 OCTAVIA ST,Oakland,CA,
2500 CHEROKEE AV,Oakland,CA,
12TH ST & MAGNOLIA ST,Oakland,CA,
3500 CALAFIA AV,Oakland,CA,
WB I580 & KELLER AV,Oakland,CA,
11000 CAMERON AV,Oakland,CA,
6800 AITKEN DR,Oakland,CA,
6800 BUCKINGHAM BLVD,Oakland,CA,
5600 VICENTE ST,Oakland,CA,
15TH ST & CENTER ST,Oakland,CA,
67TH AV & AVENAL AV,Oakland,CA,
40TH ST & LUSK ST,Oakland,CA,
4900 DAVENPORT AV,Oakland,CA,
3700 KELLER AV,Oakland,CA,
6300 HEATHER RIDGE WY,Oakland,CA,
12TH AV & E 18TH ST,Oakland,CA,
7100 ARTHUR ST,Oakland,CA,
51ST ST & PLEASANT VALLEY AV,Oakland,CA,
0 NORTH HILL CT,Oakland,CA,
2600 NICOL AV,Oakland,CA,
10700 BREED AV,Oakland,CA,
34TH ST & LINDEN ST,Oakland,CA,
58TH ST & GENOA ST,Oakland,CA,
35TH AV & HAGEMAN AV,Oakland,CA,
7700 GREENLY DR,Oakland,CA,
28TH ST & LINDEN ST,Oakland,CA,
10200 SAN LEANDRO ST,Oakland,CA,
3200 ARDLEY AV,Oakland,CA,
10800 MCINTYRE ST,Oakland,CA,
1200 E 24TH ST,Oakland,CA,
800 14TH ST,Oakland,CA,
22ND AV & E 31ST ST,Oakland,CA,
4800 BROADWAY,Oakland,CA,
64TH AV & HARMON AV,Oakland,CA,
1600 MYRTLE ST,Oakland,CA,
7000 HERBERT GUICE WY,Oakland,CA,
73RD AV & HEGENBERGER ONRP,Oakland,CA,
4300 OAK HILL RD,Oakland,CA,
14TH AV & E 25TH ST,Oakland,CA,
8900 SAGE RD,Oakland,CA,
JAYNE AV & PERKINS ST,Oakland,CA,
2300 ROSEDALE AV,Oakland,CA,
6200 BROOKSIDE AV,Oakland,CA,
500 LANCASTER ST,Oakland,CA,
3100 MCKILLOP RD,Oakland,CA,
65TH ST & SHATTUCK AV,Oakland,CA,
0 EL PATIO ST,Oakland,CA,
1700 WELLINGTON ST,Oakland,CA,
64TH AV & ARTHUR ST,Oakland,CA,
HEGENBERGER RD & NB I880,Oakland,CA,
1100 13TH AV,Oakland,CA,
3000 E 29TH ST,Oakland,CA,
GLASCOCK ST & LANCASTER ST,Oakland,CA,
8300 OUTLOOK AV,Oakland,CA,
21ST ST & CURTIS ST,Oakland,CA,
10600 TOPANGA DR,Oakland,CA,
6300 MONADNOCK WY,Oakland,CA,
4000 HUNTINGTON ST,Oakland,CA,
1400 UNION ST,Oakland,CA,
46TH ST & LINDEN ST,Oakland,CA,
3600 MANGELS AV,Oakland,CA,
2000 E 24TH ST,Oakland,CA,
29TH ST & MCCLURE ST,Oakland,CA,
CUNNINGHAM ST & DAVENPORT AV,Oakland,CA,
1200 90TH AVE,Oakland,CA,
1900 WARNER AV,Oakland,CA,
BERNHARDT DR & FOSTER AV,Oakland,CA,
E 17TH ST & 57TH AV,Oakland,CA,
1300 CAMPBELL ST,Oakland,CA,
8600 OLIVE ST,Oakland,CA,
1700 PLEASANT VALLEY AV,Oakland,CA,
2000 LEIMERT BLVD,Oakland,CA,
100 KIMBERLIN HEIGHTS DR,Oakland,CA,
5400 SHAFTER AV,Oakland,CA,
2000 17TH AV,Oakland,CA,
9200 A ST,Oakland,CA,
CARSON ST & REINHARDT DR,Oakland,CA,
3400 GUIDO ST,Oakland,CA,
93RD AV & B ST,Oakland,CA,
3000 E 10TH ST,Oakland,CA,
400 E 10TH ST,Oakland,CA,
DURANT AV & MACARTHUR BLVD,Oakland,CA,
2400 HAROLD ST,Oakland,CA,
35TH AV & ARIZONA ST,Oakland,CA,
7500 HAMILTON ST,Oakland,CA,
2900 E 17TH ST,Oakland,CA,
OAKLAND AV & SANTA CLARA AV,Oakland,CA,
2800 MODESTO AV,Oakland,CA,
0 SANTA CLARA AV,Oakland,CA,
5600 OAKPORT ST,Oakland,CA,
6400 THORNHILL DR,Oakland,CA,
3200 CRANE WY,Oakland,CA,
3700 RHODA AV,Oakland,CA,
9300 OSCAR AV,Oakland,CA,
600 26TH ST,Oakland,CA,
11200 ELVESSA ST,Oakland,CA,
200 HUNTER AV,Oakland,CA,
1100 E 21ST ST,Oakland,CA,
DIRECTIVE,Oakland,CA,
E 10TH ST & LISBON AV,Oakland,CA,
5200 MACARTHUR BLVD,Oakland,CA,
BAYO VISTA AV & EL DORADO AV,Oakland,CA,
13TH AV & E 20TH ST,Oakland,CA,
LAKE PARK AV & MACARTHUR BLVD,Oakland,CA,
11TH AV & BELLA VISTA AV,Oakland,CA,
900 61ST PL,Oakland,CA,
E 24TH ST & 9TH AV,Oakland,CA,
500 LA PRENDA DR,Oakland,CA,
2300 MAGNOLIA ST,Oakland,CA,
47TH AV & CONGRESS AV,Oakland,CA,
4400 OAK HILL RD,Oakland,CA,
5600 MARKET ST,Oakland,CA,
SKYLINE BLVD & SNAKE RD,Oakland,CA,
ELMWOOD AV & FRUITVALE AV,Oakland,CA,
4200 MARKET ST,Oakland,CA,
10TH AV & E 28TH ST,Oakland,CA,
1200 MANUEL CT,Oakland,CA,
4300 GORDON ST,Oakland,CA,
1900 EMBARCADERO COVE,Oakland,CA,
900 E 20TH ST,Oakland,CA,
38TH AV & MASTERSON ST,Oakland,CA,
21ST ST & ADELINE ST,Oakland,CA,
800 BROOKLYN AV,Oakland,CA,
104TH AV & PONTIAC ST,Oakland,CA,
1200 E 17TH ST,Oakland,CA,
4300 WEBSTER ST,Oakland,CA,
6300 HILLMONT DR,Oakland,CA,
2500 80TH AV,Oakland,CA,
6TH ST & JEFFERSON ST,Oakland,CA,
MACARTHUR BLVD & WILSON AV,Oakland,CA,
CAVOUR ST & MANILA AV,Oakland,CA,
3400 E 8TH ST,Oakland,CA,
1000 HARRISON ST,Oakland,CA,
BROOKLYN AV & WESLEY AV,Oakland,CA,
3800 MOUNTAIN BLVD,Oakland,CA,
1700 15TH AV,Oakland,CA,
4300 FRUITVALE AV,Oakland,CA,
3700 SILVERWOOD AV,Oakland,CA,
1500 LINDEN ST,Oakland,CA,
1600 16TH AV,Oakland,CA,
5200 PROCTOR AV,Oakland,CA,
15TH AV & E 15TH ST,Oakland,CA,
7100 WESTMOORLAND DR,Oakland,CA,
45TH AV & FOOTHILL BLVD,Oakland,CA,
400 ADELINE ST,Oakland,CA,
41ST ST & GILBERT ST,Oakland,CA,
2200 E 29TH ST,Oakland,CA,
59TH ST & MACCALL ST,Oakland,CA,
LAKESIDE DR & MADISON ST,Oakland,CA,
3300 COLUMBIAN DR,Oakland,CA,
400 CAPITAL ST,Oakland,CA,
600 13TH ST,Oakland,CA,
3RD ST & FILBERT ST,Oakland,CA,
1200 MARKET ST,Oakland,CA,
BRIGHTON AV & MACARTHUR BLVD,Oakland,CA,
5900 BRUNS CT,Oakland,CA,
DIRECTED PAT,Oakland,CA,
3RD ST & CENTER ST,Oakland,CA,
24TH ST & MAGNOLIA ST,Oakland,CA,
3500 RANDOLPH AV,Oakland,CA,
2500 CARMEL ST,Oakland,CA,
1200 6TH AV,Oakland,CA,
4300 ALBERT ST,Oakland,CA,
7000 KRAUSE AV,Oakland,CA,
PASO ROBLES DR & SHEPHERD CANYON RD,Oakland,CA,
700 11TH ST,Oakland,CA,
BROADWAY & BROOKSIDE AV,Oakland,CA,
106TH AV & ROYAL ANN ST,Oakland,CA,
ATHOL AV & CLEVELAND AV,Oakland,CA,
10100 STANLEY AV,Oakland,CA,
3400 WISCONSIN ST,Oakland,CA,
400 MARTIN LUTHER KING JR WY,Oakland,CA,
3400 CALIFORNIA ST,Oakland,CA,
38TH ST & MANILA AV,Oakland,CA,
5600 MASONIC AV,Oakland,CA,
1300 MIDDLE HARBOR RD,Oakland,CA,
6700 COLTON BLVD,Oakland,CA,
5500 MERRIEWOOD DR,Oakland,CA,
BUELL ST & CALAVARAS AV,Oakland,CA,
800 49TH AV,Oakland,CA,
10700 SNOWDOWN AV,Oakland,CA,
300 CRESTMONT DR,Oakland,CA,
14TH AV & E 19TH ST,Oakland,CA,
7100 OUTLOOK AV,Oakland,CA,
200 19TH ST,Oakland,CA,
98TH AV & AIRPORT DR,Oakland,CA,
1300 ALVARADO RD,Oakland,CA,
1800 E 12TH ST,Oakland,CA,
11100 KERRIGAN DR,Oakland,CA,
E 16TH ST & 33RD AV,Oakland,CA,
4000 VALE AV,Oakland,CA,
2300 E 30TH ST,Oakland,CA,
10300 DANTE AV,Oakland,CA,
39TH AV & BAYO ST,Oakland,CA,
10300 SAN LEANDRO ST,Oakland,CA,
E 19TH ST & 6TH AV,Oakland,CA,
1300 FITZGERALD ST,Oakland,CA,
WB I580 & MACARTHUR BLVD,Oakland,CA,
8000 HOLLY ST,Oakland,CA,
3000 HYDE ST,Oakland,CA,
6200 CHABOT RD,Oakland,CA,
8400 SKYLINE BLVD,Oakland,CA,
19TH ST & WEST ST,Oakland,CA,
2400 WILBUR ST,Oakland,CA,
5400 KALES AV,Oakland,CA,
2600 BEAL AV,Oakland,CA,
9700 A ST,Oakland,CA,
800 CASTRO ST,Oakland,CA,
DELAWARE ST & LAUREL AV,Oakland,CA,
E 18TH ST & 40TH AV,Oakland,CA,
8100 PLYMOUTH ST,Oakland,CA,
11800 FOOTHILL WY,Oakland,CA,
8800 FONTAINE ST,Oakland,CA,
900 MARTIN LUTHER KING JR WY,Oakland,CA,
3800 CERRITO AV,Oakland,CA,
3000 DAVIS ST,Oakland,CA,
LOUISIANA ST & RAILROAD AV,Oakland,CA,
6500 RAYMOND ST,Oakland,CA,
4700 SHETLAND AV,Oakland,CA,
BERGEDO DR & ESTEPA DR,Oakland,CA,
89TH AV & DOWLING ST,Oakland,CA,
FARNAM ST & FRUITVALE AV,Oakland,CA,
200 BEAUFOREST DR,Oakland,CA,
200 CLAY ST,Oakland,CA,
3000 CHESTNUT ST,Oakland,CA,
106TH AV & SAN LEANDRO ST,Oakland,CA,
RICHMOND BLVD & WESTALL AV,Oakland,CA,
5900 COLTON BLVD,Oakland,CA,
1800 GLEASON WY,Oakland,CA,
100 CAPRICORN AV,Oakland,CA,
1200 DERBY AV,Oakland,CA,
2700 E 22ND ST,Oakland,CA,
34TH ST & MANDELA PKWY,Oakland,CA,
0 MARKET ST,Oakland,CA,
6600 HILLMONT DR,Oakland,CA,
300 MANDELA PKWY,Oakland,CA,
E 27TH ST & GRANDE VISTA AV,Oakland,CA,
0 KNOLL RIDGE WY,Oakland,CA,
10200 VOLTAIRE AV,Oakland,CA,
1900 BRUSH ST,Oakland,CA,
67TH AV & ARTHUR ST,Oakland,CA,
4500 MONTGOMERY ST,Oakland,CA,
2000 25TH AV,Oakland,CA,
1300 E 21ST ST,Oakland,CA,
8300 SKYLINE BLVD,Oakland,CA,
E 16TH ST & 61ST AV,Oakland,CA,
5600 TRASK ST,Oakland,CA,
8800 G ST,Oakland,CA,
22ND AV & COMMERCE WY,Oakland,CA,
7400 CIRCLE HILL DR,Oakland,CA,
MACARTHUR BLVD & MAGEE AV,Oakland,CA,
57TH ST & MARTIN LUTHER KING JR WY,Oakland,CA,
700 CARLSTON AV,Oakland,CA,
BELLEVUE AV & ELLITA AV,Oakland,CA,
1800 MACARTHUR BLVD,Oakland,CA,
HARRINGTON AV & LYON AV,Oakland,CA,
EDES AV & NB HEGENBERGER ONRP AV,Oakland,CA,
1700 17TH ST,Oakland,CA,
4TH ST & CLAY ST,Oakland,CA,
1900 SAN ANTONIO WY,Oakland,CA,
7400 BANCROFT AV,Oakland,CA,
3700 ELSTON AV,Oakland,CA,
PIEDMONT AV & RIO VISTA AV,Oakland,CA,
BROOKDALE AV & RAWSON ST,Oakland,CA,
HUMBOLDT AV & PENNIMAN AV,Oakland,CA,
1400 62ND AV,Oakland,CA,
11TH ST & PINE ST,Oakland,CA,
11200 KERRIGAN DR,Oakland,CA,
2500 EL CAMINITO,Oakland,CA,
75TH AV & SNELL ST,Oakland,CA,
8000 SHEPHERD CANYON RD,Oakland,CA,
1900 18TH AV,Oakland,CA,
14TH ST & WEST ST,Oakland,CA,
10900 CAMERON AV,Oakland,CA,
5700 BUENA VISTA AV,Oakland,CA,
5700 LOS ANGELES ST,Oakland,CA,
E 11TH ST & 8TH AV,Oakland,CA,
700 CLEVELAND ST,Oakland,CA,
2800 E 21ST ST,Oakland,CA,
9800 PEARMAIN ST,Oakland,CA,
2600 CHEROKEE AV,Oakland,CA,
4700 GRASS VALLEY RD,Oakland,CA,
SB EMBARCADERO OFFRP E & SB I880,Oakland,CA,
100 ALTA RD,Oakland,CA,
3100 PARTRIDGE AV,Oakland,CA,
14TH ST & LINDEN ST,Oakland,CA,
21ST AV & E 28TH ST,Oakland,CA,
2600 CHELSEA DR,Oakland,CA,
COOLIDGE AV & DELAWARE ST,Oakland,CA,
58TH ST & MARKET ST,Oakland,CA,
10200 EDES AV,Oakland,CA,
5900 RINCON DR,Oakland,CA,
CORAL RD & SEXTUS RD,Oakland,CA,
3300 39TH AV,Oakland,CA,
EB HARRISON ONRP ST & EB I580,Oakland,CA,
3100 LAKESHORE AV,Oakland,CA,
11200 MONAN ST,Oakland,CA,
0 CHIMNEY ROCK,Oakland,CA,
7500 HANSOM DR,Oakland,CA,
100 JOHN ST,Oakland,CA,
28TH ST & WEBSTER ST,Oakland,CA,
E 18TH ST & 39TH AV,Oakland,CA,
E 22ND ST & RUTHERFORD ST,Oakland,CA,
9200 GOLF LINKS RD,Oakland,CA,
4200 DUNSMUIR AV,Oakland,CA,
2600 MINNA AV,Oakland,CA,
BRUSH ST & SAN PABLO AV,Oakland,CA,
2000 105TH AV,Oakland,CA,
6900 SARONI DR,Oakland,CA,
3900 CERRITO AV,Oakland,CA,
21ST ST & POPLAR ST,Oakland,CA,
30TH ST & SUMMIT ST,Oakland,CA,
0 CHANCELLOR PL,Oakland,CA,
4600 EL CENTRO AV,Oakland,CA,
2600 98TH AV,Oakland,CA,
E 20TH ST & PARK BLVD,Oakland,CA,
103RD AV & VOLTAIRE AV,Oakland,CA,
700 45TH AV,Oakland,CA,
ESTATES DR & MORAGA AV,Oakland,CA,
1800 MIDDLE HARBOR RD,Oakland,CA,
BROADWAY & CORONADO AV,Oakland,CA,
4300 HOWE ST,Oakland,CA,
LAKE PARK AV & WESLEY WY,Oakland,CA,
2500 MOUNTAIN BLVD,Oakland,CA,
200 RISHELL DR,Oakland,CA,
BAYO ST & MAYBELLE AV,Oakland,CA,
5300 HARBORD DR,Oakland,CA,
3500 MORCOM AV,Oakland,CA,
10700 PRINCE ROYAL ST,Oakland,CA,
4900 CORONADO AV,Oakland,CA,
3100 E 15TH ST,Oakland,CA,
9000 HOLLY ST,Oakland,CA,
W GRAND AV & MAGNOLIA ST,Oakland,CA,
7600 STERLING DR,Oakland,CA,
7200 HERBERT GUICE WY,Oakland,CA,
10000 C ST,Oakland,CA,
96TH AV & B ST,Oakland,CA,
100 SHERIDAN RD,Oakland,CA,
1700 SAN ANTONIO WY,Oakland,CA,
2700 E 20TH ST,Oakland,CA,
17TH ST & CAMPBELL ST,Oakland,CA,
2200 MITCHELL ST,Oakland,CA,
3200 STORER AV,Oakland,CA,
1100 81ST AV,Oakland,CA,
0 WHITMORE PL,Oakland,CA,
5600 LAVERNE AV,Oakland,CA,
ELLINGTON WY & HAWKINS DR,Oakland,CA,
SB HEGENBERGER ONRP AV & SB I880,Oakland,CA,
49TH ST & SHAFTER AV,Oakland,CA,
3400 DELAWARE ST,Oakland,CA,
6500 LONGWALK DR,Oakland,CA,
400 CRESTMONT DR,Oakland,CA,
4300 HYACINTH AV,Oakland,CA,
1300 LAKESHORE AV,Oakland,CA,
3100 60TH AV,Oakland,CA,
3400 HELEN ST,Oakland,CA,
6500 GWIN RD,Oakland,CA,
4300 E 12TH ST,Oakland,CA,
1800 3RD AV,Oakland,CA,
4800 TIDEWATER AV,Oakland,CA,
COURTLAND AV & PENNIMAN AV,Oakland,CA,
600 BOULEVARD WY,Oakland,CA,
10800 BEVERLY AV,Oakland,CA,
SAN LEANDRO ST & STONE ST,Oakland,CA,
HEGENBERGER OFFRP & SAN LEANDRO ST,Oakland,CA,
2300 7TH AV,Oakland,CA,
12TH ST & POPLAR ST,Oakland,CA,
2600 E 23RD ST,Oakland,CA,
35TH ST & MAGNOLIA ST,Oakland,CA,
5500 ADELINE ST,Oakland,CA,
63RD ST & BAKER ST,Oakland,CA,
18TH AV & E 21ST ST,Oakland,CA,
0 HEMLOCK LN,Oakland,CA,
103RD AV & SUNNYSIDE ST,Oakland,CA,
4100 WATERHOUSE RD,Oakland,CA,
7100 THORNHILL DR,Oakland,CA,
5500 MANILA AV,Oakland,CA,
4000 E 15TH ST,Oakland,CA,
3900 VAN MOURIK AV,Oakland,CA,
15TH ST & MARKET ST,Oakland,CA,
COLUMBIAN DR & GREENLY DR,Oakland,CA,
6400 GIRVIN DR,Oakland,CA,
6000 CASTLE DR,Oakland,CA,
400 MONTCLAIR AV,Oakland,CA,
800 GROSVENOR PL,Oakland,CA,
39TH AV & ALLENDALE AV,Oakland,CA,
5700 SCARBOROUGH DR,Oakland,CA,
ELMHURST AV & E ST,Oakland,CA,
6800 THORNHILL DR,Oakland,CA,
6300 ROCKY POINT CT,Oakland,CA,
0 HOME PL E,Oakland,CA,
7400 NEY AV,Oakland,CA,
7TH ST & W MARITIME ST,Oakland,CA,
MERRIEWOOD DR & THORNHILL DR,Oakland,CA,
APPLE ST & PIPPIN ST,Oakland,CA,
10300 ROYAL ANN ST,Oakland,CA,
2500 12TH AV,Oakland,CA,
2400 UKRAINE ST,Oakland,CA,
800 50TH AV,Oakland,CA,
8000 SKYLINE BLVD,Oakland,CA,
7000 HAMILTON ST,Oakland,CA,
8200 BIRCH ST,Oakland,CA,
ALLENDALE AV & EASTMAN AV,Oakland,CA,
46TH ST & SHATTUCK AV,Oakland,CA,
ALTAMONT AV & HILLMONT DR,Oakland,CA,
61ST ST & MARSHALL ST,Oakland,CA,
3900 LA CRESTA AV,Oakland,CA,
4300 TERRABELLA PL,Oakland,CA,
66TH AV & LUCILLE ST,Oakland,CA,
1900 POPLAR ST,Oakland,CA,
SUNNYMERE AV & VAN MOURIK AV,Oakland,CA,
5400 SHATTUCK AV,Oakland,CA,
62ND AV & OUTLOOK AV,Oakland,CA,
42ND AV & SANTA RITA ST,Oakland,CA,
6300 BANCROFT AV,Oakland,CA,
4900 BROADWAY,Oakland,CA,
2500 WILLOW ST,Oakland,CA,
200 EMBARCADERO,Oakland,CA,
700 PROSPECT AV,Oakland,CA,
2200 SANTA RITA ST,Oakland,CA,
1300 33RD AV,Oakland,CA,
90TH AV & WALNUT ST,Oakland,CA,
E 21ST ST & 24TH AV,Oakland,CA,
55TH ST & FREMONT ST,Oakland,CA,
2200 ARROWHEAD DR,Oakland,CA,
0 CASTLE PARK WY,Oakland,CA,
3900 LINCOLN AV,Oakland,CA,
2ND ST & MADISON ST,Oakland,CA,
102ND AV & ROYAL ANN ST,Oakland,CA,
6600 AITKEN DR,Oakland,CA,
90TH AV & A ST,Oakland,CA,
E 32ND ST & STUART ST,Oakland,CA,
60TH ST & LOWELL,Oakland,CA,
700 5TH AV,Oakland,CA,
COOLIDGE AV & WB I580,Oakland,CA,
8000 SHAY DR,Oakland,CA,
10200 FOOTHILL BLVD,Oakland,CA,
6400 GWIN RD,Oakland,CA,
HIGH ST & WATTLING ST,Oakland,CA,
29TH AV & E 9TH ST,Oakland,CA,
76TH AV & HOLLY ST,Oakland,CA,
ALMA AV & MACARTHUR BLVD,Oakland,CA,
4500 SHATTUCK AV,Oakland,CA,
2700 MONTEREY BLVD,Oakland,CA,
E 20TH ST & 24TH AV,Oakland,CA,
3000 BANTRY AV,Oakland,CA,
1300 MOUNTAIN BLVD,Oakland,CA,
MACARTHUR BLVD & RANDOLPH AV,Oakland,CA,
600 BERGEDO DR,Oakland,CA,
W GRAND AV & WOOD ST,Oakland,CA,
8100 SUNKIST DR,Oakland,CA,
4000 RHODA AV,Oakland,CA,
19TH AV & WALLACE ST,Oakland,CA,
HARBORD DR & MORAGA AV,Oakland,CA,
BARTLETT ST & SCHOOL ST,Oakland,CA,
6900 RIDGEWOOD DR,Oakland,CA,
PARK BLVD & VAN DYKE AV,Oakland,CA,
600 19TH ST,Oakland,CA,
6200 RUTHLAND RD,Oakland,CA,
9700 E ST,Oakland,CA,
600 20TH ST,Oakland,CA,
32ND ST & LOUISE ST,Oakland,CA,
6000 CANNING ST,Oakland,CA,
CLAREMONT AV & COLBY ST,Oakland,CA,
5400 FLEMING AV,Oakland,CA,
2600 MIDDLE HARBOR RD,Oakland,CA,
2500 E 28TH ST,Oakland,CA,
26TH AV & LOGAN ST,Oakland,CA,
7900 OUTLOOK AV,Oakland,CA,
CHETWOOD ST & SANTA CLARA AV,Oakland,CA,
90TH AV & THERMAL ST,Oakland,CA,
7TH ST & BAY ST,Oakland,CA,
105TH AV & KNIGHT ST,Oakland,CA,
5400 CAMDEN ST,Oakland,CA,
73RD AV & DEERWOOD AV,Oakland,CA,
18TH ST & WEST ST,Oakland,CA,
9TH ST & PERALTA ST,Oakland,CA,
2300 BYWOOD DR,Oakland,CA,
1900 DENNISON ST,Oakland,CA,
2ND ST & HARRISON ST,Oakland,CA,
2600 EASTMAN AV,Oakland,CA,
1500 UNION ST,Oakland,CA,
100TH AV & HOLLY ST,Oakland,CA,
600 MC CLARY AV,Oakland,CA,
3400 69TH AV,Oakland,CA,
6100 HOLWAY ST,Oakland,CA,
700 BAY ST,Oakland,CA,
5500 COUNTRY CLUB DR,Oakland,CA,
2200 E 27TH ST,Oakland,CA,
107TH AV & BEVERLY AV,Oakland,CA,
2900 HEDGE CT,Oakland,CA,
4400 MATTIS CT,Oakland,CA,
BUTTERS DR & JOAQUIN MILLER RD,Oakland,CA,
2800 SYLHOWE RD,Oakland,CA,
7000 GREENLY DR,Oakland,CA,
4500 FIELDBROOK RD,Oakland,CA,
88TH AV & OLIVE ST,Oakland,CA,
200 CAPRICORN AV,Oakland,CA,
1600 17TH ST,Oakland,CA,
4500 YGNACIO AV,Oakland,CA,
3300 REVERE AV,Oakland,CA,
10500 BREED AV,Oakland,CA,
900 38TH AV,Oakland,CA,
900 MCKINLEY AV,Oakland,CA,
BROADWAY & WEBSTER ST,Oakland,CA,
BROADWAY & KALES AV,Oakland,CA,
6000 ROMANY RD,Oakland,CA,
62ND ST & COLBY ST,Oakland,CA,
LAUREL AV & SCHOOL ST,Oakland,CA,
28TH ST & PERALTA ST,Oakland,CA,
17TH ST & MANDELA PKWY,Oakland,CA,
COLLEGE AV & HARWOOD AV,Oakland,CA,
4400 TIDEWATER AV,Oakland,CA,
6800 COLTON BLVD,Oakland,CA,
4000 MANILA AV,Oakland,CA,
0 SPYGLASS HILL,Oakland,CA,
2900 CARLSEN ST,Oakland,CA,
5600 COLTON BLVD,Oakland,CA,
87TH AV & PLYMOUTH ST,Oakland,CA,
2600 VIOLA ST,Oakland,CA,
4000 OPAL ST,Oakland,CA,
BALMORAL DR & SKYLINE BLVD,Oakland,CA,
7500 STERLING DR,Oakland,CA,
57TH AV & HOLWAY ST,Oakland,CA,
300 FLORENCE AV,Oakland,CA,
2000 CURTIS ST,Oakland,CA,
0 INTERNATIONAL BLVD,Oakland,CA,
9100 LAWLOR ST,Oakland,CA,
3800 MAPLE AV,Oakland,CA,
3200 SYLVAN AV,Oakland,CA,
6TH ST & ALICE ST,Oakland,CA,
HANOVER AV & WAYNE AV,Oakland,CA,
6700 ARMOUR DR,Oakland,CA,
3RD ST & MADISON ST,Oakland,CA,
7000 HAWLEY ST,Oakland,CA,
1000 MAGNOLIA ST,Oakland,CA,
FLEMING AV & MADERA AV,Oakland,CA,
KELLER AV & RILEA WY,Oakland,CA,
1200 WEST ST,Oakland,CA,
7300 SARONI DR,Oakland,CA,
1400 DERBY AV,Oakland,CA,
51ST ST & MANILA AV,Oakland,CA,
E 15TH ST & 6TH AV,Oakland,CA,
6800 CHARING CROSS RD,Oakland,CA,
7600 MOUNTAIN BLVD,Oakland,CA,
2500 RAMPART ST,Oakland,CA,
96TH AV & A ST,Oakland,CA,
2700 WEST ST,Oakland,CA,
CRANE WY & JOAQUIN MILLER RD,Oakland,CA,
10200 WALNUT ST,Oakland,CA,
1800 EMBARCADERO COVE,Oakland,CA,
5400 FERNHOFF RD,Oakland,CA,
E 18TH ST & 41ST AV,Oakland,CA,
MARTIN LUTHER KING JR WY & SAN PABLO AV,Oakland,CA,
8800 OLIVE ST,Oakland,CA,
10900 COTTER ST,Oakland,CA,
1500 9TH AV,Oakland,CA,
2600 LAS AROMAS,Oakland,CA,
1200 WELLINGTON ST,Oakland,CA,
E 17TH ST & 62ND AV,Oakland,CA,
5500 FERNHOFF RD,Oakland,CA,
E 17TH ST & 9TH AV,Oakland,CA,
4100 HARBOR VIEW AV,Oakland,CA,
3400 13TH AV,Oakland,CA,
E 17TH ST & HIGH ST,Oakland,CA,
900 AQUARIUS WY,Oakland,CA,
GRAND AV & WB I580,Oakland,CA,
CALAVARAS AV & MCCLELLAND ST,Oakland,CA,
1200 45TH AV,Oakland,CA,
4200 LAGUNA AV,Oakland,CA,
1400 14 ST,Oakland,CA,
BROADWAY & MATHER ST,Oakland,CA,
5200 CONGRESS AV,Oakland,CA,
300 E 17TH ST,Oakland,CA,
1100 E 33RD ST,Oakland,CA,
62ND AV & FENHAM ST,Oakland,CA,
5800 MENDOCINO AV,Oakland,CA,
500 ROSAL AV,Oakland,CA,
3900 ENOS AV,Oakland,CA,
2000 CLINTON AV,Oakland,CA,
400 PRINCE ST,Oakland,CA,
44TH ST & MARTIN LUTHER KING JR WY,Oakland,CA,
6200 CAMDEN ST,Oakland,CA,
27TH ST & BAY PL,Oakland,CA,
5500 WALNUT ST,Oakland,CA,
5600 MARGARIDO DR,Oakland,CA,
GREENLY DR & KELLER AV,Oakland,CA,
NB S13 & TUNNEL RD,Oakland,CA,
8200 D ST,Oakland,CA,
4800 SHAFTER AV,Oakland,CA,
5300 E 10TH ST,Oakland,CA,
4700 BANCROFT AV,Oakland,CA,
40TH ST & YERBA BUENA AV,Oakland,CA,
CHENEY AV & WALKER AV,Oakland,CA,
2000 MARIN WY,Oakland,CA,
3000 MORCOM AV,Oakland,CA,
13TH AV & E 27TH ST,Oakland,CA,
5100 CLARKE ST,Oakland,CA,
4900 CLARKE ST,Oakland,CA,
12TH AV & E 23RD ST,Oakland,CA,
5200 HILLEN DR,Oakland,CA,
6000 LA SALLE AV,Oakland,CA,
2300 PELHAM PL,Oakland,CA,
5900 ASCOT DR,Oakland,CA,
LAMP ST & SUNKIST DR,Oakland,CA,
38TH AV & SAN JUAN ST,Oakland,CA,
1100 6TH AV,Oakland,CA,
0 TURTLE CREEK ST,Oakland,CA,
55TH AV & PRINCETON AV,Oakland,CA,
6300 SWAINLAND RD,Oakland,CA,
E 11TH ST & 2ND AV,Oakland,CA,
FLAGG AV & MONTANA ST,Oakland,CA,
7100 HOMEWOOD DR,Oakland,CA,
E 22ND ST & MITCHELL ST,Oakland,CA,
5600 BROADWAY TER,Oakland,CA,
E 23RD ST & 9TH AV,Oakland,CA,
100 GRAVATT DR,Oakland,CA,
0 MARTIN LUTHER KING JR WY,Oakland,CA,
E 10TH ST & 53RD AV,Oakland,CA,
CARRINGTON ST & ROSEDALE AV,Oakland,CA,
1200 E 28TH ST,Oakland,CA,
106TH AV & PONTIAC ST,Oakland,CA,
E 33RD ST & STUART ST,Oakland,CA,
900 YORK ST,Oakland,CA,
ENTRADA AV & PIEDMONT AV,Oakland,CA,
66TH AV & NB I880,Oakland,CA,
38TH AV & MERA ST,Oakland,CA,
E 24TH ST & HIGHLAND AV,Oakland,CA,
500 KIRKHAM ST,Oakland,CA,
KINGSTON AV & MONTE VISTA AV,Oakland,CA,
4600 REDDING ST,Oakland,CA,
100 RISHELL DR,Oakland,CA,
10500 SKYLINE BLVD,Oakland,CA,
1600 5TH ST,Oakland,CA,
SP ASSIGN,Oakland,CA,
29TH AV & E 7TH ST,Oakland,CA,
84TH AV & E ST,Oakland,CA,
6400 IRWIN CT,Oakland,CA,
100TH AV & VOLTAIRE AV,Oakland,CA,
6000 MANCHESTER DR,Oakland,CA,
MERRIMAC ST & TELEGRAPH AV,Oakland,CA,
1600 53RD AV,Oakland,CA,
CALDECOTT LN & TUNNEL RD,Oakland,CA,
NEY AV & RITCHIE ST,Oakland,CA,
400 CREIGHTON WY,Oakland,CA,
20TH ST & BRUSH ST,Oakland,CA,
6200 E 17TH ST,Oakland,CA,
3500 E 18TH ST,Oakland,CA,
6500 CASTLE DR,Oakland,CA,
20TH AV & E 20TH ST,Oakland,CA,
64TH AV & BROMLEY AV,Oakland,CA,
4100 BALFOUR AV,Oakland,CA,
ATHOL AV & WAYNE AV,Oakland,CA,
1000 YERBA BUENA AV,Oakland,CA,
TIFFIN RD & WHITTLE AV,Oakland,CA,
LEE ST & VERNON ST,Oakland,CA,
63RD AV & FOOTHILL BLVD,Oakland,CA,
0 DRURY LN,Oakland,CA,
82ND AV & D ST,Oakland,CA,
62ND ST & MARSHALL ST,Oakland,CA,
1800 CAMPBELL ST,Oakland,CA,
3600 REDWOOD RD,Oakland,CA,
SEMINARY AV & WALNUT ST,Oakland,CA,
E 18TH ST & 36TH AV,Oakland,CA,
54TH AV & E 8TH ST,Oakland,CA,
1600 24TH ST,Oakland,CA,
9400 CORAL RD,Oakland,CA,
0 WALDECK CT,Oakland,CA,
1200 17TH AV,Oakland,CA,
900 GLENDOME CIR,Oakland,CA,
1700 BRANDON ST,Oakland,CA,
CAVOUR ST & MILES AV,Oakland,CA,
600 7TH ST,Oakland,CA,
1000 HOLLYWOOD AV,Oakland,CA,
60TH ST & SHATTUCK AV,Oakland,CA,
3100 HOOD ST,Oakland,CA,
2800 19TH AV,Oakland,CA,
6300 MAJESTIC AV,Oakland,CA,
4500 ALLENDALE AV,Oakland,CA,
6500 HEATHER RIDGE WY,Oakland,CA,
74TH AV & HOLLY ST,Oakland,CA,
500 BEACON ST,Oakland,CA,
80TH AV & PLYMOUTH ST,Oakland,CA,
3700 ATLAS AV,Oakland,CA,
7000 ELVERTON DR,Oakland,CA,
50TH AV & E 8TH ST,Oakland,CA,
1400 105TH AV,Oakland,CA,
3000 MADERA AV,Oakland,CA,
MOUNTAIN BLVD & SEQUOYAH RD,Oakland,CA,
100 THOUSAND OAKS,Oakland,CA,
5500 GLENBROOK DR,Oakland,CA,
1100 4TH AV,Oakland,CA,
EXCELSIOR AV & GLEN PARK RD,Oakland,CA,
3400 82ND AV,Oakland,CA,
77TH AV & GARFIELD AV,Oakland,CA,
0 GREGORY PL,Oakland,CA,
2400 CARMEL ST,Oakland,CA,
500 ELYSIAN FIELDS DR,Oakland,CA,
2500 SCENIC AV,Oakland,CA,
5900 EASTLAWN ST,Oakland,CA,
100 MONTE VISTA AV,Oakland,CA,
2400 SCOUT RD,Oakland,CA,
1600 PERALTA ST,Oakland,CA,
CARLSTON AV & MANDANA BLVD,Oakland,CA,
35TH AV & REDWOOD RD,Oakland,CA,
MONTE VISTA AV & VERNON ST,Oakland,CA,
1300 MARKET ST,Oakland,CA,
6900 HAMILTON ST,Oakland,CA,
2200 73RD AV,Oakland,CA,
COOLIDGE AV & MADELINE ST,Oakland,CA,
3900 E 18TH ST,Oakland,CA,
6200 RIDGEMONT DR,Oakland,CA,
4300 STEELE ST,Oakland,CA,
2400 98TH AV,Oakland,CA,
76TH AV & GARFIELD AV,Oakland,CA,
38TH ST & RUBY ST,Oakland,CA,
500 MANDELA PKWY,Oakland,CA,
6300 CROWN AV,Oakland,CA,
5600 SNAKE RD,Oakland,CA,
3800 MADRONE AV,Oakland,CA,
73RD AV & BANTRY AV,Oakland,CA,
22ND AV & SOLANO WY,Oakland,CA,
82ND AV & SUNKIST DR,Oakland,CA,
5900 ROSS ST,Oakland,CA,
100TH AV & BIRCH ST,Oakland,CA,
8000 S COLISEUM WY,Oakland,CA,
8400 BIRCH ST,Oakland,CA,
0 MOSS LN,Oakland,CA,
BIRDSALL AV & KINGSLAND AV,Oakland,CA,
2000 COOLIDGE AV,Oakland,CA,
5500 BROADWAY,Oakland,CA,
3700 MARION AV,Oakland,CA,
2700 LOGAN ST,Oakland,CA,
1300 39TH AV,Oakland,CA,
5400 MANILA AV,Oakland,CA,
9400 OSCAR AV,Oakland,CA,
500 28 ST,Oakland,CA,
99TH AV & ELMAR AV,Oakland,CA,
100 CRESTMONT DR,Oakland,CA,
6800 HALLIDAY AV,Oakland,CA,
600 29TH AV,Oakland,CA,
6400 HEATHER RIDGE WY,Oakland,CA,
1800 5TH ST,Oakland,CA,
BOSTON AV & HAROLD ST,Oakland,CA,
ALLENDALE AV & VIOLA ST,Oakland,CA,
300 EMBARCADERO WEST,Oakland,CA,
E 15TH ST & 1ST AV,Oakland,CA,
5400 VICENTE WY,Oakland,CA,
2100 MASTLANDS DR,Oakland,CA,
100 ROBLE RD,Oakland,CA,
800 52ND AV,Oakland,CA,
ARLINGTON AV & LOWELL,Oakland,CA,
900 HAWKINS DR,Oakland,CA,
4300 ARCADIA AV,Oakland,CA,
4000 REDWOOD RD,Oakland,CA,
3900 WEST ST,Oakland,CA,
EASTMAN AV & PENNIMAN AV,Oakland,CA,
37TH AV & E 9TH ST,Oakland,CA,
ALISO AV & CARSON ST,Oakland,CA,
5800 HERON DR,Oakland,CA,
8300 ASTER AV,Oakland,CA,
19TH ST & BRUSH ST,Oakland,CA,
ARKANSAS ST & MAPLE AV,Oakland,CA,
66TH AV & FENHAM ST,Oakland,CA,
1000 10TH AV,Oakland,CA,
55TH ST & ADELINE ST,Oakland,CA,
FAIRMOUNT AV & KEMPTON AV,Oakland,CA,
600 ROSAL AV,Oakland,CA,
BRYANT AV & COLLEGE AV,Oakland,CA,
100 GLENWOOD GLADE,Oakland,CA,
2600 57TH AV,Oakland,CA,
2200 DURANT AV,Oakland,CA,
16TH ST & MAGNOLIA ST,Oakland,CA,
EB GOLF LINKS OFFRP RD & EB I580,Oakland,CA,
400 FLORENCE AV,Oakland,CA,
12TH AV & E 28TH ST,Oakland,CA,
3900 MERA ST,Oakland,CA,
HANOVER AV & LESTER AV,Oakland,CA,
E 38TH ST & BEAUMONT AV,Oakland,CA,
1800 SAN ANTONIO WY,Oakland,CA,
5800 BROADWAY,Oakland,CA,
37TH ST & W MACARTHUR BLVD,Oakland,CA,
GREEN ACRE RD & TULIP AV,Oakland,CA,
9900 SUNNYSIDE ST,Oakland,CA,
7500 SPENCER ST,Oakland,CA,
2400 BEST AV,Oakland,CA,
E 23RD ST & 25TH AV,Oakland,CA,
93RD AV & A ST,Oakland,CA,
6000 MARGARIDO DR,Oakland,CA,
EB HARRISON ONRP ST & EB MACARTHUR COLL BL,Oakland,CA,
9900 STANLEY AV,Oakland,CA,
800 5TH AV,Oakland,CA,
E 15TH ST & DERBY AV,Oakland,CA,
E 21ST ST & 22ND AV,Oakland,CA,
4500 REDWOOD RD,Oakland,CA,
HAVEN ST & PERALTA ST,Oakland,CA,
100 HAMILTON PL,Oakland,CA,
10200 PEARMAIN ST,Oakland,CA,
4200 WEBSTER ST,Oakland,CA,
1900 TUNNEL RD,Oakland,CA,
400 55TH ST,Oakland,CA,
6600 THORNHILL DR,Oakland,CA,
5600 CASTLE DR,Oakland,CA,
10600 BREED AV,Oakland,CA,
EB HIGH OFFRP ST & EB I580,Oakland,CA,
12000 BROADWAY TER,Oakland,CA,
6200 BANCROFT AV,Oakland,CA,
7900 SKYLINE BLVD,Oakland,CA,
BEAUMONT AV & PARK BLVD,Oakland,CA,
ALAMEDA AV & HOWARD ST,Oakland,CA,
9TH ST & FALLON ST,Oakland,CA,
ALISO AV & FIELDBROOK RD,Oakland,CA,
3600 REDDING ST,Oakland,CA,
8300 HILLSIDE ST,Oakland,CA,
4300 ABERFOIL AV,Oakland,CA,
800 23RD AV,Oakland,CA,
900 MANDANA BLVD,Oakland,CA,
10000 EDES AV,Oakland,CA,
15TH AV & E 19TH ST,Oakland,CA,
0 SHADOW MOUNTAIN ST,Oakland,CA,
2500 MAXWELL AV,Oakland,CA,
TAC 4,Oakland,CA,
35TH ST & MARTIN LUTHER KING JR WY,Oakland,CA,
2500 BUNA ST,Oakland,CA,
CHARING CROSS RD & HILLER DR,Oakland,CA,
9200 SKYLINE BLVD,Oakland,CA,
1200 CASTRO ST,Oakland,CA,
3000 E 12TH ST,Oakland,CA,
700 37TH AV,Oakland,CA,
92ND AV & A ST,Oakland,CA,
3500 HAGEMAN AV,Oakland,CA,
10800 PEARMAIN ST,Oakland,CA,
0 OSBORNE CT,Oakland,CA,
107TH AV & BANCROFT AV,Oakland,CA,
6200 BUENA VENTURA AV,Oakland,CA,
2400 61ST AV,Oakland,CA,
E 22ND ST & PARK BLVD,Oakland,CA,
KEARNEY AV & MOUNTAIN BLVD,Oakland,CA,
1000 45TH ST,Oakland,CA,
23RD AV & CHAPMAN ST,Oakland,CA,
GRAND AV & WELDON AV,Oakland,CA,
5900 DOVER ST,Oakland,CA,
1400 MAGNOLIA ST,Oakland,CA,
LEIMERT BLVD & MONTEREY BLVD,Oakland,CA,
8800 PLYMOUTH ST,Oakland,CA,
8700 GOLF LINKS RD,Oakland,CA,
5200 JAMES AV,Oakland,CA,
400 BURK ST,Oakland,CA,
10800 CAMERON AV,Oakland,CA,
2200 12TH AV,Oakland,CA,
18TH AV & E 19TH ST,Oakland,CA,
0 MARSH PL,Oakland,CA,
2800 7TH ST,Oakland,CA,
10700 COTTER ST,Oakland,CA,
BROADWAY TER & HARBORD DR,Oakland,CA,
42ND ST & EMERALD ST,Oakland,CA,
17TH AV & E 23RD ST,Oakland,CA,
4300 MOUNTAIN VIEW AV,Oakland,CA,
1100 EVERETT AV,Oakland,CA,
BROADWAY TER & MOUNTAIN BLVD,Oakland,CA,
2100 BYWOOD DR,Oakland,CA,
22ND AV & MARIN WY,Oakland,CA,
1000 EMBARCADERO,Oakland,CA,
2500 CARISBROOK DR,Oakland,CA,
HAWTHORNE AV & WEBSTER ST,Oakland,CA,
6500 EXETER DR,Oakland,CA,
E 15TH ST & 26TH AV,Oakland,CA,
300 8TH AV,Oakland,CA,
4000 RANDOLPH AV,Oakland,CA,
BERGEDO DR & EDES AV,Oakland,CA,
ROYAL ST & SAN LEANDRO ST,Oakland,CA,
3700 WOODRUFF AV,Oakland,CA,
3800 SAN PABLO AV,Oakland,CA,
10500 PEARMAIN ST,Oakland,CA,
70TH AV & HERBERT GUICE WY,Oakland,CA,
6700 BANCROFT AV,Oakland,CA,
8700 HOLLY ST,Oakland,CA,
4600 SAN SEBASTIAN AV,Oakland,CA,
400 11TH ST,Oakland,CA,
21ST AV & E 23RD ST,Oakland,CA,
300 MARKET ST,Oakland,CA,
MONTICELLO AV & TRASK ST,Oakland,CA,
6900 WILTON DR,Oakland,CA,
1200 25TH AV,Oakland,CA,
BROADMOOR VIEW & MALCOLM AV,Oakland,CA,
2600 E 25TH ST,Oakland,CA,
26TH ST & FILBERT ST,Oakland,CA,
1400 E 23RD ST,Oakland,CA,
6000 RIDGEMONT DR,Oakland,CA,
59TH ST & GENOA ST,Oakland,CA,
51ST ST & WEBSTER ST,Oakland,CA,
MORCOM AV & PIERSON ST,Oakland,CA,
84TH AV & IRIS ST,Oakland,CA,
3600 LAUREL AV,Oakland,CA,
4400 EDGEWOOD AV,Oakland,CA,
2000 EMBARCADERO COVE,Oakland,CA,
400 SUNNYSLOPE AV,Oakland,CA,
0 CAMELLIA PL,Oakland,CA,
2400 CORDOVA ST,Oakland,CA,
2200 34TH AV,Oakland,CA,
0 SEQUOYAH VIEW CT,Oakland,CA,
5100 CORONADO AV,Oakland,CA,
5600 ESTATES DR,Oakland,CA,
300 HUDSON ST,Oakland,CA,
2900 FRYE ST,Oakland,CA,
4100 EDWARDS AV,Oakland,CA,
2800 E 17TH ST,Oakland,CA,
1500 102ND AV,Oakland,CA,
LAKE MERRITT BLVD & LAKESHORE AV,Oakland,CA,
99TH AV & 99TH AV CT,Oakland,CA,
3700 REDWOOD RD,Oakland,CA,
2600 NORTHGATE AV,Oakland,CA,
1200 KIRKHAM ST,Oakland,CA,
6100 MAZUELA DR,Oakland,CA,
8TH AV & PARK BLVD,Oakland,CA,
5TH AV & SB I880,Oakland,CA,
16TH AV & E 19TH ST,Oakland,CA,
8000 EDGEWATER DR,Oakland,CA,
1000 8TH AV,Oakland,CA,
300 COVINGTON ST,Oakland,CA,
5900 SHEPHERD CANYON RD,Oakland,CA,
3100 11TH AV,Oakland,CA,
12600 BROOKPARK RD,Oakland,CA,
COLLEGE AV & HUDSON ST,Oakland,CA,
74TH AV & HILLSIDE ST,Oakland,CA,
500 E 19TH ST,Oakland,CA,
23RD AV & FORD ST,Oakland,CA,
HIGH ST & WALNUT ST,Oakland,CA,
E 16TH ST & MILLER AV,Oakland,CA,
3000 MAXWELL AV,Oakland,CA,
GRAMERCY PL & KNIGHT ST,Oakland,CA,
4400 EVANS AV,Oakland,CA,
69TH AV & HERBERT GUICE WY,Oakland,CA,
GLENFIELD AV & PARK BLVD,Oakland,CA,
71ST AV & HAWLEY ST,Oakland,CA,
3000 ARIZONA ST,Oakland,CA,
0 HILLCREST CT,Oakland,CA,
ENOS AV & STEELE ST,Oakland,CA,
MONTCLAIR AV & PARK BLVD,Oakland,CA,
PIEDMONT AV & WESTALL AV,Oakland,CA,
84TH AV & D ST,Oakland,CA,
6500 AVENAL AV,Oakland,CA,
7400 DEERWOOD AV,Oakland,CA,
3300 ELLIOT ST,Oakland,CA,
57TH ST & LOWELL ST,Oakland,CA,
3400 WYMAN ST,Oakland,CA,
13TH AV & E 17TH ST,Oakland,CA,
10900 CLIFFLAND AV,Oakland,CA,
HOLLIS ST & PERALTA ST,Oakland,CA,
1800 108TH AV,Oakland,CA,
800 26TH ST,Oakland,CA,
CONGRESS AV & VICKSBURG AV,Oakland,CA,
COTTON ST & DENNISON ST,Oakland,CA,
6100 CHELTON DR,Oakland,CA,
5700 MACCALL ST,Oakland,CA,
57TH AV & HOLWAY CT,Oakland,CA,
MACARTHUR BLVD & MAY CT,Oakland,CA,
CARLSEN ST & MAPLE AV,Oakland,CA,
3300 VIOLA ST,Oakland,CA,
10TH ST & UNION ST,Oakland,CA,
98TH AV & GOULD ST,Oakland,CA,
500 WESTFIELD WY,Oakland,CA,
10TH AV & E 8TH ST,Oakland,CA,
61ST AV & TEVIS ST,Oakland,CA,
13TH AV & E 25TH ST,Oakland,CA,
AILEEN ST & MARTIN LUTHER KING JR WY,Oakland,CA,
79TH AV & WELD ST,Oakland,CA,
EL VERANO ST & ISLETON AV,Oakland,CA,
7TH AV & PARK BLVD,Oakland,CA,
3200 82ND AV,Oakland,CA,
7100 FRESNO ST,Oakland,CA,
COLLEGE AV & SHAFTER AV,Oakland,CA,
6700 HEARTWOOD DR,Oakland,CA,
11800 FOOTHILL BLVD,Oakland,CA,
300 6TH ST,Oakland,CA,
59TH ST & CANNING ST,Oakland,CA,
6000 HARBORD DR,Oakland,CA,
58TH AV & EASTLAWN ST,Oakland,CA,
5500 BACON RD,Oakland,CA,
600 50TH AV,Oakland,CA,
2000 FAIRMONT DR,Oakland,CA,
LEIMERT BLVD & PARK BLVD,Oakland,CA,
11TH AV & E 28TH ST,Oakland,CA,
59TH ST & MARSHALL ST,Oakland,CA,
BRUCE ST & CHATHAM RD,Oakland,CA,
CLIFTON ST & SHAFTER AV,Oakland,CA,
TRESTLE GLEN RD & WESLEY WY,Oakland,CA,
0 RYDAL CT,Oakland,CA,
BIRDSALL AV & MADERA AV,Oakland,CA,
300 HADDON RD,Oakland,CA,
92ND AV & G ST,Oakland,CA,
800 TUBMAN DR,Oakland,CA,
1900 ASILOMAR DR,Oakland,CA,
5600 SAN LEANDRO ST,Oakland,CA,
6000 MARKET ST,Oakland,CA,
E 16TH ST & 55TH AV,Oakland,CA,
FAIRMOUNT AV & YOSEMITE AV,Oakland,CA,
29TH ST & WEBSTER ST,Oakland,CA,
7600 CIRCLE HILL DR,Oakland,CA,
PIPPIN ST & STONE ST,Oakland,CA,
6000 ACACIA AV,Oakland,CA,
1000 CASTRO ST,Oakland,CA,
2900 KINGSLAND AV,Oakland,CA,
70TH AV & HAWLEY ST,Oakland,CA,
23RD ST & WAVERLY ST,Oakland,CA,
5700 CABOT DR,Oakland,CA,
600 E 8TH ST,Oakland,CA,
FRUITVALE AV & HYDE ST,Oakland,CA,
35TH AV & QUIGLEY ST,Oakland,CA,
9600 SKYLINE BLVD,Oakland,CA,
59TH ST & ADELINE ST,Oakland,CA,
0 YORKSHIRE DR,Oakland,CA,
2ND ST & BRUSH ST,Oakland,CA,
3700 HARBOR VIEW AV,Oakland,CA,
6500 MORAGA AV,Oakland,CA,
2600 WILLOW ST,Oakland,CA,
1700 MARIN WY,Oakland,CA,
2500 NORTHGATE AV,Oakland,CA,
2000 108TH AV,Oakland,CA,
10400 WEST CT,Oakland,CA,
1900 JACKSON ST,Oakland,CA,
85TH AV & BALDWIN ST,Oakland,CA,
69TH AV & EASTLAWN ST,Oakland,CA,
CASTLEWOOD ST & GOLF LINKS RD,Oakland,CA,
6000 SHATTUCK AV,Oakland,CA,
5400 DOVER ST,Oakland,CA,
14TH AV & WB I580,Oakland,CA,
1200 29TH AV,Oakland,CA,
DARIEN AV & ELDRIDGE AV,Oakland,CA,
CROXTON AV & RICHMOND BLVD,Oakland,CA,
HILLMONT DR & SUNKIST DR,Oakland,CA,
1700 POPLAR ST,Oakland,CA,
12TH AV & E 19TH ST,Oakland,CA,
10000 E ST,Oakland,CA,
FISHER AV & TALBOT AV,Oakland,CA,
4000 KANSAS ST,Oakland,CA,
E 26TH ST & INYO AV,Oakland,CA,
4600 REDWOOD RD,Oakland,CA,
10TH ST & CASTRO ST,Oakland,CA,
200 ACTON PL,Oakland,CA,
1800 JACKSON ST,Oakland,CA,
6700 MANOR CREST,Oakland,CA,
SHATTUCK AV & TELEGRAPH AV,Oakland,CA,
8000 MICHIGAN AV,Oakland,CA,
800 54TH AV,Oakland,CA,
99TH AV & SUNNYSIDE ST,Oakland,CA,
5000 PIERPOINT AV,Oakland,CA,
4000 GREENWOOD AV,Oakland,CA,
48TH ST & WEBSTER ST,Oakland,CA,
800 EMBARCADERO,Oakland,CA,
5700 LEONA ST,Oakland,CA,
FAIRFAX AV & RENWICK ST,Oakland,CA,
69TH AV & MORKEN ST,Oakland,CA,
3400 LINCOLN AV,Oakland,CA,
4100 E 16TH ST,Oakland,CA,
6100 COLBY ST,Oakland,CA,
FAIRFAX AV & FERN ST,Oakland,CA,
51ST AV & SAN LEANDRO ST,Oakland,CA,
0 STRATHMOOR DR,Oakland,CA,
10300 PEARMAIN ST,Oakland,CA,
17000 BROADWAY TER,Oakland,CA,
87TH AV & OLIVE ST,Oakland,CA,
5700 GRISBORNE AV,Oakland,CA,
1000 PARK LN,Oakland,CA,
4200 ABERFOIL AV,Oakland,CA,
6100 THORNHILL DR,Oakland,CA,
3700 LINWOOD AV,Oakland,CA,
GEORGIA ST & LAUREL AV,Oakland,CA,
0 MURDOCK CT,Oakland,CA,
2300 UNION ST,Oakland,CA,
1100 2ND AV,Oakland,CA,
56TH AV & BRANN ST,Oakland,CA,
16TH ST & POPLAR ST,Oakland,CA,
10900 STAR CT,Oakland,CA,
MAJESTIC AV & OUTLOOK AV,Oakland,CA,
48TH AV & MELROSE AV,Oakland,CA,
1300 GLENFIELD AV,Oakland,CA,
3400 ALEXANDER CT,Oakland,CA,
ALLENDALE AV & MONTICELLO AV,Oakland,CA,
9100 A ST,Oakland,CA,
0 ASILOMAR CIR,Oakland,CA,
12800 BROOKPARK RD,Oakland,CA,
3RD AV & WAYNE PL,Oakland,CA,
600 LANCASTER ST,Oakland,CA,
5800 WESTOVER DR,Oakland,CA,
6100 MATHIEU AV,Oakland,CA,
ALISO AV & ANDERSON AV,Oakland,CA,
5700 CHELTON DR,Oakland,CA,
400 ALMANZA DR,Oakland,CA,
EDES AV & HALE AV,Oakland,CA,
6000 BROADWAY,Oakland,CA,
5200 COLISEUM WY,Oakland,CA,
MACARTHUR BLVD & SHEFFIELD AV,Oakland,CA,
1700 3RD AV,Oakland,CA,
61ST ST & LOWELL,Oakland,CA,
BANCROFT AV & PARKER AV,Oakland,CA,
34TH ST & WOOD ST,Oakland,CA,
1500 BEACH ST,Oakland,CA,
81ST AV & HILLSIDE ST,Oakland,CA,
49TH ST & BROADWAY,Oakland,CA,
5800 PATTON ST,Oakland,CA,
E 17TH ST & 3RD AV,Oakland,CA,
1600 57TH AV,Oakland,CA,
6500 DOVER ST,Oakland,CA,
KANSAS ST & MAPLE AV,Oakland,CA,
6400 CHABOT RD,Oakland,CA,
100 ELDRIDGE AV,Oakland,CA,
2500 RENWICK ST,Oakland,CA,
4000 LUSK ST,Oakland,CA,
400 PANORAMIC WY,Oakland,CA,
5700 REDWOOD RD,Oakland,CA,
COURTLAND AV & FOOTHILL BLVD,Oakland,CA,
21ST AV & E 22ND ST,Oakland,CA,
5300 E 8TH ST,Oakland,CA,
1200 35TH AV,Oakland,CA,
MCCORMICK AV & SUNKIST DR,Oakland,CA,
DOWNTOWN AREA,Oakland,CA,
E 14TH ST & DURANT AV,Oakland,CA,
4800 BANCROFT AV,Oakland,CA,
CALIFORNIA ST & MAGEE AV,Oakland,CA,
3300 HAVEN ST,Oakland,CA,
MAPLE AV & NICOL AV,Oakland,CA,
0 WESTALL AV,Oakland,CA,
1100 104TH AV,Oakland,CA,
700 MARTIN LUTHER KING JR WY,Oakland,CA,
CAVOUR ST & LAWTON AV,Oakland,CA,
1900 MELVIN RD,Oakland,CA,
1500 11TH AV,Oakland,CA,
BIRDSALL AV & MORCOM AV,Oakland,CA,
0 BEECHWOOD DR,Oakland,CA,
E 12TH ST & 48TH AV,Oakland,CA,
76TH AV & OUTLOOK AV,Oakland,CA,
5000 MOUNTAIN BLVD,Oakland,CA,
4400 REDDING ST,Oakland,CA,
PARK BLVD & TRESTLE GLEN RD,Oakland,CA,
6700 OUTLOOK AV,Oakland,CA,
64TH AV PL & MACARTHUR BLVD,Oakland,CA,
BROWN AV & KANSAS ST,Oakland,CA,
4000 WEBSTER ST,Oakland,CA,
61ST AV & EASTLAWN ST,Oakland,CA,
100 BEECHWOOD DR,Oakland,CA,
107TH AV & ROYAL ANN ST,Oakland,CA,
600 HADDON RD,Oakland,CA,
200 SOMERSET RD,Oakland,CA,
CHAMPION ST & LINCOLN AV,Oakland,CA,
0 HARBORD CT,Oakland,CA,
W OAKLAND BART,Oakland,CA,
0 LANE CT,Oakland,CA,
4100 SEACOR CT,Oakland,CA,
2600 99TH AV,Oakland,CA,
5400 COLISEUM WAY,Oakland,CA,
2300 WILBUR ST,Oakland,CA,
2300 COLOMA ST,Oakland,CA,
55TH AV & HOLLAND ST,Oakland,CA,
MONTGOMERY ST & RIDGEWAY AV,Oakland,CA,
0 SONIA ST,Oakland,CA,
2200 SONOMA WY,Oakland,CA,
14TH ST & LAKESHORE AV,Oakland,CA,
92ND AV & C ST,Oakland,CA,
6500 TREMONT ST,Oakland,CA,
2800 STEINMETZ WY,Oakland,CA,
1100 11TH AV,Oakland,CA,
900 59TH ST,Oakland,CA,
3300 RUBIN DR,Oakland,CA,
0 HOME GLEN LN,Oakland,CA,
1800 MONTANA ST,Oakland,CA,
611A 85TH AV,Oakland,CA,
6800 AVENAL AV,Oakland,CA,
3900 LAGUNA AV,Oakland,CA,
0 BISHOPS CT,Oakland,CA,
6900 LION WY,Oakland,CA,
6000 BULLARD DR,Oakland,CA,
BELFAST AV & MOUNTAIN BLVD,Oakland,CA,
15TH AV & E 17TH ST,Oakland,CA,
3200 ELM ST,Oakland,CA,
1800 MARIN WY,Oakland,CA,
500 EMBARCADERO,Oakland,CA,
10300 LONGFELLOW AV,Oakland,CA,
DASHWOOD AV & KRAUSE AV,Oakland,CA,
5900 IDAHO ST,Oakland,CA,
0 MELVIN CT,Oakland,CA,
700 HADDON PL,Oakland,CA,
2400 UNION ST,Oakland,CA,
2500 TAYLOR AV,Oakland,CA,
E 19TH ST & 5TH AV,Oakland,CA,
3800 38TH AV,Oakland,CA,
9600 CASTLEWOOD ST,Oakland,CA,
1000 51ST AV,Oakland,CA,
300 MERRITT AV,Oakland,CA,
HIGH ST & QUIGLEY PL,Oakland,CA,
200 HEGENBERGER LOOP,Oakland,CA,
11000 BROADWAY TER,Oakland,CA,
8TH ST & POPLAR CT,Oakland,CA,
HEDGE LN & JOAQUIN MILLER RD,Oakland,CA,
APGAR ST & LUSK ST,Oakland,CA,
100 MACARTHUR BLVD,Oakland,CA,
10400 PATRICIA CT,Oakland,CA,
7200 THORNDALE DR,Oakland,CA,
5900 SKYLINE BLVD,Oakland,CA,
E 12TH ST & 18TH AV,Oakland,CA,
3200 PLEITNER AV,Oakland,CA,
9300 GOLF LINKS RD,Oakland,CA,
1800 25TH AV,Oakland,CA,
SEMINARY AV & TEVIS ST,Oakland,CA,
5000 COCHRANE AV,Oakland,CA,
300 3RD ST,Oakland,CA,
5900 TEVIS ST,Oakland,CA,
3500 LIBBY CT,Oakland,CA,
6700 BANNING DR,Oakland,CA,
2500 STOCKBRIDGE DR,Oakland,CA,
ENCINA WY & GOLF LINKS RD,Oakland,CA,
1300 E 12TH ST,Oakland,CA,
E 17TH ST & 7TH AV,Oakland,CA,
BEACON ST & MACARTHUR BLVD,Oakland,CA,
4200 MOUNTAIN BLVD,Oakland,CA,
26TH ST & CAMPBELL ST,Oakland,CA,
MAURITANIA AV & SEMINARY AV,Oakland,CA,
5900 GENOA ST,Oakland,CA,
10500 MARK ST,Oakland,CA,
0 CLAY ST,Oakland,CA,
LAIRD AV & SEMINARY AV,Oakland,CA,
700 MOUNTAIN BLVD,Oakland,CA,
5200 MARTIN LUTHER KING JR WY,Oakland,CA,
5800 MARKET ST,Oakland,CA,
800 JACKSON ST,Oakland,CA,
5500 GRIFFIN ST,Oakland,CA,
6200 HILLEGASS AV,Oakland,CA,
91ST AV & B ST,Oakland,CA,
POIRIER ST & SHATTUCK AV,Oakland,CA,
CAVOUR ST & CLAREMONT AV,Oakland,CA,
10TH AV & E 20TH ST,Oakland,CA,
1100 EMBARCADERO WEST,Oakland,CA,
APPLE ST & SAN LEANDRO ST,Oakland,CA,
1500 HIGH ST,Oakland,CA,
900 WARFIELD AV,Oakland,CA,
1200 1&2 99TH AV,Oakland,CA,
700 86TH AV,Oakland,CA,
7400 OUTLOOK AV,Oakland,CA,
2400 SCENIC AV,Oakland,CA,
2600 E 21ST ST,Oakland,CA,
ARLINGTON AV & LOS ANGELES ST,Oakland,CA,
BEAT 27,Oakland,CA,
107TH AV & SAN LEANDRO ST,Oakland,CA,
24TH ST & WOOD ST,Oakland,CA,
300 5TH ST,Oakland,CA,
6100 MARTIN LUTHER KING JR WY,Oakland,CA,
11TH AV & E 21ST ST,Oakland,CA,
900 MYRTLE ST,Oakland,CA,
200 CLIFTON ST,Oakland,CA,
ATHOL AV & MACARTHUR BLVD,Oakland,CA,
E 11TH ST & 6TH AV,Oakland,CA,
GOLF LINKS RD & WB I580,Oakland,CA,
5100 E 10TH ST,Oakland,CA,
400 HAWTHORNE AV,Oakland,CA,
E 17TH ST & 27TH AV,Oakland,CA,
2300 MASTLANDS DR,Oakland,CA,
43RD ST & WEBSTER ST,Oakland,CA,
1000 GLENDORA AV,Oakland,CA,
3600 64TH AV,Oakland,CA,
200 GRAVATT DR,Oakland,CA,
2000 106TH AV,Oakland,CA,
106TH AV & EB I580,Oakland,CA,
1700 15TH ST,Oakland,CA,
4700 SCOTIA AV,Oakland,CA,
MOUNTAIN BLVD & RIFLE LN,Oakland,CA,
10000 A ST,Oakland,CA,
DAMUTH ST & LINCOLN AV,Oakland,CA,
E 18TH ST & 34TH AV,Oakland,CA,
6700 SARONI DR,Oakland,CA,
1700 GOULDIN RD,Oakland,CA,
19TH AV & SOLANO WY,Oakland,CA,
BROOKDALE AV & COURTLAND AV,Oakland,CA,
HIGH ST & WB I580,Oakland,CA,
4000 SHAFTER AV,Oakland,CA,
91ST AV & G ST,Oakland,CA,
51ST AV & MELROSE AV,Oakland,CA,
E 22ND ST & COOLIDGE AV,Oakland,CA,
3900 VALE AV,Oakland,CA,
4200 SAN LEANDRO ST,Oakland,CA,
E 19TH ST & 7TH AV,Oakland,CA,
2100 ADELINE ST,Oakland,CA,
900 MOUNTAIN BLVD,Oakland,CA,
CAPP ST & NICOL AV,Oakland,CA,
1100 FILBERT ST,Oakland,CA,
6000 FORTUNE WY,Oakland,CA,
ASCOT DR & MOUNTAIN BLVD,Oakland,CA,
5400 BELGRAVE PL,Oakland,CA,
4000 KUHNLE AV,Oakland,CA,
57TH ST & GENOA ST,Oakland,CA,
6600 TREMONT ST,Oakland,CA,
2800 E 8TH ST,Oakland,CA,
900 OAK ST,Oakland,CA,
1800 GRAND VIEW DR,Oakland,CA,
1000 NORWOOD AV,Oakland,CA,
E 15TH ST & 55TH AV,Oakland,CA,
10TH AV & EMBARCADERO,Oakland,CA,
1800 51ST AV,Oakland,CA,
4300 SAINT ANDREWS RD,Oakland,CA,
5300 DOVER ST,Oakland,CA,
200 CHADBOURNE WY,Oakland,CA,
RANDWICK AV & RICHMOND BLVD,Oakland,CA,
GREENWOOD AV & PARK BLVD,Oakland,CA,
24TH AV & E 26TH ST,Oakland,CA,
HAMILTON PL & HARRISON ST,Oakland,CA,
4700 LOWRY RD,Oakland,CA,
400 TAURUS AV,Oakland,CA,
12200 BLYTHEN WY,Oakland,CA,
3800 CALIFORNIA ST,Oakland,CA,
BROOKDALE AV & FERN ST,Oakland,CA,
500 4TH ST,Oakland,CA,
1000 MARTIN LUTHER KING JR WY,Oakland,CA,
2600 TALBOT AV,Oakland,CA,
99TH AV & HOLLY ST,Oakland,CA,
9200 THERMAL ST,Oakland,CA,
100TH AV & PLYMOUTH ST,Oakland,CA,
9900 SAN LEANDRO ST,Oakland,CA,
99TH AV & VOLTAIRE AV,Oakland,CA,
40TH ST & HUBBARD ST,Oakland,CA,
CORAL RD & EMPIRE RD,Oakland,CA,
5100 REDWOOD RD,Oakland,CA,
2600 FRAZIER AV,Oakland,CA,
BELVEDERE ST & TRASK ST,Oakland,CA,
6900 SAYRE DR,Oakland,CA,
1500 E 33RD ST,Oakland,CA,
1000 40TH AV,Oakland,CA,
400 HARRISON ST,Oakland,CA,
DERBY AV & FORD ST,Oakland,CA,
BROADWAY TER & BUENA VISTA AV,Oakland,CA,
14TH AV & E 23RD ST,Oakland,CA,
2600 ABBEY ST,Oakland,CA,
10800 PEERLESS CT,Oakland,CA,
MASON ST & WALNUT ST,Oakland,CA,
1800 MARTIN LUTHER KING JR WY,Oakland,CA,
900 ALMA PL,Oakland,CA,
LEIMERT BLVD & PARK BLVD RAMP,Oakland,CA,
3900 MAYBELLE AV,Oakland,CA,
6000 OUTLOOK AV,Oakland,CA,
800 PARK WY,Oakland,CA,
900 PALM CT,Oakland,CA,
5TH ST & HENRY ST,Oakland,CA,
2100 ANDREWS ST,Oakland,CA,
6100 HILL RD,Oakland,CA,
SB 66TH OFFRP AV & SB I880,Oakland,CA,
60TH AV & TEVIS ST,Oakland,CA,
700 E 8TH ST,Oakland,CA,
3100 BURDECK DR,Oakland,CA,
700 35TH ST,Oakland,CA,
0 HAZELWOOD CT,Oakland,CA,
MOUNTAIN BLVD & RUSTING AV,Oakland,CA,
E 15TH ST & 41ST AV,Oakland,CA,
11100 ETTRICK ST,Oakland,CA,
200 6TH AV,Oakland,CA,
37TH ST & WEBSTER ST,Oakland,CA,
3000 CHAPMAN ST,Oakland,CA,
4200 LYON AV,Oakland,CA,
3400 LOUISE ST,Oakland,CA,
3100 SYLVAN AV,Oakland,CA,
3700 COLUMBIAN DR,Oakland,CA,
2000 BRUSH ST,Oakland,CA,
4100 SANTA RITA ST,Oakland,CA,
5100 GENOA ST,Oakland,CA,
700 MOORPARK AV,Oakland,CA,
6300 RIDGEMONT DR,Oakland,CA,
60TH ST & CLAREMONT AV,Oakland,CA,
3600 LAKESHORE AV,Oakland,CA,
3900 LINWOOD AV,Oakland,CA,
MOSS AV & OAKLAND AV,Oakland,CA,
21ST AV & GLEASON WY,Oakland,CA,
7300 HAMILTON ST,Oakland,CA,
1700 MANDELA PKWY,Oakland,CA,
0 OVAL RD,Oakland,CA,
6300 DANA ST,Oakland,CA,
3600 13TH AV,Oakland,CA,
7400 MOUNTAIN BLVD,Oakland,CA,
5100 DAISY ST,Oakland,CA,
6300 HERZOG ST,Oakland,CA,
2800 BUTTERS DR,Oakland,CA,
7500 GARFIELD AV,Oakland,CA,
4600 BANCROFT AV,Oakland,CA,
8900 RAILROAD AV,Oakland,CA,
2ND ST & MARTIN LUTHER KING JR WY,Oakland,CA,
1000 36TH ST,Oakland,CA,
7TH ST & LINDEN ST,Oakland,CA,
5900 OSTRANDER RD,Oakland,CA,
2900 HOLYROOD DR,Oakland,CA,
6300 HILTON ST,Oakland,CA,
34TH ST & HANNAH ST,Oakland,CA,
7800 RUDSDALE ST,Oakland,CA,
3100 E 12TH ST,Oakland,CA,
LENOX AV & MONTECITO AV,Oakland,CA,
109TH AV & VOLTAIRE AV,Oakland,CA,
21ST ST & CHESTNUT ST,Oakland,CA,
11400 LOCHARD ST,Oakland,CA,
1400 99TH AV,Oakland,CA,
42ND AV & MERA ST,Oakland,CA,
1100 E 28TH ST,Oakland,CA,
GOLF LINKS RD & OAK HILL RD,Oakland,CA,
10100 SIGOURNEY AV,Oakland,CA,
48TH AV & BOND ST,Oakland,CA,
5300 SHATTUCK AV,Oakland,CA,
DIST 4,Oakland,CA,
3100 MIDDLETON ST,Oakland,CA,
1100 9TH AV,Oakland,CA,
5200 MOUNTAIN BLVD,Oakland,CA,
600 9TH ST,Oakland,CA,
2400 DURANT AV,Oakland,CA,
1300 KIRKHAM ST,Oakland,CA,
9500 LAS VEGAS AV,Oakland,CA,
E 8TH ST & PORTWOOD AV,Oakland,CA,
13300 CLAIREPOINTE WY,Oakland,CA,
101ST AV & E ST,Oakland,CA,
3300 STUART ST,Oakland,CA,
300 23RD ST,Oakland,CA,
0 WOODCLIFF CT,Oakland,CA,
51ST AV & E 8TH ST,Oakland,CA,
1200 MARITIME ST,Oakland,CA,
DERBY AV & ELMWOOD AV,Oakland,CA,
300 E 12TH ST,Oakland,CA,
0 HOME PL W,Oakland,CA,
29TH ST & FAIRMOUNT AV,Oakland,CA,
ASHBY AV & TUNNEL RD,Oakland,CA,
5900 BALBOA DR,Oakland,CA,
E 23RD ST & 7TH AV,Oakland,CA,
ARLINGTON AV & MARTIN LUTHER KING JR WY,Oakland,CA,
1500 LAKESHORE AV,Oakland,CA,
61ST ST & STANFORD AV,Oakland,CA,
200 FRANKLIN ST,Oakland,CA,
9100 SKYLINE BLVD,Oakland,CA,
MOUNTAIN BLVD & SB S13,Oakland,CA,
5TH ST & FRANKLIN ST,Oakland,CA,
7400 SUNKIST DR,Oakland,CA,
1100 28TH ST,Oakland,CA,
ATHOL AV & MCKINLEY AV,Oakland,CA,
9600 STEARNS AV,Oakland,CA,
3900 SHONE AV,Oakland,CA,
60TH ST & COLBY ST,Oakland,CA,
0 NEVA CT,Oakland,CA,
10800 GOLF LINKS RD,Oakland,CA,
2700 CHELSEA DR,Oakland,CA,
14TH ST & KIRKHAM ST,Oakland,CA,
8100 BALDWIN ST,Oakland,CA,
DAISY ST & TOMPKINS AV,Oakland,CA,
EASTMAN AV & SUTER ST,Oakland,CA,
E 26TH ST & HIGHLAND AV,Oakland,CA,
6800 SARONI DR,Oakland,CA,
5900 OCEAN VIEW DR,Oakland,CA,
400 MODOC AV,Oakland,CA,
0 MORCOM PL,Oakland,CA,
8200 HOLLY ST,Oakland,CA,
4300 VIEW ST,Oakland,CA,
800 HIGH ST,Oakland,CA,
59TH ST & WHITNEY ST,Oakland,CA,
1600 55TH AV,Oakland,CA,
KANSAS ST & MAGEE AV,Oakland,CA,
ATHOL AV & HADDON RD,Oakland,CA,
3RD ST & BRUSH ST,Oakland,CA,
1600 HAMPEL ST,Oakland,CA,
64TH AV & FLORA ST,Oakland,CA,
NB COLISEUM ONRP WY & NB I880,Oakland,CA,
8100 SAN LEANDRO ST,Oakland,CA,
6400 THORNDALE DR,Oakland,CA,
600 CALDWELL RD,Oakland,CA,
43RD ST & SHAFTER AV,Oakland,CA,
1200 HOLLYWOOD AV,Oakland,CA,
NB 7TH OFFRP ST & NB I880,Oakland,CA,
102ND AV & PLYMOUTH ST,Oakland,CA,
ATWELL AV & BONA ST,Oakland,CA,
5900 MCANDREW DR,Oakland,CA,
8800 BANCROFT AV,Oakland,CA,
51ST ST & LAWTON AV,Oakland,CA,
3800 ELSTON AV,Oakland,CA,
2500 WILBUR ST,Oakland,CA,
2300 DAMUTH ST,Oakland,CA,
6700 SAN PABLO AV,Oakland,CA,
98TH AV & BURR ST,Oakland,CA,
2200 UNION ST,Oakland,CA,
HARRISON ST & LAKESIDE DR,Oakland,CA,
1600 SUNSHINE CT,Oakland,CA,
4400 VIEW PL,Oakland,CA,
BERGEDO DR & CATRON DR,Oakland,CA,
GILBERT ST & WHITMORE ST,Oakland,CA,
5900 MONZAL AV,Oakland,CA,
90TH AV & LAWLOR ST,Oakland,CA,
400 EMBARCADERO COVE,Oakland,CA,
106TH AV & GRAFFIAN ST,Oakland,CA,
40TH ST & LINDEN ST,Oakland,CA,
E 11TH ST & 9TH AV,Oakland,CA,
3100 ARIZONA ST,Oakland,CA,
9900 LONGFELLOW AV,Oakland,CA,
105TH AV & ACALANES DR,Oakland,CA,
SPECIAL ENFORCEMENT,Oakland,CA,
2200 LEIMERT BLVD,Oakland,CA,
79TH AV & GARFIELD AV,Oakland,CA,
700 54TH AV,Oakland,CA,
COURTLAND AV & REDDING ST,Oakland,CA,
4800 OAKPORT ST,Oakland,CA,
200 FRUITVALE AV,Oakland,CA,
88TH AV & B ST,Oakland,CA,
4000 LYMAN RD,Oakland,CA,
1000 MCKINLEY AV,Oakland,CA,
6000 GRIZZLY PEAK BLVD,Oakland,CA,
21ST ST & WEST ST,Oakland,CA,
500 RADNOR RD,Oakland,CA,
EB I580 & EB I980 CONN,Oakland,CA,
SB 98TH OFFRP AV & SB I880,Oakland,CA,
500 CROFTON AV,Oakland,CA,
2500 ADELINE ST,Oakland,CA,
HARRINGTON AV & SAN JUAN ST,Oakland,CA,
AIRPORT DR & DOOLITTLE DR,Oakland,CA,
2500 POTOMAC ST,Oakland,CA,
6700 SIMSON ST,Oakland,CA,
5900 E 16TH ST,Oakland,CA,
BOSTON AV & MONTANA ST,Oakland,CA,
5500 E 15TH ST,Oakland,CA,
11300 ELVESSA ST,Oakland,CA,
1100 PINE ST,Oakland,CA,
AGUA VISTA ST & HIGH ST,Oakland,CA,
3100 BOSTON AV,Oakland,CA,
50TH AV & VICKSBURG AV,Oakland,CA,
E 10TH ST & 54TH AV,Oakland,CA,
4200 BOND ST,Oakland,CA,
1600 KIRKHAM ST,Oakland,CA,
12TH ST & CHESTNUT ST,Oakland,CA,
11200 LOCHARD ST,Oakland,CA,
105TH AV & NATTRESS WY,Oakland,CA,
2900 MODESTO AV,Oakland,CA,
10900 BREED AV,Oakland,CA,
3800 LAGUNA AV,Oakland,CA,
6000 VALLEY VIEW RD,Oakland,CA,
E 19TH ST & 20TH AV,Oakland,CA,
32ND ST & WOOD ST,Oakland,CA,
5900 AYALA AV,Oakland,CA,
24TH ST & CAMPBELL ST,Oakland,CA,
8000 CAPWELL DR,Oakland,CA,
BEACON ST & BODEN WY,Oakland,CA,
6600 ARMOUR DR,Oakland,CA,
7000 HOMEWOOD DR,Oakland,CA,
5700 ROBERTS AV,Oakland,CA,
2800 HOPKINS PL,Oakland,CA,
BROOKLYN AV & MONTCLAIR AV,Oakland,CA,
6400 MELVILLE DR,Oakland,CA,
EDGEWATER DR & ROLAND WY,Oakland,CA,
1200 HEGENBERGER RD,Oakland,CA,
800 ALVARADO RD,Oakland,CA,
500 CATRON DR,Oakland,CA,
600 45TH ST,Oakland,CA,
E 16TH ST & 2ND AV,Oakland,CA,
CARY AV & EDES AV,Oakland,CA,
3000 TULLY PL,Oakland,CA,
E 21ST ST & 7TH AV,Oakland,CA,
1700 VICKSBURG AV,Oakland,CA,
3000 JOAQUIN MILLER RD,Oakland,CA,
HUMBOLDT AV & LYNDE ST,Oakland,CA,
6300 WOOD DR,Oakland,CA,
5900 COLISEUM WY,Oakland,CA,
7300 GREENLY DR,Oakland,CA,
STOW AV & WAYNE AV,Oakland,CA,
MARLOW DR & REVERE AV,Oakland,CA,
6500 HERZOG ST,Oakland,CA,
6500 WHEELER ST,Oakland,CA,
6400 WESTOVER DR,Oakland,CA,
6300 CASTLE DR,Oakland,CA,
3500 MALCOLM AV,Oakland,CA,
4100 BARNER AV,Oakland,CA,
ARCADIA AV & WRENN ST,Oakland,CA,
DAKOTA ST & MAPLE AV,Oakland,CA,
BIENATI WY & FRUITVALE AV,Oakland,CA,
2200 MARIN WY,Oakland,CA,
1300 SUNNYHILLS RD,Oakland,CA,
1100 MOUNTAIN BLVD,Oakland,CA,
6400 RAYMOND ST,Oakland,CA,
LOMA VISTA AV & REDDING ST,Oakland,CA,
6700 SNAKE RD,Oakland,CA,
5500 FLEMING AV,Oakland,CA,
4100 WOODRUFF AV,Oakland,CA,
500 GLENVIEW AV,Oakland,CA,
2900 UNION ST,Oakland,CA,
E 10TH ST & 51ST AV,Oakland,CA,
6500 SUNNYMERE AV,Oakland,CA,
1600 20TH AV,Oakland,CA,
55TH AV & HARMON AV,Oakland,CA,
3100 HOLYROOD DR,Oakland,CA,
800 GLENDOME CIR,Oakland,CA,
78TH AV & ASH ST,Oakland,CA,
ACTON PL & ATHOL AV,Oakland,CA,
88TH AV & DOWLING ST,Oakland,CA,
OAKLAND AV & SANTA ROSA AV,Oakland,CA,
17TH ST & WILLOW ST,Oakland,CA,
2200 CAMPBELL ST,Oakland,CA,
9300 CASTLEWOOD ST,Oakland,CA,
14TH ST & MAGNOLIA ST,Oakland,CA,
3800 LAKESHORE AV,Oakland,CA,
BUENA VENTURA AV & SIMSON ST,Oakland,CA,
6300 PINEHAVEN RD,Oakland,CA,
5600 TAFT AV,Oakland,CA,
1500 WESTVIEW DR,Oakland,CA,
ROBERTS AV & SEMINARY AV,Oakland,CA,
3200 ALAMEDA AV,Oakland,CA,
5700 BALBOA DR,Oakland,CA,
E 16TH ST & MITCHELL ST,Oakland,CA,
200 GLENWOOD GLADE,Oakland,CA,
1600 GRAND VIEW DR,Oakland,CA,
47TH AV & THOMPSON ST,Oakland,CA,
0 WHITTLE CT,Oakland,CA,
87TH AV & E ST,Oakland,CA,
300 KENNEDY ST,Oakland,CA,
300 PERSHING DR,Oakland,CA,
1000 AQUARIUS WY,Oakland,CA,
400 66TH ST,Oakland,CA,
2700 MOUNTAIN GATE WY,Oakland,CA,
14TH AV & E 26TH ST,Oakland,CA,
BIRDSALL AV & RAWSON ST,Oakland,CA,
600 ADELINE ST,Oakland,CA,
3900 LAKESHORE AV,Oakland,CA,
HIGH ST & PAMPAS AV,Oakland,CA,
4400 CARSON ST,Oakland,CA,
35TH AV & E 9TH ST,Oakland,CA,
BROADWAY & BROOK ST,Oakland,CA,
5800 SAINT PAUL CT,Oakland,CA,
60TH ST & HERZOG ST,Oakland,CA,
9500 C ST,Oakland,CA,
4000 WOODRUFF AV,Oakland,CA,
COLBY ST & MCAULEY ST,Oakland,CA,
GORDON ST & MONTICELLO AV,Oakland,CA,
DUTTON AV & MACARTHUR BLVD,Oakland,CA,
100 ORANGE ST,Oakland,CA,
6100 BANCROFT AV,Oakland,CA,
1ST AV & LAKESHORE AV,Oakland,CA,
85TH AV & PLYMOUTH ST,Oakland,CA,
CALAVERAS BLVD & MACARTHUR BLVD,Oakland,CA,
5700 CLAREMONT AV,Oakland,CA,
0 WOOD CT,Oakland,CA,
BEAUMONT AV & CHATHAM RD,Oakland,CA,
ECHO AV & GLEN AV,Oakland,CA,
2500 RAWSON ST,Oakland,CA,
1700 GRAND VIEW DR,Oakland,CA,
8500 EDES AV,Oakland,CA,
7TH AV & IVY DR,Oakland,CA,
11100 ESTEPA DR,Oakland,CA,
1100 12TH AV,Oakland,CA,
OLD REDWOOD RD & REDWOOD RD,Oakland,CA,
GRACE AV & LOWELL,Oakland,CA,
TRASK ST & YGNACIO AV,Oakland,CA,
4500 PAMPAS AV,Oakland,CA,
6100 PINEWOOD RD,Oakland,CA,
0 ASCOT CT,Oakland,CA,
CLAREMONT AV & FISH RANCH RD,Oakland,CA,
15TH AV & COMMERCE WY,Oakland,CA,
1200 MAGNOLIA ST,Oakland,CA,
50TH AV & YGNACIO AV,Oakland,CA,
4000 GRAND AV,Oakland,CA,
10700 EAGLE CT,Oakland,CA,
42ND ST & LUSK ST,Oakland,CA,
4400 SHAFTER AV,Oakland,CA,
9TH ST & MARTIN LUTHER KING JR WY,Oakland,CA,
101ST AV & WALNUT ST,Oakland,CA,
1100 CASTRO ST,Oakland,CA,
10TH ST / OAK ST,Oakland,CA,
1000 E 18TH ST,Oakland,CA,
5200 ADELINE ST,Oakland,CA,
75TH AV & OUTLOOK AV,Oakland,CA,
10600 BEVERLY AV,Oakland,CA,
1000 43RD ST,Oakland,CA,
3600 BRIGHTON AV,Oakland,CA,
16TH AV & MARIN WY,Oakland,CA,
1200 8TH AV,Oakland,CA,
DIMOND DISTRICT,Oakland,CA,
900 PARAMOUNT RD,Oakland,CA,
65TH AV & ARTHUR ST,Oakland,CA,
2800 14TH AV,Oakland,CA,
9600 DUNBAR DR,Oakland,CA,
