Address,City,State,Zip
5500 VALLEJO,Oakland,CA,
0 THE PLAZ,Oakland,CA,
DIRECTED PATROL UNITS,Oakland,CA,
BLANDON RD & GLENLY RD,Oakland,CA,
4129B PENNIMAN AV,Oakland,CA,
6200 SAN LEANDRO AV,Oakland,CA,
3900 ALISO AV,Oakland,CA,
1600 E. 12TH ST&17TH AV,Oakland,CA,
FRUITVALE AND SANLEANDRO,Oakland,CA,
63/CAMD,Oakland,CA,
SEMINARY AND SANLEANDRO,Oakland,CA,
0 TOWNSQUARE PL,Oakland,CA,
NB S13 CONN & TUNNEL RD,Oakland,CA,
ACCESS RD AT 7TH ST,Oakland,CA,
1500 ,Oakland,CA,
2600 MEADOWCREST CT,Oakland,CA,
3000 OCTAVIA,Oakland,CA,
COACH DR & PHAETON DR,Oakland,CA,
HD @ HEGENBERGER RD,Oakland,CA,
1900 ALCATRAZ,Oakland,CA,
2200 FREDERICK ST,Oakland,CA,
4200 PIEDMONT,Oakland,CA,
300 W WINTON,Oakland,CA,
1000 E 14TH ST,Oakland,CA,
5700 AVENAL,Oakland,CA,
3300 68TH AVE,Oakland,CA,
WB I980 & WB S24,Oakland,CA,
NB 7TH CONN ST & NB BROADWAY CONN,Oakland,CA,
4900 FLEMING AV,Oakland,CA,
3200 BANCROFT WY,Oakland,CA,
9500 BLK SUNNYSIDE ST,Oakland,CA,
W MACARTHUR BLVD & PERALTA ST,Oakland,CA,
9012A INTERNATIONAL BLVD,Oakland,CA,
3400 GRAND AVENUE,Oakland,CA,
CATRON DR & ESTEPA DR,Oakland,CA,
SA,Oakland,CA,
1900 3RD ST,Oakland,CA,
DISTRICT 2 - DIRECTED PATROL,Oakland,CA,
7TH/NAVY ROAD WY,Oakland,CA,
3300 CURRAN AV,Oakland,CA,
DIRECTED PATROL/BEAT 27,Oakland,CA,
KINKOS ON POWEL ST IN EMMERYVILLE,Oakland,CA,
INTERNATIONAL CORRIDOR SPECIAL ASSIGN,Oakland,CA,
1700 1&2 WEBSTER ST,Oakland,CA,
1500 E ST,Oakland,CA,
1800 HAVENSCOURT BLVD,Oakland,CA,
17000 VIA PIEDROS SR,Oakland,CA,
5000 SAN PABLO AV,Oakland,CA,
EMBARCADERO AND BROADWAY,Oakland,CA,
KNOLL RIDGE WY & SLOPECREST DR,Oakland,CA,
1800 20TH AV,Oakland,CA,
2200 11TH AV#2,Oakland,CA,
68TH AVE & BANCROFT AVE,Oakland,CA,
3600 7TH ST,Oakland,CA,
0 & GRAND,Oakland,CA,
14TH/MLK,Oakland,CA,
52ND ST & MARTIN LUTHER KING JR,Oakland,CA,
2600 CLAREMONT AV,Oakland,CA,
4000 SAN PABLO AVE,Oakland,CA,
FAIRBAIRN AV & KNOWLAND AV,Oakland,CA,
600 23RD STREET,Oakland,CA,
ANAIR WY & STEARNS AV,Oakland,CA,
BROADWAY & WB I980,Oakland,CA,
EVERETT AV & LEACH AV,Oakland,CA,
1600 66TH AV,Oakland,CA,
981A INTERNATIONAL BLVD,Oakland,CA,
500 WILLIAM,Oakland,CA,
2800 82ND AVE,Oakland,CA,
900 6TH AV,Oakland,CA,
0 HIGHLAND DR,Oakland,CA,
DISTRICT 3 ALONG INTL,Oakland,CA,
26TH ST & WEBSTER,Oakland,CA,
CASTLEWOOD ST & SARAZEN AV,Oakland,CA,
7000 SAYRE DRIVE,Oakland,CA,
2100 BIENATI WY,Oakland,CA,
CRESTMONT DR & KIMBERLIN HEIGHTS DR,Oakland,CA,
NB COLISEUM OFFRP WY & NB HIGH OFFRP ST,Oakland,CA,
1100 MARITIME ST,Oakland,CA,
600 73RD AV,Oakland,CA,
400 MANDELA PKWY,Oakland,CA,
GRIZZLY PEAK & S PARK,Oakland,CA,
ROSEMOUNT RD & VERRADA RD,Oakland,CA,
0 CORNWALL CT,Oakland,CA,
800 MAC ARTHUR BLVD,Oakland,CA,
2400 W 12TH,Oakland,CA,
OAKMORE PL & OAKMORE RD,Oakland,CA,
400 W GRAND AVE,Oakland,CA,
BERKELEY PD,Oakland,CA,
6000 GIRVIN DR,Oakland,CA,
2300 68TH AV,Oakland,CA,
E 17TH ST & ROSEDALE AV,Oakland,CA,
300 HAWTHRONE ST,Oakland,CA,
12TH ST,Oakland,CA,
BREED & SUNNYSIDE,Oakland,CA,
I80/UNIV,Oakland,CA,
34900 NEWARK BLVD,Oakland,CA,
I880 & CUTTING,Oakland,CA,
105TH AV & BEVERLY AV,Oakland,CA,
1300 E. 33RD ST,Oakland,CA,
S ELMHURST AV & RAILROAD AV,Oakland,CA,
900 83RD AVE,Oakland,CA,
300 BLK 105TH AV,Oakland,CA,
BLANDING AV & PARK ST,Oakland,CA,
1000 7TH ST.,Oakland,CA,
600 E17TH ST,Oakland,CA,
100 SONIA ST,Oakland,CA,
CAMELFORD PL & MALL CT,Oakland,CA,
5TH ST/EMBARCADERO,Oakland,CA,
3900 ALAMEDA AVE,Oakland,CA,
2500 SPENCER,Oakland,CA,
10000 SIGOURNEY AV,Oakland,CA,
5800 BIRCH ST,Oakland,CA,
47/ADEL,Oakland,CA,
EMM CORRIDOR,Oakland,CA,
9600 EMPIRE CT,Oakland,CA,
COOLIDGE & E27,Oakland,CA,
6300 LA SALLE AV,Oakland,CA,
1800 74TH AVE,Oakland,CA,
1000 104TH AVE,Oakland,CA,
500 BLK 22ND ST,Oakland,CA,
1400 73RD AVE,Oakland,CA,
38/ADE,Oakland,CA,
6500 HEARTWOOD DR,Oakland,CA,
98TH AVE & THERMAL,Oakland,CA,
AUBURN AV & FLORIO ST,Oakland,CA,
A ST & 95TH AV,Oakland,CA,
WEST END,Oakland,CA,
6500 FENHAM ST.,Oakland,CA,
MONTANA ST & MORRISON AV,Oakland,CA,
2J09 SPECIAL ASSIGNMENT,Oakland,CA,
WHITMORE PL & WHITMORE ST,Oakland,CA,
16400 13TH AV,Oakland,CA,
2600 E. C. REEMS CT,Oakland,CA,
1300 GRAND AV,Oakland,CA,
BACON RD & FERNHOFF RD,Oakland,CA,
2500 77TH AVE,Oakland,CA,
2100 VICKSBURG AVE,Oakland,CA,
800 E.19TH STREET,Oakland,CA,
JORDAN RD & MONTEREY BLVD,Oakland,CA,
1200 OCEAN AV,Oakland,CA,
3060B E 9TH ST,Oakland,CA,
2800 SHATTUCK,Oakland,CA,
DENNISON ST & KENNEDY ST,Oakland,CA,
69TH AVE,Oakland,CA,
600 ATHOL AVE,Oakland,CA,
EL EMBARCADERO/5TH ST,Oakland,CA,
400 BLK 18TH ST,Oakland,CA,
DIRECT PATROL E12/6TH AV,Oakland,CA,
INT & ,Oakland,CA,
6200 TELEGRAPH AVE.,Oakland,CA,
400 NEPTUNE AV,Oakland,CA,
I880/POWELL,Oakland,CA,
TELEGRAPH AV & 28TH ST,Oakland,CA,
GRANDE VISTA AV & GRANDE VISTA PL,Oakland,CA,
DOLORES AV & EL CENTRO AV,Oakland,CA,
2000 BLK 82ND AVE.,Oakland,CA,
700 E 9TH ST,Oakland,CA,
2200 34TH AVE,Oakland,CA,
1300 97TH AVE,Oakland,CA,
SEMINARY/MORSE,Oakland,CA,
FRYE ST & MAPLE AV,Oakland,CA,
3200 FRUITVALE AVE,Oakland,CA,
INTERNATIONAL & 57TH AV,Oakland,CA,
3000 13TH AV,Oakland,CA,
BROADWAY & EMBARCADERO,Oakland,CA,
7600 BROADWAY TER,Oakland,CA,
8100 MOUNTAIN BLVD,Oakland,CA,
7800 GARFIELD AVE,Oakland,CA,
I580 & EST,Oakland,CA,
2900 ADELINE,Oakland,CA,
32ND AND FILBERT,Oakland,CA,
15000 SKYLINE BLVD,Oakland,CA,
100 EDGEMONT WY,Oakland,CA,
1200 64TH AVE,Oakland,CA,
13600 E 14TH,Oakland,CA,
ELYSIAN FIELDS DR & ENGLEWOOD DR,Oakland,CA,
10800 ALCALANES,Oakland,CA,
PLEITNER AV & TEXAS ST,Oakland,CA,
E 36TH ST & BRUCE ST,Oakland,CA,
IFO 1931 - 88TH AVE,Oakland,CA,
ON THE BEAT,Oakland,CA,
2300 17TH AVE,Oakland,CA,
2700 LINDEN ST,Oakland,CA,
1100 45TH AV,Oakland,CA,
68OO BANCROFT AV,Oakland,CA,
400 CENTRAL AV,Oakland,CA,
1400 AUSEON AVE,Oakland,CA,
800 35TH AVE,Oakland,CA,
600 W GRAND AVE,Oakland,CA,
54TH AND INTERNATIONAL,Oakland,CA,
COLTON BLVD & HEMLOCK LN,Oakland,CA,
4900 REINHARDT DR,Oakland,CA,
51ST ST & SHATTUCK AVE,Oakland,CA,
3800 39TH AVE,Oakland,CA,
GALINDO ST,Oakland,CA,
ARGYLE ST & DUBLIN AV,Oakland,CA,
ADELINE/ALCATRAZ,Oakland,CA,
64TH ST & VALLEJO ST,Oakland,CA,
1200 DOROTHY AVE,Oakland,CA,
500 WOOD ST,Oakland,CA,
1900 73RD AVE,Oakland,CA,
2000 MOWRY,Oakland,CA,
1500 39TH AVE,Oakland,CA,
300 1&2 63RD ST,Oakland,CA,
5600 GLENBROOK DR,Oakland,CA,
HEGENBERGER @ IN AND OUT BURGER,Oakland,CA,
1900 JEFFERSON ST,Oakland,CA,
6500 ELVERTON DR,Oakland,CA,
2500 KIRKHAM ST,Oakland,CA,
BANCROFT & CALLAN,Oakland,CA,
8TH ST & MARTIN LUTHER KING J,Oakland,CA,
2100 106TH AVE,Oakland,CA,
DIST ONE SA,Oakland,CA,
8300 NEY AVE,Oakland,CA,
81ST AVE & BANCROFT,Oakland,CA,
HEATHER RIDGE WY & PINEHAVEN RD,Oakland,CA,
8/FILBERT,Oakland,CA,
2400 66TH AVE,Oakland,CA,
4500 ALLENDALE AVE,Oakland,CA,
1200 41ST AVE,Oakland,CA,
ELYSIAN FIELDS DR & TURTLE CREEK ST,Oakland,CA,
FV DIST,Oakland,CA,
SHETLAND AV & STACEY ST,Oakland,CA,
COURTLAND AV & TYRRELL ST,Oakland,CA,
2500 GRIZZLY PEAK BLVD,Oakland,CA,
5600 CASTLE ROAD,Oakland,CA,
800 DERBY,Oakland,CA,
9700 STEARNS AV,Oakland,CA,
MANDELA CORRIDOR - UNTIL 1030 - DIRECTED PATROL,Oakland,CA,
2600 55TH AVE,Oakland,CA,
DIRECTED PATROL ON INTERNATIONAL,Oakland,CA,
MANOR CREST & ROANOKE RD,Oakland,CA,
1200 CHATHAM RD,Oakland,CA,
2500 WEST,Oakland,CA,
5100 SAN PABLO AV,Oakland,CA,
2400 E 29TH ST,Oakland,CA,
500 BLK 51ST ST,Oakland,CA,
6900 HALLIDAY ST,Oakland,CA,
DIRECTED PATROL DISTRICT 2,Oakland,CA,
7700 MAC ARTHUR BLVD,Oakland,CA,
3300 BLK OCTAVIA ST,Oakland,CA,
23RD AV & NB 23RD ONRP AV,Oakland,CA,
4200 OAKMORE AV,Oakland,CA,
3800 SAN PABLO DAM RD,Oakland,CA,
7200 KRAUSE STREET,Oakland,CA,
C & ELMHURST,Oakland,CA,
FRUITVALE,Oakland,CA,
55TH ST & MARSHALL ST,Oakland,CA,
1100 63RD SR,Oakland,CA,
4900 PIEDMONT AV,Oakland,CA,
2400 E. 6TH ST STOCKTON,Oakland,CA,
4100 PIEDMONT AVE,Oakland,CA,
1200 SAN PABLO AV,Oakland,CA,
CASTLE DR & MASTLANDS DR,Oakland,CA,
700 TAYLOR AV,Oakland,CA,
6200 ROCKY,Oakland,CA,
2300 BLK OF SAN PABLO,Oakland,CA,
5000 BLK MELROSE AVE,Oakland,CA,
16TH ST & FRANK H OGAWA PLZ,Oakland,CA,
42ND ST & MARTIN LUTHER KING J,Oakland,CA,
SPECIAL ASSIGM AREA 4 / 5,Oakland,CA,
ALISO AV & SB CARSON ONRP ST,Oakland,CA,
600 29TH AVE,Oakland,CA,
2000 WILLIAMS ST,Oakland,CA,
FONTAINE OVERCROSSING & EB I580,Oakland,CA,
2400 E,Oakland,CA,
1400 22ND AVE,Oakland,CA,
66TH AVE,Oakland,CA,
9800 E. 14TH ST,Oakland,CA,
OVERLAKE CT & THORNHILL DR,Oakland,CA,
34TH AVE/FARNAM ST,Oakland,CA,
ATHOL AV & PORTLAND AV,Oakland,CA,
CARLSTON AV & LONGRIDGE RD,Oakland,CA,
AMY DR & PROCTOR AV,Oakland,CA,
1417B 57TH AV,Oakland,CA,
11500 SKYLINE BLVD,Oakland,CA,
2000 50TH AVE,Oakland,CA,
10500 SUNNYSIDE ST,Oakland,CA,
PELHAM PL & WESTOVER DR,Oakland,CA,
EDENVALE PL & SUNNYMERE AV,Oakland,CA,
600 HEGENBERGER ROAD,Oakland,CA,
600 5TH AV,Oakland,CA,
ALLENDALE AV & RENWICK ST,Oakland,CA,
800 ATKINS AV,Oakland,CA,
3600 BLK WEBSTER ST,Oakland,CA,
52ND ST & MARTIN LUTHER KING J,Oakland,CA,
6300BLK COLISEUM WAY,Oakland,CA,
1400 76 AVE,Oakland,CA,
1200 CC 67TH ST,Oakland,CA,
1500 VAN NESS AV,Oakland,CA,
36TH ST & MARTIN LUTHER KING J,Oakland,CA,
PORTAL AV & WAWONA AV,Oakland,CA,
6600 WOODLAND PL,Oakland,CA,
3100 LIESE AV,Oakland,CA,
2200 109TH AVE,Oakland,CA,
124A MOSS AVE,Oakland,CA,
DOOLITTLE DR & WILLIAMS ST,Oakland,CA,
DIRECTED PATROL W OAKLAND BART,Oakland,CA,
MANDELA/CENTER ST CORRIDORS,Oakland,CA,
1800 90TH AVE,Oakland,CA,
100 AIR CARGO WAY,Oakland,CA,
GRIZZLY PEAK & SOUTH PARK,Oakland,CA,
DISTIRICT 2,Oakland,CA,
DIRECTIV PAT DIST 3,Oakland,CA,
2800 INTERNATIONAL BOULEVARD,Oakland,CA,
2134B 62ND AV,Oakland,CA,
SPECIAL ASSIGNTMENT,Oakland,CA,
FRONT/WEST 10,Oakland,CA,
9200 ELLINGTON,Oakland,CA,
DISTRICT 2 - TELEGRAPH,Oakland,CA,
1200 80TH AVE,Oakland,CA,
19TH ST & RASHIDA MUHAMMAD,Oakland,CA,
500 W. MACARTHUR BLVD,Oakland,CA,
MLK/ALCATRAZ,Oakland,CA,
MIDDLE HARBOR/BURMA,Oakland,CA,
I580 & UNIVERSITY,Oakland,CA,
14TH/INDEPENDENCE,Oakland,CA,
7200 BLK MACARTHUR BLVD,Oakland,CA,
DISTRICT 1 DIR PATROL,Oakland,CA,
DIRECTED PAT DIST 3,Oakland,CA,
5600 MCMILLAN AV,Oakland,CA,
1000 POTRERO AVE,Oakland,CA,
1400 BLOCK CLAY ST,Oakland,CA,
SPECIAL ASSIGN ON THE BEAT,Oakland,CA,
6000 CHABOLYN,Oakland,CA,
3200 SACRAMENTO,Oakland,CA,
4TH/FILBERT,Oakland,CA,
2100 92ND AVE,Oakland,CA,
INTL BTWN HIGH AND FV 1700 BLK OF BRIDGE,Oakland,CA,
10100 EDES AVE,Oakland,CA,
HOLLIS ST & EB I580,Oakland,CA,
27300 SLEEPYHOLLY,Oakland,CA,
40TH/SHATTUCK,Oakland,CA,
22ND ST & KAISER PLZ,Oakland,CA,
GILBERT ST & JOHN ST,Oakland,CA,
2500 HUMBOLDT AVE,Oakland,CA,
100 BUCKEYE AV,Oakland,CA,
62ND AVE & CAMDEN AVE,Oakland,CA,
NB I580 CONN & TELEGRAPH AV,Oakland,CA,
MANDALAY RD & MARGUERITE DR,Oakland,CA,
34TH ST & BEACH ST,Oakland,CA,
7300 SAN LEANDRO BLVD,Oakland,CA,
39400 CIVIC CENTER DR,Oakland,CA,
DIRECTED PATROL - DOWNTOWN,Oakland,CA,
7200 BLK MAC ARTHUR BLVD,Oakland,CA,
2500 74TH AVE,Oakland,CA,
300 BURLWOOD AVE,Oakland,CA,
14500 LOCUST ST,Oakland,CA,
5700 COLLEGE AVE,Oakland,CA,
5700 HARVEY,Oakland,CA,
105TH AND CAPISTRANO,Oakland,CA,
SUNNYMERE/SEMINARY,Oakland,CA,
E 7TH ST & DIESEL ST,Oakland,CA,
92ND & HILLSIDE,Oakland,CA,
2400 BANCROFT WY,Oakland,CA,
WB 18TH OFFRP ST & SAN PABLO AV,Oakland,CA,
0 ATHOL AVE,Oakland,CA,
1500 12TH AVE,Oakland,CA,
3600 GREENACRE ROAD,Oakland,CA,
ELYSIAN FIELDS DR & TAMARISK DR,Oakland,CA,
SEMINARY ST,Oakland,CA,
9400 ELLINGTON WY,Oakland,CA,
PITSBURG BAYPOINT BART,Oakland,CA,
1070B ALCATRAZ AV,Oakland,CA,
83RD AVE/OLIVE ST,Oakland,CA,
0 E 12TH ST,Oakland,CA,
0 & CAREY,Oakland,CA,
5100 HOLLIS,Oakland,CA,
200 LINDA AV,Oakland,CA,
SPEC ASSIGN DIST 3,Oakland,CA,
800 E. 19TH ST,Oakland,CA,
77TH/BANCROFT,Oakland,CA,
6900 SHERWICK,Oakland,CA,
HARBOR BAY & RON COWAN PKWY,Oakland,CA,
485A CLIFTON ST,Oakland,CA,
1500 ROSEDALE AV,Oakland,CA,
600 THOMAS L BERKELEY,Oakland,CA,
SHERWOOD DR & URANUS AV,Oakland,CA,
7TH ST. AND MLK JR. WY.,Oakland,CA,
NB MOUNTAIN ONRP BL & NB S13,Oakland,CA,
BRUNELL DR & KLAMATH ST,Oakland,CA,
5200 LAWTON AVE,Oakland,CA,
3A17,Oakland,CA,
7600 NEY AVE,Oakland,CA,
3040A E 9TH ST,Oakland,CA,
BEACH ST & SHELLMOUND ST,Oakland,CA,
1500 SUNSHINE CT,Oakland,CA,
3600 PENNIMAN AVE,Oakland,CA,
326D 23RD ST,Oakland,CA,
300 MADISON ST,Oakland,CA,
9800 A STREET,Oakland,CA,
300 HAWTHORNE AVE,Oakland,CA,
319B 17TH ST,Oakland,CA,
DOWNTOWN- S/A,Oakland,CA,
5000 REDWOOD RD,Oakland,CA,
ALCATRAZ/SACRAMENTO,Oakland,CA,
3000 7TH ST,Oakland,CA,
274000 HESPERIAN BLVD,Oakland,CA,
5300 SAN LEANDRO ST,Oakland,CA,
ELYSIAN FIELDS DR & ORINDA VISTA DR,Oakland,CA,
S13/THORNHILL,Oakland,CA,
0 DURANT AV,Oakland,CA,
GRAND VIEW DR & PERTH PL,Oakland,CA,
2400 PARK BLVD.,Oakland,CA,
2300 COOLIDGE AVE,Oakland,CA,
6300 MACARTHUR,Oakland,CA,
DIRECTED PATROL 1800-2000,Oakland,CA,
"1900 DIAMOND BLVD, CONCORD CA",Oakland,CA,
600 WOOD ST,Oakland,CA,
2100 KELLEY,Oakland,CA,
13700 SKYLINE BLVD,Oakland,CA,
FAIRBANKS AV & SCOTT ST,Oakland,CA,
COOLIDGE AND MACARTHUR BLVD,Oakland,CA,
9100 MAC ARTHUR BLVD,Oakland,CA,
75TH GARFIELD AV,Oakland,CA,
RISHELL DR & SKYLINE BLVD,Oakland,CA,
CAPWELL DR & ROLAND WY,Oakland,CA,
6200 CLAREMONT AVE,Oakland,CA,
200 ADA ST,Oakland,CA,
1555A 83RD AV,Oakland,CA,
2300 83RD AVE,Oakland,CA,
LESTER AV & HANOVER AV,Oakland,CA,
2700 OLIVER AVE,Oakland,CA,
BROADWAY & WB I580,Oakland,CA,
PREVENTIVE PATROL,Oakland,CA,
2600 FISHER AVE,Oakland,CA,
NORWOOD AV & TRESTLE GLEN RD,Oakland,CA,
CHELSEA CT & CHELSEA DR,Oakland,CA,
400 CAROLINE,Oakland,CA,
ADELINE/WOOLSEY,Oakland,CA,
4000 SAN LEANDRO BLVD,Oakland,CA,
3900 BALFOUR AV,Oakland,CA,
40TH & HOLD,Oakland,CA,
400 ESTUDILLO AV,Oakland,CA,
2300 8TH AVE,Oakland,CA,
1000 PERK,Oakland,CA,
RUSSETT ST & SAN LEANDRO ST,Oakland,CA,
900 143RD AV,Oakland,CA,
COLBY ST & WOOLSEY ST,Oakland,CA,
64TH ST & HOLLIS ST,Oakland,CA,
INTL 8700 9800,Oakland,CA,
1L01 & 1L05 DIRECTED PATROL,Oakland,CA,
6400 BAY VIEW,Oakland,CA,
2700 MIDDLE HARBOR,Oakland,CA,
SPECIAL ASSIGNMENT - DIST 5,Oakland,CA,
9000 CREST AV,Oakland,CA,
DIRECTED PATROL DISTRICT 4,Oakland,CA,
40TH & ADELINE,Oakland,CA,
800 MANDELA PRKY,Oakland,CA,
38TH AVE,Oakland,CA,
10500 PONTIAC,Oakland,CA,
1500 E. 33RD STREET,Oakland,CA,
BOULEVARD WY & FAIRBANKS AV,Oakland,CA,
6000 BROMLEY AV,Oakland,CA,
1200 TERRA AV,Oakland,CA,
1700 83RD AVE,Oakland,CA,
GENEVA AND MISSION,Oakland,CA,
MON & GIL,Oakland,CA,
2000 COOLIDGE AVE,Oakland,CA,
BALMORAL DR & TARTAN WY,Oakland,CA,
1100 FRUITVALE AV,Oakland,CA,
BDWY CORRIDOR,Oakland,CA,
DIRECTIVE PATROL JLS,Oakland,CA,
800 LANCASTER,Oakland,CA,
60TH,Oakland,CA,
WB I580 & WB MACARTHUR ONRP BL,Oakland,CA,
7100 RUDSDALE ST,Oakland,CA,
DIRECTIVE PATROL WEST OAKLAND BART,Oakland,CA,
500 52,Oakland,CA,
BURR ST & THERMAL ST,Oakland,CA,
700 BARBARA RD,Oakland,CA,
200 GLENWOOD DR,Oakland,CA,
8400 EDGEWATER DRIVE,Oakland,CA,
98TH & S ELMHURST,Oakland,CA,
2400 TRUMAN AVE,Oakland,CA,
ELLINGTON WAY & 92ND,Oakland,CA,
MANDELA PKWY,Oakland,CA,
2300 BLK BROADWAY,Oakland,CA,
SPECIAL ASSIGN - AREA 2,Oakland,CA,
ATHOL AV & LAKESHORE AV,Oakland,CA,
2000 GRANT ST,Oakland,CA,
500 N 3RD ST,Oakland,CA,
3500 OAKKNOLL BLVD,Oakland,CA,
300 WATER ST,Oakland,CA,
600 BLOSSOM WAY HAYWARD CA,Oakland,CA,
500 H ST,Oakland,CA,
4300 HARBOR VIEW AV,Oakland,CA,
200 14 ST,Oakland,CA,
10950A INTERNATIONAL BLVD,Oakland,CA,
I880 & DAVIS,Oakland,CA,
1700 84TH AVE,Oakland,CA,
MACARTHUR BLVD / PARKER AVE,Oakland,CA,
2200 1&2 E 15TH ST,Oakland,CA,
1500 23RD AVE,Oakland,CA,
COOLIDGE AV & PAXTON AV,Oakland,CA,
600 BROOKLYN ST,Oakland,CA,
PINEHAVEN RD & THE TURN,Oakland,CA,
5TH ST & PERALTA ST,Oakland,CA,
2600 19TH AVE,Oakland,CA,
1400 79TH AVE,Oakland,CA,
5TH AVE AND E.18TH ST,Oakland,CA,
WEBSTER & THOMAS L BERKELEY WAY,Oakland,CA,
FRUITVALE AVE,Oakland,CA,
2900 38TH AV,Oakland,CA,
FOOTHILL CORR,Oakland,CA,
ADELINE ST & NB I880,Oakland,CA,
LAURISTON CT & THORNDALE DR,Oakland,CA,
WALGREENS,Oakland,CA,
6247B COLLEGE AV,Oakland,CA,
BROADWAY & WEBSTER TUBE,Oakland,CA,
SCOTIA AV & SHETLAND AV,Oakland,CA,
200 FRANK H OGAWA PLAZA,Oakland,CA,
SIDESHOW DETAIL,Oakland,CA,
PRINCE AND VERMONT ST,Oakland,CA,
I80 & MCDONALD,Oakland,CA,
DISTRICT 5 - 3A31,Oakland,CA,
ACCESS & SKYLINE BLVD,Oakland,CA,
900 TORRANO AVE,Oakland,CA,
1400 MARIN WY,Oakland,CA,
602B EL DORADO AV,Oakland,CA,
TELEGRAPH CORRIDER,Oakland,CA,
1600 162ND AV,Oakland,CA,
MAPLE AV & WISCONSIN ST,Oakland,CA,
900 E 10TH ST,Oakland,CA,
6900 COLISEUM WY,Oakland,CA,
3100 DESERET DR,Oakland,CA,
FREMONT BART,Oakland,CA,
3000 ADELINE STREET,Oakland,CA,
EB 51ST OFFRP ST & W MACARTHUR BLVD,Oakland,CA,
5478A COLLEGE AV,Oakland,CA,
1600 84TH AVE,Oakland,CA,
DIRECTIVE PARTROL,Oakland,CA,
495D CANYON OAKS DR,Oakland,CA,
40TH & SAN PABLO,Oakland,CA,
8200 BLK MACARTHUR BLVD,Oakland,CA,
PRESLEY WY & WB S24,Oakland,CA,
0 KIRKLAND CT,Oakland,CA,
61ST ST & VALLEJO ST,Oakland,CA,
E 8TH ST & PARK WY,Oakland,CA,
600 1&2 JACKSON ST,Oakland,CA,
DIRECTIVE PATROLS,Oakland,CA,
0 CONRAD CT,Oakland,CA,
2200 E 16TH ST,Oakland,CA,
3900 SEMINARY AV,Oakland,CA,
5600 TELEGRAPH AVE,Oakland,CA,
COLTON BLVD & RIDGEWOOD DR,Oakland,CA,
EL MONTE/GOLF LINKS,Oakland,CA,
COLTON BLVD & SKYLINE BLVD,Oakland,CA,
BROADWAY TER & COUNTRY CLUB DR,Oakland,CA,
600 ALMA AVE,Oakland,CA,
WARD LN & PLEITNET AV,Oakland,CA,
SPEC ASSIGN - TAC 4,Oakland,CA,
400 8TH AV,Oakland,CA,
AMY DR & MASONIC AV,Oakland,CA,
549A 66TH ST,Oakland,CA,
E 9TH ST & PORTWOOD AV,Oakland,CA,
63RD AV & EASTLAWN ST,Oakland,CA,
CHETWOOD ST & EB MACARTHUR COLL BL,Oakland,CA,
LEIMERT BLVD & OAKVIEW DR,Oakland,CA,
9600 BLK INTERNATIONAL BLVD,Oakland,CA,
600 TEL,Oakland,CA,
HOWELL ST & MCAULEY ST,Oakland,CA,
13100 CAMPUS DR,Oakland,CA,
EMM,Oakland,CA,
8700 EARHART DR,Oakland,CA,
CORDOVA ST & FRUITVALE AV,Oakland,CA,
AITKEN DR & GIRVIN DR,Oakland,CA,
2200 SOUTHSHORE,Oakland,CA,
FOOTHILL CORRIDOR,Oakland,CA,
0 CANYON OAKS DR,Oakland,CA,
1300 106TH AVE,Oakland,CA,
600 FILBERT ST,Oakland,CA,
2000 35TH AVE,Oakland,CA,
3200 HAVEN ST,Oakland,CA,
1400 82ND AVE,Oakland,CA,
5800 BRANN ST,Oakland,CA,
BARROWS RD & TRESTLE GLEN RD,Oakland,CA,
6800 MAC ARTHUR BLVD,Oakland,CA,
2100 57TH AVE,Oakland,CA,
14TH AVENUE,Oakland,CA,
GREEN ACRE RD & MERRILL AV,Oakland,CA,
300 STANTONVILLE DR,Oakland,CA,
200 HAAS,Oakland,CA,
700 JENN ST,Oakland,CA,
2900 CARMEL STREET,Oakland,CA,
87TH AVE BANCROFT,Oakland,CA,
200 BROADMOOR,Oakland,CA,
CASTLE DR & WEYBRIDGE CT,Oakland,CA,
0 BONDS CT,Oakland,CA,
500 COLORADOS DRIVE,Oakland,CA,
600 CATRON,Oakland,CA,
INTL CORRRIDOR,Oakland,CA,
0 12TH ST,Oakland,CA,
WB 12TH/14TH OFFRP ST & WB I980,Oakland,CA,
PARK/E 15TH ST,Oakland,CA,
7500 OUTLOOK AVE,Oakland,CA,
2200 66TH AVE,Oakland,CA,
FOOTHILL & COLLIDGE,Oakland,CA,
DIRECTED APTROL,Oakland,CA,
2700 MEADOWLARK DR UNION CITY,Oakland,CA,
3500 68TH AVE,Oakland,CA,
3A10,Oakland,CA,
1908B LINDEN ST,Oakland,CA,
500 GLENVIEW AVE,Oakland,CA,
NB I880 & JEFFERSON ST,Oakland,CA,
4000 LOMA VISTA AVE,Oakland,CA,
GRAND/PARK SIDE,Oakland,CA,
4300 LINDEN ST,Oakland,CA,
5900 AVOCA ST,Oakland,CA,
106TH AV & LINK ST,Oakland,CA,
1068A 66TH ST,Oakland,CA,
0 VINCENTE PL,Oakland,CA,
3700 BEAUMONT AV,Oakland,CA,
2000 BLK CHURCH ST,Oakland,CA,
200 BELLEVIEW DR,Oakland,CA,
1200 33RD AVE,Oakland,CA,
0 & WASHINGTON ST,Oakland,CA,
4400 PIEDMONT AVE,Oakland,CA,
BANCROFT/HARVEY,Oakland,CA,
1000 36TH,Oakland,CA,
DIRECTED PAT BT 15,Oakland,CA,
900 EMBARCADERO,Oakland,CA,
900 51ST AVE,Oakland,CA,
ARGYLE ST & KEARNEY AV,Oakland,CA,
2900 DERBY ST,Oakland,CA,
15300 FARNAWORTH ST,Oakland,CA,
1000 LANGLEY,Oakland,CA,
57TH AVE AND BANCROFT,Oakland,CA,
0 GRAND AVE,Oakland,CA,
98TH AVE / B ST,Oakland,CA,
6000 OLD QUARRY LP,Oakland,CA,
3500 1&2 SAN LEANDRO ST,Oakland,CA,
2200 HARRISON ST.,Oakland,CA,
1000 E ST,Oakland,CA,
6000 WOOD DR,Oakland,CA,
1400 94TH AVE,Oakland,CA,
8700 FOUNTAIN ST,Oakland,CA,
400 KIRKHAM ST,Oakland,CA,
DENSLOWE/98TH,Oakland,CA,
MONZAL AV & MOUNTAIN BLVD,Oakland,CA,
2300 LAKESHORE AVE,Oakland,CA,
100 20TH,Oakland,CA,
PINEHURST/CANYON,Oakland,CA,
1200 73RD AVE,Oakland,CA,
23RD ST & TELEGRAPH AVE,Oakland,CA,
3200 CENTRAL AV,Oakland,CA,
1000 FRONTAGE,Oakland,CA,
1200 DRURY RD,Oakland,CA,
1800 62ND ST,Oakland,CA,
3600 MARTIN LUTHER KING,Oakland,CA,
1100 ACALANES DR,Oakland,CA,
34TH ST@MARKET ST,Oakland,CA,
1300 1&2 93RD AV,Oakland,CA,
DAVIS ST & WARDEN AV,Oakland,CA,
REDWOOD/ SKYLINE,Oakland,CA,
0 CASTLE LN,Oakland,CA,
3900 HORTON,Oakland,CA,
98TH AV/ E,Oakland,CA,
400 CRESCENT AV,Oakland,CA,
100 W GRAND,Oakland,CA,
500 COLONADOS,Oakland,CA,
IFO 369 42ND STREET,Oakland,CA,
900 66TH ST,Oakland,CA,
150TH AV & FOOTHILL BLVD,Oakland,CA,
15700 WASHINGTON,Oakland,CA,
E24/BWY,Oakland,CA,
EB S24 & EB TELEGRAPH ONRP AV,Oakland,CA,
6500 VALLEJO,Oakland,CA,
1000 MADISON ST,Oakland,CA,
3300 GRAND AVE,Oakland,CA,
2200 83RD AVE,Oakland,CA,
1100 82ND AVE,Oakland,CA,
1300 BLK 84TH AVE,Oakland,CA,
DOVER ST & POIRIER ST,Oakland,CA,
5600 BALBOA DR,Oakland,CA,
85TH AV/E,Oakland,CA,
BUCKEYE AV & HARBORD DR,Oakland,CA,
900 42ND AV,Oakland,CA,
3900 TURNLEY AVE,Oakland,CA,
1200 ASHMOUNT AV,Oakland,CA,
15800 E 14 ST(76 GAS STATION),Oakland,CA,
LOMA VISTA AV & QUIGLEY ST,Oakland,CA,
6400 1&2 SHATTUCK AV,Oakland,CA,
2400 75TH AV,Oakland,CA,
500 HILLER DR,Oakland,CA,
1100 10TH AVE,Oakland,CA,
13400 SAN PABLO,Oakland,CA,
6400 SAN LEANDRO BLVD,Oakland,CA,
1100 SEMINARY AVE,Oakland,CA,
1400 86TH AVE,Oakland,CA,
CLEVELAND AV & SPRUCE ST,Oakland,CA,
9100 KIRKHAM WAY,Oakland,CA,
100 SHERIDAN AV,Oakland,CA,
OAK RD & PARK LN,Oakland,CA,
6900 REDWOOD RD,Oakland,CA,
5800 COLISEUM WAY,Oakland,CA,
800 & DOO,Oakland,CA,
55TH AND MARKET ST,Oakland,CA,
2400 E. 22ND STREET,Oakland,CA,
482D 49TH ST,Oakland,CA,
SPENCF,Oakland,CA,
DIRECTED PATROL W OAK BART,Oakland,CA,
26300 WHITMAN ST,Oakland,CA,
2400 79,Oakland,CA,
DIRECTED PATROL A1,Oakland,CA,
2600 BLK INTERNATIONAL,Oakland,CA,
2400 INTERNATIONAL BL,Oakland,CA,
EB HARRISON ONRP ST & OAKLAND AV,Oakland,CA,
2900 E. 7TH ST,Oakland,CA,
59TH ST & OCCIDENTAL ST,Oakland,CA,
5900 BROADWAY TER,Oakland,CA,
2000 66TH AV,Oakland,CA,
700 51ST AVE,Oakland,CA,
7300 FOOTHILL BLVD,Oakland,CA,
6200 BROADWAY,Oakland,CA,
EL CENTRO AV & GLENDOME CIR,Oakland,CA,
100 AIRPORT DR,Oakland,CA,
200 CALDECOTT LANE,Oakland,CA,
6200 SAN LEANDRO BLVD,Oakland,CA,
3000 E9TH ST,Oakland,CA,
4600 PENNIMAN AV,Oakland,CA,
3600 GRAND AVE,Oakland,CA,
1200 102ND AVE,Oakland,CA,
EDENVALE PL & HILLMONT DR,Oakland,CA,
1000 2ND AVE,Oakland,CA,
KEMPTON AV & STANLEY PL,Oakland,CA,
65TH ST,Oakland,CA,
IFO 2651 73RD,Oakland,CA,
LEIMERT BLVD & WRENN ST,Oakland,CA,
1200 51 ST,Oakland,CA,
4200 ADEL,Oakland,CA,
8200 BLK FOOTHILL BLVD,Oakland,CA,
ROOM 101A,Oakland,CA,
2L12 DISTRICT 2,Oakland,CA,
5100 MELROSE AV,Oakland,CA,
3900 SAN PAB,Oakland,CA,
800 BLK 81ST AVE.,Oakland,CA,
4200 KNOLL AVE,Oakland,CA,
LEAMONT CT & MALCOLM AV,Oakland,CA,
1200 101ST AVE,Oakland,CA,
KEY CT & SCOTIA AV,Oakland,CA,
DIRECTD PATROL,Oakland,CA,
MANDALAY RD & NORMAN LN,Oakland,CA,
3500 FRUITVALE AVE,Oakland,CA,
3000 BURDECK DR,Oakland,CA,
10TH AV & 9TH AV,Oakland,CA,
2000 DWIGHT WY,Oakland,CA,
63RD ST & KING ST,Oakland,CA,
2600 WEST ST.,Oakland,CA,
650H CANYON OAKS DR,Oakland,CA,
4000 HALLECK,Oakland,CA,
2K22 DIRECTIVE PATROL,Oakland,CA,
61ST ST & MARTIN LUTHER KING J,Oakland,CA,
3000 MAC ARTHUR BLVD,Oakland,CA,
W MAC/PERALTA,Oakland,CA,
400 HALE AVE,Oakland,CA,
900 PORTWOOD AV,Oakland,CA,
4000 EMERY ST,Oakland,CA,
GOLDEN GATE AV & ROMANY RD,Oakland,CA,
5800 MENDOZA DR,Oakland,CA,
1500 BLOCK OF LAKESIDE DRIVE,Oakland,CA,
CHANDLER ST & PACKARD ST,Oakland,CA,
CHANNEL WY & REGATTA ST,Oakland,CA,
64TH AV & MAJESTIC AV,Oakland,CA,
2100 87TH AV,Oakland,CA,
LOCKWOOD ST,Oakland,CA,
100 JACKSON ST,Oakland,CA,
45TH ST & MARTIN LUTHER KING J,Oakland,CA,
146TH & 14TH,Oakland,CA,
34000 FREMONT,Oakland,CA,
5600 REDWOOD RD,Oakland,CA,
84TH AV/ E,Oakland,CA,
100 FAIRVIEW,Oakland,CA,
2200 VALDEZ ST,Oakland,CA,
300BLK 15TH ST,Oakland,CA,
LOWER FV/INTL,Oakland,CA,
1600 ALCATRAZ,Oakland,CA,
5300 CLAREMONT AVE,Oakland,CA,
AVOCA AV AT LEO WY,Oakland,CA,
FLORIO ST & ROSS ST,Oakland,CA,
200 E10TH ST,Oakland,CA,
BT 17 & INTL CORRIDOR,Oakland,CA,
7TH AVE & FOOTHILL BLVD,Oakland,CA,
24700 DIAMOND RIDGE DRIVE,Oakland,CA,
66TH AVE & LEONA CREEK DR,Oakland,CA,
200 PACIFIC,Oakland,CA,
DISTRICT DIRECTED PATROL,Oakland,CA,
3900 LONETREE WY,Oakland,CA,
3200 LAGUNA,Oakland,CA,
KINGSLAND AND BIRDSALL,Oakland,CA,
200 SILVERADO CT,Oakland,CA,
2500A KINGSLAND AV,Oakland,CA,
6600 ARTHUR BLVD,Oakland,CA,
JACKSON ST,Oakland,CA,
3900 MARTIN LUTHER KING JR WAY,Oakland,CA,
3800 SAN PAB,Oakland,CA,
1500 44TH AV,Oakland,CA,
5100 SHATTACK AVE,Oakland,CA,
SKYLINE BLVD & WILTON DR,Oakland,CA,
1000 1&2 63RD ST,Oakland,CA,
27400 HESPERIAN BLVD HAYWARD,Oakland,CA,
15200 FARNSWORTH ST,Oakland,CA,
35TH ST & EB I580 CONN,Oakland,CA,
0 MOUTAIN,Oakland,CA,
THE UPLANDS & TUNNEL RD,Oakland,CA,
1400 EXCELSIOR,Oakland,CA,
1000 MACARTHUR BOULEVARD,Oakland,CA,
9900 LONGFELLOW AVE,Oakland,CA,
1300 E-28TH ST,Oakland,CA,
2400 11TH AVE,Oakland,CA,
CARSON AND MOUNTAIN,Oakland,CA,
1400 100TH AVE,Oakland,CA,
DOWNTOWN ENCAMPMENTS,Oakland,CA,
CROSS RD & GOLDEN GATE AV,Oakland,CA,
COLLEGE AVENUE,Oakland,CA,
2000 BROADWAY AVE,Oakland,CA,
1400 102ND AVE,Oakland,CA,
1000 44TH ST,Oakland,CA,
3200 ALHAMBRA AV,Oakland,CA,
1200 83RD AVE,Oakland,CA,
4500 SAN LEANDRO AV,Oakland,CA,
5TH ST & SB OAK ONRP ST,Oakland,CA,
7TH AV & BEATIE ST,Oakland,CA,
2100 INTERNATIONAL BOULEVARD,Oakland,CA,
CALODEN LN & CALODEN ST,Oakland,CA,
200 MARTIN LUTHER KING JR WY,Oakland,CA,
NB 5TH OFFRP AV & NB I880,Oakland,CA,
0 BARMIED PL,Oakland,CA,
300 CENTRAL AV,Oakland,CA,
600 98TH AVE,Oakland,CA,
ALAMEDA HOSPITAL,Oakland,CA,
INTL CORRIDOR 23RD TO FV,Oakland,CA,
100TH AV & OLIVE ST,Oakland,CA,
2600 26TH AVE,Oakland,CA,
HARRISON ST & EB MACARTHUR ONRP BL,Oakland,CA,
3800 BLOCK OF FOOTHILL,Oakland,CA,
7TH ST & 8TH ST,Oakland,CA,
40TH STREET CORRIDER,Oakland,CA,
100 HEGENBERGER LP,Oakland,CA,
3200 BLOCK OF COOLIDGE,Oakland,CA,
1000 82ND AVE,Oakland,CA,
800 1&2 52ND ST,Oakland,CA,
300 EUCLIA AV,Oakland,CA,
1700 46TH AVE,Oakland,CA,
35TH ST & PERALTA ST,Oakland,CA,
MAC ARTHUR BLVD,Oakland,CA,
150TH AV & FREEDOM AV,Oakland,CA,
7000 LACEY AVE,Oakland,CA,
1900 DAVIS ST,Oakland,CA,
2800 OLIVER AVE,Oakland,CA,
26500 GADING RD,Oakland,CA,
2000 101ST AVE,Oakland,CA,
1400 103RD AVE,Oakland,CA,
14TH/BWY CORRIDOR,Oakland,CA,
700 EAGLE,Oakland,CA,
8600 FONTAINE ST,Oakland,CA,
1700 BLK TELEGRAPH AVE.,Oakland,CA,
6000 SCARLETT,Oakland,CA,
2100 51 AVE,Oakland,CA,
1400 77TH AVE,Oakland,CA,
1000 71ST AVE,Oakland,CA,
200 BLK CLAY ST,Oakland,CA,
7300 OUTLOOK AVE,Oakland,CA,
"PARIS, FRANCE",Oakland,CA,
3000 HELEN ST,Oakland,CA,
SAMARIA LN & TERALYNN CT,Oakland,CA,
200 E.18TH ST,Oakland,CA,
LAKESHORE/BROOKLYN,Oakland,CA,
9800 TOLER AVE,Oakland,CA,
WB MARKET OFFRP ST & WB S24,Oakland,CA,
63RD ST & LOWELL,Oakland,CA,
2300 BANCROFT WY,Oakland,CA,
WB 17TH ONRP ST & WB I980,Oakland,CA,
KK,Oakland,CA,
7200 STRUBWICK,Oakland,CA,
200 CHESTNUT ST,Oakland,CA,
900 83RD AVE.,Oakland,CA,
HOWARD ST & HIGH ST,Oakland,CA,
1900 84TH AVE,Oakland,CA,
600 BLK 12TH ST,Oakland,CA,
9300 EARHART DR,Oakland,CA,
1700 ALCATRAZ,Oakland,CA,
2600 62ND AVE,Oakland,CA,
1700 64TH ST,Oakland,CA,
SPE3 ASSIGN,Oakland,CA,
721A 34TH ST,Oakland,CA,
HEGENBERGER AND HEGENBERGER LOOP,Oakland,CA,
ADELINE ST & ALCATRAZ,Oakland,CA,
1200 BLK 41ST AV,Oakland,CA,
INTERNATIONAL BLVD & 79TH AV,Oakland,CA,
EARHART RD & LANGLEY ST,Oakland,CA,
1X13 DIRECTIVE PATROL,Oakland,CA,
23RD ST & MARTIN LUTHER KING JR WAY,Oakland,CA,
136TH/E 14,Oakland,CA,
3000 HOSPITAL DR,Oakland,CA,
AVALON AV & CLAREMONT,Oakland,CA,
ENOS AV & TOMPKINS AV,Oakland,CA,
3800 ADELINE,Oakland,CA,
2900 KITCHENER CT,Oakland,CA,
1900 65TH AVE,Oakland,CA,
6500 COLISEUM AVE,Oakland,CA,
MACARTHUR BLVD & W MACARTHUR BLVD,Oakland,CA,
3400 GALINDO ST,Oakland,CA,
1200 1&2 E 34TH ST,Oakland,CA,
6000 E 17TH ST,Oakland,CA,
0 OAKLAND INTRNTL,Oakland,CA,
KEVINS COURT AREA,Oakland,CA,
BEAT 15 TILL 0100HRS,Oakland,CA,
3L11,Oakland,CA,
VIR & ML,Oakland,CA,
4700 CONGRESS AVE,Oakland,CA,
700 1&2 22ND ST,Oakland,CA,
7900 REDWOOD RD,Oakland,CA,
10900 ,Oakland,CA,
1092A AILEEN ST,Oakland,CA,
SAN PABLO,Oakland,CA,
1100 BROOKSIDE DRIVE,Oakland,CA,
0 VAN SICKLON PL,Oakland,CA,
9200 ELLINGTON WY,Oakland,CA,
FRUITVALE AVE/ FOOTHILL & INTERNATIONAL,Oakland,CA,
7800 KRAUSE AVE,Oakland,CA,
2300 FRUITVALE AVENUE,Oakland,CA,
900 DOLORES AV,Oakland,CA,
3040B E 9TH ST,Oakland,CA,
62ND AV & CASLAND AV,Oakland,CA,
3200 ARDEN WY,Oakland,CA,
4600 CALAVARAS AV,Oakland,CA,
DIRECTIVE PATRL,Oakland,CA,
300 1&2 20TH ST,Oakland,CA,
13TH AV & EB I580,Oakland,CA,
INTL SA,Oakland,CA,
6500 HEMBREE LN,Oakland,CA,
300 BLK 8TH ST,Oakland,CA,
1100 BAYVIEW AVE,Oakland,CA,
AREA 1 - DIRECTED PATROL,Oakland,CA,
1200 82ND AVE,Oakland,CA,
1700 ORCHARD,Oakland,CA,
900 46TH ST.,Oakland,CA,
WB FRUITVALE ONRP AV & SHEFFIELD AV,Oakland,CA,
1400 OAK ST,Oakland,CA,
CHAMPION ST & PLEASANT ST,Oakland,CA,
MAC ARTHUR & MADRONE PATH,Oakland,CA,
6000 SHEPHERD CANYON RD,Oakland,CA,
E 15TH ST & 1ST AVENUE PL,Oakland,CA,
5500 HARVEY AVE,Oakland,CA,
ADELINE ST & LOWELL ST,Oakland,CA,
1500 1&2 MUNSON WY,Oakland,CA,
CLARA ST & LOUISIANA ST,Oakland,CA,
37/SAN PABLO,Oakland,CA,
ADELINE & ALCATRAZ,Oakland,CA,
SPECIAL ASSIGN UNITS ON TAC 7,Oakland,CA,
800 STANFORD,Oakland,CA,
LEXFORD PL & SKYLINE BLVD,Oakland,CA,
2500 38TH AVE,Oakland,CA,
HARBOR BAY PKWY/RON COWAN PKWY,Oakland,CA,
2300 BWY,Oakland,CA,
IRO 2300 WEBSTER,Oakland,CA,
2800 PARKER AVE #1,Oakland,CA,
WB HARRISON ONRP ST & WB I580,Oakland,CA,
0 AIRPORT DRIVE,Oakland,CA,
1400 REDDING ST,Oakland,CA,
8400 HEGENBERGER RD,Oakland,CA,
14200 E 14TH ST,Oakland,CA,
2J08/2J14 DIRECTIVE PATROL,Oakland,CA,
BROADWAY TER & CROSS RD,Oakland,CA,
FREMONT ST & STANFORD AV,Oakland,CA,
EL CENTRO AV & HANLY RD,Oakland,CA,
DOWNTOWN CLUB PATROL,Oakland,CA,
EDGEWOOD AV & HOLLYWOOD AV,Oakland,CA,
500 GRAND AVE,Oakland,CA,
ELYSIAN FIELDS DR & MISSION HILLS,Oakland,CA,
14TH AV & COMSTOCK WY,Oakland,CA,
DIRECT PATROL INTL BLVD,Oakland,CA,
400 CENTER ST,Oakland,CA,
E 14TH ST & W BROADMOOR BLVD,Oakland,CA,
TAC 9,Oakland,CA,
9600 RAILROAD AV,Oakland,CA,
NB MOUNTAIN OFFRP BL & NB S13,Oakland,CA,
2900 69TH AV,Oakland,CA,
8900 DOOLITTLE DR,Oakland,CA,
WOOD CT & WOOD DR,Oakland,CA,
10400 BYRON AVE,Oakland,CA,
1500 94TH AVE,Oakland,CA,
3200 60TH AVE,Oakland,CA,
1700 28TH AVE,Oakland,CA,
SB 42ND OFFRP AV & NB I880,Oakland,CA,
ADEL/W MAC,Oakland,CA,
CARSON ST & SHEPHERD ST,Oakland,CA,
8300 MAC ARTHUR BLVD,Oakland,CA,
BEVERLY AV & DURANT AV,Oakland,CA,
2822A UNION ST,Oakland,CA,
MALCOLM AV & WOODCLIFF CT,Oakland,CA,
1073A AILEEN ST,Oakland,CA,
1400 56TH AVE,Oakland,CA,
SPECIAL ASSIG,Oakland,CA,
47TH/SALEM,Oakland,CA,
2000 PARK ST,Oakland,CA,
5800 PINEWOOD RD,Oakland,CA,
40TH,Oakland,CA,
EB 27TH ONRP ST & NORTHGATE AV,Oakland,CA,
CHELTON DR & GIRVIN DR,Oakland,CA,
DIST 2 SPECIAL ASSIGN,Oakland,CA,
BT15,Oakland,CA,
2900 HILLTOP MALL RD,Oakland,CA,
3400 BRDWY,Oakland,CA,
14TH AVE & 102 AVE,Oakland,CA,
BEAT 2 & 6,Oakland,CA,
0 SANTA ANITA,Oakland,CA,
1000 1&2 47TH ST,Oakland,CA,
1600 STUART ST,Oakland,CA,
0 MALTA CRT,Oakland,CA,
40TH DIST 2,Oakland,CA,
COLLEGE AVE,Oakland,CA,
CLARA ST & NORGREN ST,Oakland,CA,
1600 51 AV,Oakland,CA,
KLAMATH ST,Oakland,CA,
200 HEGENBERGER WAY,Oakland,CA,
"WINSTON ST, HAYWARD",Oakland,CA,
1400 EDDY ST,Oakland,CA,
1300 E. 15TH ST,Oakland,CA,
GLENNVIEW PARK NEIGH,Oakland,CA,
4000 BLK HOWE ST,Oakland,CA,
DIRECRIVE PATROL,Oakland,CA,
2600 34TH AVE,Oakland,CA,
1600 159TH AVE,Oakland,CA,
3200 FRUIVALE AV,Oakland,CA,
2500 CHELSEA DR,Oakland,CA,
1500 101ST AV,Oakland,CA,
CARY ST & DOUGLAS AV,Oakland,CA,
9700 MAC ARTHUR BL,Oakland,CA,
14TH AV/INTL,Oakland,CA,
4734A SHATTUCK AV,Oakland,CA,
MCGURRIN RD & SEQUOYAH RD,Oakland,CA,
2300 POPLAR ST,Oakland,CA,
5500 FOOTHOLL BLVD,Oakland,CA,
1100 ALCATRAZ AV,Oakland,CA,
6100 LASALLE AV,Oakland,CA,
GRIFFIN ST & LEONA ST,Oakland,CA,
DAVIS ST & DOOLITTLE DR,Oakland,CA,
CLEMENT AV & PARK,Oakland,CA,
200 BLK 7TH ST,Oakland,CA,
ALLMAN ST & BEAUMONT AV,Oakland,CA,
27TH ST & NORTH GATE,Oakland,CA,
4001B PIEDMONT AV,Oakland,CA,
DIRECT PATROL A1,Oakland,CA,
10300 BYRON AVE,Oakland,CA,
1600 98TH AVE,Oakland,CA,
1200 BLK OF 86TH AVE,Oakland,CA,
SPEC ASSIGN - DIST 1,Oakland,CA,
DORCHESTER AV & SUFFOLK DR,Oakland,CA,
7900 GREENLY AVE,Oakland,CA,
3700 ADE,Oakland,CA,
4299D PIEDMONT AV,Oakland,CA,
DIRECTED PATRO L,Oakland,CA,
2J08/2J14 40TH ST CORRIDOR,Oakland,CA,
5427C TELEGRAPH AV,Oakland,CA,
LAKE PARK AV & RAND AV,Oakland,CA,
62ND AVE & HILTON ST,Oakland,CA,
GLEN AV & LINDA AV,Oakland,CA,
6600 BANNING DRIVE,Oakland,CA,
4700 FAIR AVENUE,Oakland,CA,
1646A 7TH ST,Oakland,CA,
37/SAN,Oakland,CA,
48TH ST CORRIDOR,Oakland,CA,
63RD ST & DANA ST,Oakland,CA,
1100 83RD AVE,Oakland,CA,
1900 FAIRVIEW ST,Oakland,CA,
GRASS VALLEY RD & SUN VALLEY DR,Oakland,CA,
MORCOM AV & YUBA AV,Oakland,CA,
MANZANITA DR & NORTHWOOD CT,Oakland,CA,
FV COOR,Oakland,CA,
3400 68TH AVE,Oakland,CA,
3RD AV & E18TH ST,Oakland,CA,
3200 BALDWIN ST,Oakland,CA,
LINCOLN AV & RAVENWOOD LN,Oakland,CA,
5000 DESMOND ST,Oakland,CA,
200 CORPUS CHRISTI RD,Oakland,CA,
FRUITVALE AV & WRENN ST,Oakland,CA,
2400 99TH AVE.,Oakland,CA,
900 VIRGINIA,Oakland,CA,
SR24 & OAK HILL,Oakland,CA,
4300 RILEA WAY,Oakland,CA,
1100 W MACARTHUR BLVD,Oakland,CA,
500 41ST ST.,Oakland,CA,
I 580 & BEAUMONT,Oakland,CA,
9600 BANCROFT AVE,Oakland,CA,
1900 BLK 98TH AVE,Oakland,CA,
SPECIAL ASSIGN DIST 1,Oakland,CA,
5200 CLAREMONT AVE,Oakland,CA,
700 BLOCK OF 7TH ST,Oakland,CA,
SPECIAL ASSIGNMENT PROTEST,Oakland,CA,
KAISER ANTIOCH,Oakland,CA,
2800 64TH AVE,Oakland,CA,
7200 BLK HAWLEY ST,Oakland,CA,
2000 CLINTON,Oakland,CA,
200 E15TH ST,Oakland,CA,
4600 BROADWAY,Oakland,CA,
100 CANDY DRIVE,Oakland,CA,
18TH & POPLAR,Oakland,CA,
BRUSH/7,Oakland,CA,
1700 MADISON ST,Oakland,CA,
S24 & E580,Oakland,CA,
7100 HEGENBERGER RD,Oakland,CA,
3400 E 9TH ST,Oakland,CA,
1900 LOMITA DR SAN LEANDRO,Oakland,CA,
ELVESSA ST & TURNER AV,Oakland,CA,
I880 & THORTON,Oakland,CA,
1600 TAYLOR,Oakland,CA,
2700 RITCHIS,Oakland,CA,
700 COLLISEUM WAY,Oakland,CA,
900 ELMHURST AV,Oakland,CA,
WALLMART,Oakland,CA,
1100 BELLA VISTA AVE,Oakland,CA,
3000 SYLVAN AVE,Oakland,CA,
8500 BANCROFT AVE,Oakland,CA,
1900 102ND AVE.,Oakland,CA,
1600 WOL,Oakland,CA,
68TH AVE & MAC ARTHUR BLVD,Oakland,CA,
21ST ST & MARTIN LUTHER KING J,Oakland,CA,
10800 RUGBY CT,Oakland,CA,
91ST AV & A ST,Oakland,CA,
RIDGEMOOR RD & SEQUOYAH RD,Oakland,CA,
TANNER WY & TUBMAN DR,Oakland,CA,
2400 RANSOM,Oakland,CA,
2300 10TH ST,Oakland,CA,
2500 EAST ST,Oakland,CA,
DIRECTED PATROL--DISTRICT 3,Oakland,CA,
6700 GUNN DR,Oakland,CA,
2900 60TH AVE,Oakland,CA,
1400 55TH AVE,Oakland,CA,
900 LANCASTER,Oakland,CA,
9800 BURR ST.,Oakland,CA,
4400 YGNACIO AVE,Oakland,CA,
EB 51ST OFFRP ST & EB MLK JR OFFRP WY,Oakland,CA,
1600 HIGHLAND BLVD,Oakland,CA,
INTERNATIONAL AND 95TH AVE,Oakland,CA,
1200 DERBY ST,Oakland,CA,
E 10TH ST & SANTA MARIA CT,Oakland,CA,
PASO ROBLES DR & WOODROW DR,Oakland,CA,
30TH ST & TELEGRAPH,Oakland,CA,
BT 27,Oakland,CA,
3400 E12TH ST,Oakland,CA,
EB 17TH OFFRP ST & EB I980,Oakland,CA,
DIRECT PATROL BT 16,Oakland,CA,
GARDENIA PL & SUNNYMERE AV,Oakland,CA,
1900 26TH AVE,Oakland,CA,
LAGUNA AV & SCENIC AV,Oakland,CA,
1000 ,Oakland,CA,
5900 GREENRIDGE,Oakland,CA,
2100 34TH AVE,Oakland,CA,
MANILA AV & MONROE AV,Oakland,CA,
FORESTLAND WY & MOORE DR,Oakland,CA,
1200 1&2 82ND AV,Oakland,CA,
2400 TAYLOR AVE,Oakland,CA,
2100 BLK COURTLAND AVE.,Oakland,CA,
2800 67TH AVE,Oakland,CA,
8400 EDGEWATER RD,Oakland,CA,
2800 CALIFORNIA ST,Oakland,CA,
VICKSBURG AV & WENTWORTH AV,Oakland,CA,
SB103RD,Oakland,CA,
2400 CENTRAL,Oakland,CA,
1646A 7TH AV,Oakland,CA,
5000 CLINTON AVE,Oakland,CA,
73RD/HOLLY,Oakland,CA,
