Address,City,State,Zip
400 JEAN ST,Oakland,CA,
200 HANOVER AV,Oakland,CA,
9TH AV & FOOTHILL BLVD,Oakland,CA,
1800 10TH ST,Oakland,CA,
3200 LAUREL AV,Oakland,CA,
1500 3RD ST,Oakland,CA,
1500 94TH AV,Oakland,CA,
14TH AV & E 29TH ST,Oakland,CA,
9000 SUNNYSIDE ST,Oakland,CA,
25TH ST & MARTIN LUTHER KING JR WY,Oakland,CA,
4800 DUNKIRK AV,Oakland,CA,
2800 VIOLA ST,Oakland,CA,
2500 MONTICELLO AV,Oakland,CA,
200 KERWIN AV,Oakland,CA,
5300 BROADWAY TER,Oakland,CA,
1000 CAMPBELL ST,Oakland,CA,
59TH ST & MARTIN LUTHER KING JR WY,Oakland,CA,
500 ATHOL AV,Oakland,CA,
10TH ST & FILBERT ST,Oakland,CA,
1200 5TH AV,Oakland,CA,
7800 SAN LEANDRO ST,Oakland,CA,
4400 PENNIMAN AV,Oakland,CA,
4100 MAYNARD AV,Oakland,CA,
900 E 18TH ST,Oakland,CA,
3100 BERLIN WY,Oakland,CA,
3800 RUBY ST,Oakland,CA,
1500 9TH ST,Oakland,CA,
1800 E 17TH ST,Oakland,CA,
4200 PORTER ST,Oakland,CA,
1200 46TH AV,Oakland,CA,
19TH ST & MARTIN LUTHER KING JR WY,Oakland,CA,
4600 VIRGINIA AV,Oakland,CA,
2000 12TH AV,Oakland,CA,
96TH AV & SUNNYSIDE ST,Oakland,CA,
ELIZABETH ST & SEMINARY AV,Oakland,CA,
3800 CANON AV,Oakland,CA,
4TH ST & OAK ST,Oakland,CA,
5300 HOLLAND ST,Oakland,CA,
76TH AV & BANCROFT AV,Oakland,CA,
50TH ST & TELEGRAPH AV,Oakland,CA,
4700 BROOKDALE AV,Oakland,CA,
1200 E 15TH ST,Oakland,CA,
900 ALVARADO RD,Oakland,CA,
1100 HOLMAN RD,Oakland,CA,
103RD AV & GRAFFIAN ST,Oakland,CA,
6000 OCEAN VIEW DR,Oakland,CA,
BATAAN ST & MARITIME ST,Oakland,CA,
105TH AV & RUSSETT ST,Oakland,CA,
1900 MANDELA PKWY,Oakland,CA,
3200 13TH AV,Oakland,CA,
1500 41ST AV,Oakland,CA,
LAKESHORE AV & TRESTLE GLEN RD,Oakland,CA,
3900 AGUA VISTA ST,Oakland,CA,
CLAREMONT AV & CLIFTON ST,Oakland,CA,
1000 POPLAR ST,Oakland,CA,
28TH ST & MYRTLE ST,Oakland,CA,
600 WALAVISTA AV,Oakland,CA,
4500 PENNIMAN AV,Oakland,CA,
COOLIDGE AV & LOGAN ST,Oakland,CA,
MOUNTAIN BLVD & REDWOOD RD,Oakland,CA,
1900 8TH AV,Oakland,CA,
4600 ALLENDALE AV,Oakland,CA,
1300 E 24TH ST,Oakland,CA,
MILES AV & PRESLEY WY,Oakland,CA,
9300 B ST,Oakland,CA,
4300 ATLAS AV,Oakland,CA,
7500 CIRCLE HILL DR,Oakland,CA,
80TH AV & BANCROFT AV,Oakland,CA,
5500 E 17TH ST,Oakland,CA,
2100 73RD AV,Oakland,CA,
84TH AV & A ST,Oakland,CA,
9700 WALNUT ST,Oakland,CA,
7900 GREENLY DR,Oakland,CA,
4100 PENNIMAN CT,Oakland,CA,
92ND AV & D ST,Oakland,CA,
1100 57TH AV,Oakland,CA,
5TH ST & MADISON ST,Oakland,CA,
1800 89TH AV,Oakland,CA,
3800 CLARKE ST,Oakland,CA,
84TH AV & PLYMOUTH ST,Oakland,CA,
0 HARRISON ST,Oakland,CA,
3100 MINNA AV,Oakland,CA,
EDES AV & JONES AV,Oakland,CA,
5200 TRASK ST,Oakland,CA,
9900 BERNHARDT DR,Oakland,CA,
13800 CAMPUS DR,Oakland,CA,
1700 INDIAN WY,Oakland,CA,
2000 WEST ST,Oakland,CA,
2000 42ND AV,Oakland,CA,
2800 MORCOM AV,Oakland,CA,
2600 MACARTHUR BLVD,Oakland,CA,
500 ALCATRAZ AV,Oakland,CA,
3900 GREENWOOD AV,Oakland,CA,
1600 18TH AV,Oakland,CA,
13600 CAMPUS DR,Oakland,CA,
600 E 10TH ST,Oakland,CA,
69TH AV & SNELL ST,Oakland,CA,
44TH AV & SAN LEANDRO ST,Oakland,CA,
1000 50TH AV,Oakland,CA,
9800 E ST,Oakland,CA,
2600 34TH AV,Oakland,CA,
3400 CHAMPION ST,Oakland,CA,
3400 MAPLE AV,Oakland,CA,
1300 75TH AV,Oakland,CA,
9TH ST & OAK ST,Oakland,CA,
800 MADISON ST,Oakland,CA,
3000 COURTLAND AV,Oakland,CA,
1200 WEBSTER ST,Oakland,CA,
5600 SCOVILLE ST,Oakland,CA,
66TH AV & MACARTHUR BLVD,Oakland,CA,
4700 WEST ST,Oakland,CA,
2100 39TH AV,Oakland,CA,
EB 98TH ONRP AV & EB I580,Oakland,CA,
5900 MARSHALL ST,Oakland,CA,
500 MIRA VISTA AV,Oakland,CA,
FREDERICK ST & KENNEDY ST,Oakland,CA,
700 CLAY ST,Oakland,CA,
5800 THORNHILL DR,Oakland,CA,
MACARTHUR BLVD & MIDVALE AV,Oakland,CA,
4400 WALNUT ST,Oakland,CA,
7500 MACARTHUR BLVD,Oakland,CA,
E 22ND ST & 24TH AV,Oakland,CA,
11400 GOLF LINKS RD,Oakland,CA,
6700 LAIRD AV,Oakland,CA,
500 47TH ST,Oakland,CA,
2800 FORD ST,Oakland,CA,
70TH AV & HOLLY ST,Oakland,CA,
2ND AV & FOOTHILL BLVD,Oakland,CA,
11TH ST & WOOD ST,Oakland,CA,
108TH AV & MACARTHUR BLVD,Oakland,CA,
200 MARKET ST,Oakland,CA,
3400 E 17TH ST,Oakland,CA,
900 VERMONT ST,Oakland,CA,
39TH ST & TELEGRAPH AV,Oakland,CA,
6200 SAN LEANDRO ST,Oakland,CA,
400 ALICE ST,Oakland,CA,
2400 MARTIN LUTHER KING JR WY,Oakland,CA,
2400 BARTLETT ST,Oakland,CA,
84TH AV & OLIVE ST,Oakland,CA,
1700 11TH AV,Oakland,CA,
32ND ST & TELEGRAPH AV,Oakland,CA,
6700 EASTLAWN ST,Oakland,CA,
6000 FAIRLANE DR,Oakland,CA,
2100 101ST AV,Oakland,CA,
0 CLAREWOOD LN,Oakland,CA,
1200 MARTIN LUTHER KING JR WY,Oakland,CA,
FONTAINE ST & KELLER AV,Oakland,CA,
9600 B ST,Oakland,CA,
2ND ST & FRANKLIN ST,Oakland,CA,
2800 SHORT ST,Oakland,CA,
3500 VICTOR AV,Oakland,CA,
51ST ST & SHAFTER AV,Oakland,CA,
92ND AV & PLYMOUTH ST,Oakland,CA,
2800 OLIVER AV,Oakland,CA,
1800 CASTRO ST,Oakland,CA,
2300 55TH AV,Oakland,CA,
3900 WEBSTER ST,Oakland,CA,
1000 42ND ST,Oakland,CA,
700 73RD AV,Oakland,CA,
3000 MADELINE ST,Oakland,CA,
2100 12TH AV,Oakland,CA,
600 39TH ST,Oakland,CA,
600 46TH ST,Oakland,CA,
3000 BARTLETT ST,Oakland,CA,
48TH AV & YGNACIO AV,Oakland,CA,
8000 SUNKIST DR,Oakland,CA,
55TH ST & GENOA ST,Oakland,CA,
1700 CENTER ST,Oakland,CA,
2500 21ST AV,Oakland,CA,
100 LINDEN ST,Oakland,CA,
4200 WILSHIRE BLVD,Oakland,CA,
900 E 17TH ST,Oakland,CA,
30TH ST & MYRTLE ST,Oakland,CA,
13000 SKYLINE BLVD,Oakland,CA,
600 VALLE VISTA AV,Oakland,CA,
4700 SHATTUCK AV,Oakland,CA,
53RD ST & MARKET ST,Oakland,CA,
E 33RD ST & PARK BLVD,Oakland,CA,
7900 CREST AV,Oakland,CA,
6900 NORFOLK RD,Oakland,CA,
41ST ST & WEBSTER ST,Oakland,CA,
8500 PARDEE DR,Oakland,CA,
79TH AV & HILLSIDE ST,Oakland,CA,
0 COOLIDGE TER,Oakland,CA,
1900 70TH AV,Oakland,CA,
2800 GEORGIA ST,Oakland,CA,
105TH AV & GRAFFIAN ST,Oakland,CA,
300 NEWTON AV,Oakland,CA,
8700 FONTAINE ST,Oakland,CA,
5800 LAWTON AV,Oakland,CA,
65TH AV & FLORA ST,Oakland,CA,
2600 RAWSON ST,Oakland,CA,
98TH AV & MEDFORD AV,Oakland,CA,
9600 HOLLY ST,Oakland,CA,
1500 69TH AV,Oakland,CA,
3400 BROOKDALE AV,Oakland,CA,
3900 FAIRWAY AV,Oakland,CA,
0 RIO VISTA AV,Oakland,CA,
100 SANTA ROSA AV,Oakland,CA,
6400 SUNNYMERE AV,Oakland,CA,
4200 LA CRESTA AV,Oakland,CA,
3900 SAN LEANDRO ST,Oakland,CA,
6600 COLTON BLVD,Oakland,CA,
100 6TH ST,Oakland,CA,
7800 SURREY LN,Oakland,CA,
800 WALKER AV,Oakland,CA,
3400 MAGNOLIA ST,Oakland,CA,
2500 108TH AV,Oakland,CA,
3400 HANNAH ST,Oakland,CA,
3400 39TH AV,Oakland,CA,
0 EMBARCADERO COVE,Oakland,CA,
CAMPUS DR & KELLER AV,Oakland,CA,
4100 WEST ST,Oakland,CA,
2800 EASTMAN AV,Oakland,CA,
600 66TH ST,Oakland,CA,
7800 MICHIGAN AV,Oakland,CA,
16TH ST & CENTER ST,Oakland,CA,
CAMPUS DR & REDWOOD RD,Oakland,CA,
2000 AUSTIN ST,Oakland,CA,
700 66TH AV,Oakland,CA,
800 ROSEMOUNT RD,Oakland,CA,
6100 OAKDALE AV,Oakland,CA,
1500 7TH AV,Oakland,CA,
10500 ENGLEWOOD DR,Oakland,CA,
3000 DAKOTA ST,Oakland,CA,
2400 RITCHIE ST,Oakland,CA,
82ND AV & PLYMOUTH ST,Oakland,CA,
6000 CLAREMONT AV,Oakland,CA,
1500 51ST AV,Oakland,CA,
8500 BLAINE ST,Oakland,CA,
5100 E 12TH ST,Oakland,CA,
19TH AV & MARIN WY,Oakland,CA,
109TH AV & MACARTHUR BLVD,Oakland,CA,
COLLEGE AV & OCEAN VIEW DR,Oakland,CA,
COOLIDGE AV & MONTANA ST,Oakland,CA,
47TH ST & MARKET ST,Oakland,CA,
300 27TH ST,Oakland,CA,
1200 WILLOW ST,Oakland,CA,
7700 SUNKIST DR,Oakland,CA,
2300 WARNER AV,Oakland,CA,
7600 WELD ST,Oakland,CA,
2900 PARKER AV,Oakland,CA,
200 STONEWALL RD,Oakland,CA,
500 JONES AV,Oakland,CA,
3200 STAR AV,Oakland,CA,
2600 HIGHLAND AV,Oakland,CA,
2500 E 23RD ST,Oakland,CA,
2300 CHESTNUT ST,Oakland,CA,
0 EXCELSIOR CT,Oakland,CA,
800 CLEVELAND AV,Oakland,CA,
69TH AV & HAWLEY ST,Oakland,CA,
1800 E 22ND ST,Oakland,CA,
1500 MILLER AV,Oakland,CA,
2700 BARRY PL,Oakland,CA,
104TH AV & WALNUT ST,Oakland,CA,
5400 MOUNTAIN BLVD,Oakland,CA,
7600 SUNKIST DR,Oakland,CA,
1600 3RD AV,Oakland,CA,
40TH ST & MANILA AV,Oakland,CA,
600 ALICE ST,Oakland,CA,
EMPIRE RD & MAKIN RD,Oakland,CA,
1100 66TH ST,Oakland,CA,
89TH AV & PLYMOUTH ST,Oakland,CA,
2700 9TH AV,Oakland,CA,
200 12TH ST,Oakland,CA,
1000 MARKET ST,Oakland,CA,
6100 BAKER ST,Oakland,CA,
2700 E 7TH ST,Oakland,CA,
200 MONTECITO AV,Oakland,CA,
3300 SCHOOL ST,Oakland,CA,
82ND AV & RUDSDALE ST,Oakland,CA,
5800 OCEAN VIEW DR,Oakland,CA,
COLTON BLVD & MOUNTAIN BLVD,Oakland,CA,
FORTUNE WY & SEMINARY AV,Oakland,CA,
1100 ELMHURST AV,Oakland,CA,
92ND AV & WALNUT ST,Oakland,CA,
3900 RHODA AV,Oakland,CA,
87TH AV & DOWLING ST,Oakland,CA,
3200 63RD AV,Oakland,CA,
26TH ST & ADELINE ST,Oakland,CA,
E 11TH ST & 5TH AV,Oakland,CA,
EASTLAWN ST & SEMINARY AV,Oakland,CA,
E 17TH ST & SEMINARY AV,Oakland,CA,
10700 PEARMAIN ST,Oakland,CA,
1000 CHESTNUT ST,Oakland,CA,
10TH ST & MARTIN LUTHER KING JR WY,Oakland,CA,
3600 LOMA VISTA AV,Oakland,CA,
NEWTON AV & PARK BLVD,Oakland,CA,
800 CENTER ST,Oakland,CA,
HEGENBERGER LOOP & HEGENBERGER RD,Oakland,CA,
8700 THERMAL ST,Oakland,CA,
3300 62ND AV,Oakland,CA,
5400 LAWTON AV,Oakland,CA,
9400 B ST,Oakland,CA,
5100 MARTIN LUTHER KING JR WY,Oakland,CA,
2300 DURANT AV,Oakland,CA,
6000 ROCKRIDGE BLVD,Oakland,CA,
4100 TERRACE ST,Oakland,CA,
1400 BARROWS RD,Oakland,CA,
5700 SAN LEANDRO ST,Oakland,CA,
3000 MIDDLETON ST,Oakland,CA,
5TH ST & JACKSON ST,Oakland,CA,
9300 VISTA CT,Oakland,CA,
3800 LYON AV,Oakland,CA,
6100 CONTRA COSTA RD,Oakland,CA,
0 ELYSIAN FIELDS DR,Oakland,CA,
3400 ADELL CT,Oakland,CA,
3900 LUSK ST,Oakland,CA,
1300 E 20TH ST,Oakland,CA,
3700 MIDVALE AV,Oakland,CA,
0 ROSSMOOR CT,Oakland,CA,
62ND AV & BROMLEY AV,Oakland,CA,
2500 E 21ST ST,Oakland,CA,
2400 60TH AV,Oakland,CA,
W GRAND AV & POPLAR ST,Oakland,CA,
1400 LINDEN ST,Oakland,CA,
LAKESHORE AV & WESLEY AV,Oakland,CA,
4400 ARCADIA AV,Oakland,CA,
700 GRAND AV,Oakland,CA,
400 57TH ST,Oakland,CA,
2600 60TH AV,Oakland,CA,
10300 BANCROFT AV,Oakland,CA,
400 9TH AV,Oakland,CA,
2500 23RD AV,Oakland,CA,
1900 105TH AV,Oakland,CA,
4100 FULLINGTON ST,Oakland,CA,
3400 MONTEREY BLVD,Oakland,CA,
1000 7TH AV,Oakland,CA,
2400 HARRINGTON AV,Oakland,CA,
85TH AV & DOWLING ST,Oakland,CA,
1200 E 22ND ST,Oakland,CA,
3200 MONTEREY BLVD,Oakland,CA,
16TH AV & SB I880,Oakland,CA,
44TH AV & BANCROFT AV,Oakland,CA,
6800 LUCILLE ST,Oakland,CA,
2400 MAVIS ST,Oakland,CA,
5600 EDGERLY ST,Oakland,CA,
63RD ST & SHATTUCK AV,Oakland,CA,
10TH ST & JACKSON ST,Oakland,CA,
BEACON ST & LAKESHORE AV,Oakland,CA,
E 20TH ST & 27TH AV,Oakland,CA,
100 FRANKLIN ST,Oakland,CA,
9500 LAWLOR ST,Oakland,CA,
73RD AV & ORRAL ST,Oakland,CA,
600 HILLSBOROUGH ST,Oakland,CA,
1200 HOLMAN RD,Oakland,CA,
1700 CHESTNUT ST,Oakland,CA,
2700 21ST AV,Oakland,CA,
2400 MONTEREY BLVD,Oakland,CA,
2600 MONTICELLO AV,Oakland,CA,
7400 HILLSIDE ST,Oakland,CA,
7TH ST & CLAY ST,Oakland,CA,
MONTELL ST & PIEDMONT AV,Oakland,CA,
800 PALOMA AV,Oakland,CA,
4600 BROOKDALE AV,Oakland,CA,
5800 COLBY ST,Oakland,CA,
800 71ST AV,Oakland,CA,
35TH AV & KANSAS ST,Oakland,CA,
13TH AV & E 15TH ST,Oakland,CA,
57TH ST & SAN PABLO AV,Oakland,CA,
700 16TH ST,Oakland,CA,
2400 BURLINGTON ST,Oakland,CA,
6400 CAMDEN ST,Oakland,CA,
16TH ST & CASTRO ST,Oakland,CA,
1500 25TH AV,Oakland,CA,
1700 CHURCH ST,Oakland,CA,
ADAMS ST & MACARTHUR BLVD,Oakland,CA,
103RD AV & PLYMOUTH ST,Oakland,CA,
1300 77TH AV,Oakland,CA,
2100 BRAEMAR RD,Oakland,CA,
2000 E 15TH ST,Oakland,CA,
CAIRO RD & EMPIRE RD,Oakland,CA,
4000 MARKET ST,Oakland,CA,
1900 LEIMERT BLVD,Oakland,CA,
9700 SUNNYSIDE ST,Oakland,CA,
1900 100TH AV,Oakland,CA,
3500 MOUNTAIN BLVD,Oakland,CA,
21ST ST & MYRTLE ST,Oakland,CA,
3200 COURTLAND AV,Oakland,CA,
94TH AV & SUNNYSIDE ST,Oakland,CA,
10TH ST & CAMPBELL ST,Oakland,CA,
1300 ADELINE ST,Oakland,CA,
BANCROFT AV & VICKSBURG AV,Oakland,CA,
7300 ARTHUR ST,Oakland,CA,
0 WEBSTER ST,Oakland,CA,
9600 THERMAL ST,Oakland,CA,
3000 KANSAS ST,Oakland,CA,
4200 WEST ST,Oakland,CA,
400 NEWTON AV,Oakland,CA,
BROCKHURST ST & WEST ST,Oakland,CA,
4500 VIRGINIA AV,Oakland,CA,
BROADWAY & PIEDMONT AV,Oakland,CA,
2600 HAROLD ST,Oakland,CA,
2100 108TH AV,Oakland,CA,
1200 E 21ST ST,Oakland,CA,
79TH AV & ARTHUR ST,Oakland,CA,
3500 MAPLE AV,Oakland,CA,
1900 E 12TH ST,Oakland,CA,
4400 ANDERSON AV,Oakland,CA,
700 WALAVISTA AV,Oakland,CA,
1900 20TH AV,Oakland,CA,
600 CARLSTON AV,Oakland,CA,
10TH ST & MADISON ST,Oakland,CA,
3900 GLEN PARK RD,Oakland,CA,
2100 DURANT AV,Oakland,CA,
1300 WOOD ST,Oakland,CA,
107TH AV & INTERNATIONAL BLVD,Oakland,CA,
700 50TH AV,Oakland,CA,
2900 76TH AV,Oakland,CA,
8000 EARL ST,Oakland,CA,
89TH AV & HOLLY ST,Oakland,CA,
3500 JORDAN RD,Oakland,CA,
4200 ATLAS AV,Oakland,CA,
92ND AV & CHERRY ST,Oakland,CA,
4TH ST & HARRISON ST,Oakland,CA,
900 PINE ST,Oakland,CA,
1200 64TH AV,Oakland,CA,
1400 EXCELSIOR AV,Oakland,CA,
58TH ST & MARTIN LUTHER KING JR WY,Oakland,CA,
1100 MADISON ST,Oakland,CA,
2800 HAVENSCOURT BLVD,Oakland,CA,
4500 TIDEWATER AV,Oakland,CA,
3500 MAY CT,Oakland,CA,
JACKSON ST & LAKESIDE DR,Oakland,CA,
1200 OAK ST,Oakland,CA,
3000 UNION ST,Oakland,CA,
3300 69TH AV,Oakland,CA,
1400 33RD AV,Oakland,CA,
3900 ALLENDALE AV,Oakland,CA,
6200 VIEW CREST DR,Oakland,CA,
0 EVERGREEN LN,Oakland,CA,
BROOKDALE AV & FRUITVALE AV,Oakland,CA,
7900 STERLING DR,Oakland,CA,
3700 GREEN ACRE RD,Oakland,CA,
2000 E 20TH ST,Oakland,CA,
3100 MADERA AV,Oakland,CA,
10TH AV & E 12TH ST,Oakland,CA,
2400 24TH AV,Oakland,CA,
4700 SAN LEANDRO ST,Oakland,CA,
1700 65TH AV,Oakland,CA,
92ND AV & B ST,Oakland,CA,
53RD ST & ADELINE ST,Oakland,CA,
1100 55TH ST,Oakland,CA,
3100 BUTTERS DR,Oakland,CA,
7100 HALLIDAY AV,Oakland,CA,
3600 NEVIL ST,Oakland,CA,
7300 HILLMONT DR,Oakland,CA,
3500 E 15TH ST,Oakland,CA,
1900 E 21ST ST,Oakland,CA,
20TH AV & E 21ST ST,Oakland,CA,
14TH AV & E 27TH ST,Oakland,CA,
700 BROADWAY,Oakland,CA,
7TH ST & JEFFERSON ST,Oakland,CA,
E 12TH ST & 3RD AV,Oakland,CA,
18TH ST & WOOD ST,Oakland,CA,
28TH ST & WEST ST,Oakland,CA,
1800 ROSEDALE AV,Oakland,CA,
3900 39TH AV,Oakland,CA,
1000 66TH ST,Oakland,CA,
1700 102ND AV,Oakland,CA,
4200 LAKESHORE AV,Oakland,CA,
700 41ST ST,Oakland,CA,
77TH AV & KRAUSE AV,Oakland,CA,
GRAND AV & VALDEZ ST,Oakland,CA,
5800 ROBERTS AV,Oakland,CA,
72ND AV & HAWLEY ST,Oakland,CA,
38TH AV & NEVIL ST,Oakland,CA,
4100 GREGORY ST,Oakland,CA,
7500 VALENTINE ST,Oakland,CA,
6100 MORAGA AV,Oakland,CA,
5700 HOLWAY CT,Oakland,CA,
600 BROCKHURST ST,Oakland,CA,
2800 HANNAH ST,Oakland,CA,
1700 98TH AV,Oakland,CA,
1600 100TH AV,Oakland,CA,
2700 VALLECITO PL,Oakland,CA,
6800 SIMSON ST,Oakland,CA,
9300 THERMAL ST,Oakland,CA,
4200 TERRABELLA WY,Oakland,CA,
MEDAU PL & MOUNTAIN BLVD,Oakland,CA,
2300 17TH AV,Oakland,CA,
400 PHELPS ST,Oakland,CA,
2900 107TH AV,Oakland,CA,
5200 CAMDEN ST,Oakland,CA,
14TH AV & MACARTHUR BLVD,Oakland,CA,
700 44TH ST,Oakland,CA,
3000 73RD AV,Oakland,CA,
3700 LATIMER PL,Oakland,CA,
9800 B ST,Oakland,CA,
2400 10TH AV,Oakland,CA,
4100 MAYBELLE AV,Oakland,CA,
3100 PARK BLVD,Oakland,CA,
300 2ND ST,Oakland,CA,
5900 BRANN ST,Oakland,CA,
92ND AV & OLIVE ST,Oakland,CA,
5700 MORAGA AV,Oakland,CA,
400 PENDLETON WY,Oakland,CA,
53RD ST & LOWELL ST,Oakland,CA,
COLISEUM WY & JULIE ANN WY,Oakland,CA,
2700 BROOKDALE AV,Oakland,CA,
18TH ST & POPLAR ST,Oakland,CA,
CLAREMONT AV & FOREST ST,Oakland,CA,
61ST ST & MARTIN LUTHER KING JR WY,Oakland,CA,
66TH AV & AVENAL AV,Oakland,CA,
MACARTHUR BLVD & TALBOT AV,Oakland,CA,
3200 MAGNOLIA ST,Oakland,CA,
33RD ST & SAN PABLO AV,Oakland,CA,
2600 WEST ST,Oakland,CA,
3300 GEORGIA ST,Oakland,CA,
400 CANYON OAKS DR,Oakland,CA,
6400 ESSEX ST,Oakland,CA,
5800 SEMINARY CT,Oakland,CA,
76TH AV & SPENCER ST,Oakland,CA,
2400 63RD AV,Oakland,CA,
1100 CHESTNUT ST,Oakland,CA,
100 TUNIS RD,Oakland,CA,
4000 BARNER AV,Oakland,CA,
4700 WALNUT ST,Oakland,CA,
3300 WILSON PL,Oakland,CA,
700 HILLGIRT CIR,Oakland,CA,
10600 ACALANES DR,Oakland,CA,
1000 E 17TH ST,Oakland,CA,
69TH AV & HAMILTON ST,Oakland,CA,
2800 MINNA AV,Oakland,CA,
COURTLAND AV & FAIRFAX AV,Oakland,CA,
61ST AV & FOOTHILL BLVD,Oakland,CA,
700 47TH ST,Oakland,CA,
5TH ST & MARTIN LUTHER KING JR WY,Oakland,CA,
6400 OAKWOOD DR,Oakland,CA,
800 YORK ST,Oakland,CA,
500 E 22ND ST,Oakland,CA,
E 15TH ST & 24TH AV,Oakland,CA,
2600 INYO AV,Oakland,CA,
3300 VICTOR AV,Oakland,CA,
W MACARTHUR BLVD & RICHMOND BLVD,Oakland,CA,
1100 KIRKHAM CT,Oakland,CA,
800 NORTHVALE RD,Oakland,CA,
82ND AV & PARTRIDGE AV,Oakland,CA,
500 MANDANA BLVD,Oakland,CA,
EDWARDS AV & SUNKIST DR,Oakland,CA,
5800 COLTON BLVD,Oakland,CA,
5500 GOLDEN GATE AV,Oakland,CA,
1800 107TH AV,Oakland,CA,
3200 64TH AV,Oakland,CA,
68TH AV & INTERNATIONAL BLVD,Oakland,CA,
52ND AV & BANCROFT AV,Oakland,CA,
3000 MCKILLOP RD,Oakland,CA,
3800 BALFOUR AV,Oakland,CA,
2800 MONTICELLO AV,Oakland,CA,
800 CLAY ST,Oakland,CA,
98TH AV & LAWLOR ST,Oakland,CA,
1000 21ST ST,Oakland,CA,
900 89TH AV,Oakland,CA,
400 50TH ST,Oakland,CA,
9000 BROADWAY TER,Oakland,CA,
4100 MAPLE AV,Oakland,CA,
40TH AV & SAN LEANDRO ST,Oakland,CA,
4000 PATTERSON AV,Oakland,CA,
1500 17TH AV,Oakland,CA,
11100 ACALANES DR,Oakland,CA,
9800 ST ELMO DR,Oakland,CA,
2400 E 15TH ST,Oakland,CA,
2900 BARRETT ST,Oakland,CA,
23RD AV & KENNEDY ST,Oakland,CA,
1500 68TH AV,Oakland,CA,
E 10TH ST & 5TH AV,Oakland,CA,
HIGH ST & SUTER ST,Oakland,CA,
500 HIGH ST,Oakland,CA,
OLIVE ST & RITCHIE ST,Oakland,CA,
800 MANDANA BLVD,Oakland,CA,
14200 SKYLINE BLVD,Oakland,CA,
4500 TULIP AV,Oakland,CA,
GEORGIA ST & MAPLE AV,Oakland,CA,
LAGUNA AV & MACARTHUR BLVD,Oakland,CA,
1500 1ST AV,Oakland,CA,
4100 MARKET ST,Oakland,CA,
MACARTHUR BLVD & PATTERSON AV,Oakland,CA,
1200 86TH AV,Oakland,CA,
2000 100TH AV,Oakland,CA,
2100 PERALTA ST,Oakland,CA,
2200 17TH AV,Oakland,CA,
2000 WAKE AV,Oakland,CA,
2500 RITCHIE ST,Oakland,CA,
3400 CALANDRIA AV,Oakland,CA,
75TH AV & GARFIELD AV,Oakland,CA,
9100 BURR ST,Oakland,CA,
4600 WALNUT ST,Oakland,CA,
34TH ST & ETTIE ST,Oakland,CA,
83RD AV & BIRCH ST,Oakland,CA,
3300 JOAQUIN MILLER RD,Oakland,CA,
89TH AV & D ST,Oakland,CA,
2500 74TH AV,Oakland,CA,
98TH AV & DOOLITTLE DR,Oakland,CA,
10800 ACALANES DR,Oakland,CA,
0 KINGWOOD RD,Oakland,CA,
2100 E 23RD ST,Oakland,CA,
400 19TH ST,Oakland,CA,
9400 HILLSIDE ST,Oakland,CA,
5300 LAWTON AV,Oakland,CA,
W GRAND AV & UNION ST,Oakland,CA,
3400 KINGSLAND AV,Oakland,CA,
3400 RHODA AV,Oakland,CA,
62ND AV & CAMDEN ST,Oakland,CA,
1100 OCEAN AV,Oakland,CA,
800 CALMAR AV,Oakland,CA,
3200 PERALTA ST,Oakland,CA,
8200 BANCROFT AV,Oakland,CA,
900 36TH AV,Oakland,CA,
6700 FLORA ST,Oakland,CA,
800 PARAMOUNT RD,Oakland,CA,
4300 BROOKDALE AV,Oakland,CA,
62ND AV & FOOTHILL BLVD,Oakland,CA,
75TH AV & HAMILTON ST,Oakland,CA,
96TH AV & HOLLY ST,Oakland,CA,
34TH ST & WEST ST,Oakland,CA,
0 AGNES ST,Oakland,CA,
5700 MILES AV,Oakland,CA,
6900 BUCKINGHAM BLVD,Oakland,CA,
1700 55TH AV,Oakland,CA,
75TH AV & BANCROFT AV,Oakland,CA,
6200 LAIRD AV,Oakland,CA,
2100 21ST AV,Oakland,CA,
8000 IRIS ST,Oakland,CA,
COURTLAND AV & VIRGINIA AV,Oakland,CA,
800 FILBERT ST,Oakland,CA,
300 CLAY ST,Oakland,CA,
5100 FLEMING AV,Oakland,CA,
1100 5TH ST,Oakland,CA,
1000 HIGH ST,Oakland,CA,
4500 LINCOLN AV,Oakland,CA,
25TH ST & SAN PABLO AV,Oakland,CA,
4100 RETTIG AV,Oakland,CA,
6500 SARONI DR,Oakland,CA,
400 ROSSMOOR AV,Oakland,CA,
4100 WHITTLE AV,Oakland,CA,
10300 FOOTHILL BLVD,Oakland,CA,
3500 69TH AV,Oakland,CA,
3900 NORTON AV,Oakland,CA,
84TH AV & BIRCH ST,Oakland,CA,
1600 ROSEDALE AV,Oakland,CA,
2300 99TH AV,Oakland,CA,
FOOTHILL BLVD & TRASK ST,Oakland,CA,
6500 SHATTUCK AV,Oakland,CA,
4100 LAKESHORE AV,Oakland,CA,
3900 MAGEE AV,Oakland,CA,
8300 OLIVE ST,Oakland,CA,
2700 HARRISON ST,Oakland,CA,
1900 102ND AV,Oakland,CA,
BROADWAY & TELEGRAPH AV,Oakland,CA,
E 12TH ST & 19TH AV,Oakland,CA,
200 FRISBIE ST,Oakland,CA,
3900 FRUITVALE AV,Oakland,CA,
8500 BIRCH ST,Oakland,CA,
500 COLORADOS DR,Oakland,CA,
7600 ARTHUR ST,Oakland,CA,
16TH ST & MANDELA PKWY,Oakland,CA,
3300 WISCONSIN ST,Oakland,CA,
SIMMONS ST & WYMAN ST,Oakland,CA,
1400 E 12TH ST,Oakland,CA,
6100 RIDGEMONT DR,Oakland,CA,
4600 REINHARDT DR,Oakland,CA,
3300 KANSAS ST,Oakland,CA,
8400 BALDWIN ST,Oakland,CA,
81ST AV & PLYMOUTH ST,Oakland,CA,
3800 BAYO ST,Oakland,CA,
4100 MONTGOMERY ST,Oakland,CA,
12600 SKYLINE BLVD,Oakland,CA,
EDES AV & ENTERPRISE WY,Oakland,CA,
5900 VALLEJO ST,Oakland,CA,
9300 EMPIRE RD,Oakland,CA,
8600 MOUNTAIN BLVD,Oakland,CA,
1300 49TH AV,Oakland,CA,
1300 78TH AV,Oakland,CA,
2600 COLE ST,Oakland,CA,
100 E 16TH ST,Oakland,CA,
2100 E 30TH ST,Oakland,CA,
COOLIDGE AV & LYNDE ST,Oakland,CA,
3000 PARTRIDGE AV,Oakland,CA,
400 5TH ST,Oakland,CA,
6100 BROOKSIDE AV,Oakland,CA,
4100 MOUNTAIN VIEW AV,Oakland,CA,
HARRINGTON AV & SANTA RITA ST,Oakland,CA,
500 5TH ST,Oakland,CA,
3600 COOLIDGE AV,Oakland,CA,
MARTIN LUTHER KING JR WY & WEST ST,Oakland,CA,
2100 40TH AV,Oakland,CA,
1100 53RD ST,Oakland,CA,
1400 6TH AV,Oakland,CA,
10800 APRICOT ST,Oakland,CA,
4900 STACEY ST,Oakland,CA,
5000 TRASK ST,Oakland,CA,
3300 SARAZEN AV,Oakland,CA,
MACARTHUR BLVD & MAYBELLE AV,Oakland,CA,
3100 64TH AV,Oakland,CA,
E 12TH ST & 26TH AV,Oakland,CA,
4400 CAMDEN ST,Oakland,CA,
1400 41ST AV,Oakland,CA,
2400 MAGNOLIA ST,Oakland,CA,
9TH ST & JEFFERSON ST,Oakland,CA,
2ND ST & JEFFERSON ST,Oakland,CA,
4600 EDGEWOOD AV,Oakland,CA,
3700 LYON AV,Oakland,CA,
7900 PHAETON DR,Oakland,CA,
5900 MONADNOCK WY,Oakland,CA,
E 12TH ST & 1ST AV,Oakland,CA,
9300 BIRCH ST,Oakland,CA,
2800 MONTANA ST,Oakland,CA,
6000 MAURITANIA AV,Oakland,CA,
94TH AV & WALNUT ST,Oakland,CA,
FRUITVALE AV & NICOL AV,Oakland,CA,
2100 COURTLAND AV,Oakland,CA,
2400 PALM VILLA CT,Oakland,CA,
1300 E 18TH ST,Oakland,CA,
ALAMEDA AV & FRUITVALE AV,Oakland,CA,
6100 TELEGRAPH AV,Oakland,CA,
6000 HERZOG ST,Oakland,CA,
7100 NORFOLK RD,Oakland,CA,
80TH AV & HOLLY ST,Oakland,CA,
8100 HOLLY ST,Oakland,CA,
900 MACARTHUR BLVD,Oakland,CA,
4300 MARTIN LUTHER KING JR WY,Oakland,CA,
2800 CHELSEA DR,Oakland,CA,
CHESTNUT ST & W GRAND AV,Oakland,CA,
94TH AV & CHERRY ST,Oakland,CA,
400 ADAMS ST,Oakland,CA,
WB I580 & WB SEMINARY OFFRP AV,Oakland,CA,
6100 MAURITANIA AV,Oakland,CA,
4000 OAKMORE RD,Oakland,CA,
2100 88TH AV,Oakland,CA,
10800 ESTEPA DR,Oakland,CA,
1400 E 38TH ST,Oakland,CA,
3600 BROWN AV,Oakland,CA,
4400 FLEMING AV,Oakland,CA,
DELMONT AV & HILLMONT DR,Oakland,CA,
3700 WEBSTER ST,Oakland,CA,
4600 BENEVIDES AV,Oakland,CA,
3700 MANILA AV,Oakland,CA,
5300 BRYANT AV,Oakland,CA,
53RD ST & SAN PABLO AV,Oakland,CA,
EB I580 & MACARTHUR BLVD,Oakland,CA,
13200 CLAIREPOINTE WY,Oakland,CA,
BAY PL & VERNON ST,Oakland,CA,
400 WICKSON AV,Oakland,CA,
1600 E 31ST ST,Oakland,CA,
8TH ST & MARTIN LUTHER KING JR WY,Oakland,CA,
2400 11TH AV,Oakland,CA,
4700 REINHARDT DR,Oakland,CA,
71ST AV & SPENCER ST,Oakland,CA,
2100 WOODBINE AV,Oakland,CA,
3800 FOREST HILL AV,Oakland,CA,
1900 101ST AV,Oakland,CA,
3900 CANON AV,Oakland,CA,
1900 CASTRO ST,Oakland,CA,
3300 SAN LEANDRO ST,Oakland,CA,
1400 69TH AV,Oakland,CA,
1300 58TH AV,Oakland,CA,
5200 GOLDEN GATE AV,Oakland,CA,
19TH ST & MARKET ST,Oakland,CA,
9900 PLYMOUTH ST,Oakland,CA,
1200 E 18TH ST,Oakland,CA,
90TH AV & CHERRY ST,Oakland,CA,
7800 OAKPORT ST,Oakland,CA,
E 12TH ST & 46TH AV,Oakland,CA,
2800 TRUMAN AV,Oakland,CA,
6900 MORKEN ST,Oakland,CA,
EVERETT AV & PARK BLVD,Oakland,CA,
1500 89TH AV,Oakland,CA,
ASHBROOK CT & FRUITVALE AV,Oakland,CA,
1300 14TH ST,Oakland,CA,
800 27TH AV,Oakland,CA,
1600 104TH AV,Oakland,CA,
5400 FAIRFAX AV,Oakland,CA,
1700 24TH ST,Oakland,CA,
3700 HOWE ST,Oakland,CA,
1900 108TH AV,Oakland,CA,
1100 7TH AV,Oakland,CA,
FOREST ST & LOCKSLEY AV,Oakland,CA,
3900 RANDOLPH AV,Oakland,CA,
SENECA ST & THERMAL ST,Oakland,CA,
4200 SANTA RITA ST,Oakland,CA,
BROADWAY & SB I880,Oakland,CA,
2300 WAVERLY ST,Oakland,CA,
5800 PRESLEY WY,Oakland,CA,
6900 PINEHAVEN RD,Oakland,CA,
2300 11TH AV,Oakland,CA,
1100 MAGNOLIA ST,Oakland,CA,
38TH ST & WEBSTER ST,Oakland,CA,
200 GHORMLEY AV,Oakland,CA,
8TH ST & WOOD ST,Oakland,CA,
5600 E 17TH ST,Oakland,CA,
77TH AV & RUDSDALE ST,Oakland,CA,
35TH AV & HARPER ST,Oakland,CA,
9900 EDES AV,Oakland,CA,
1800 FILBERT ST,Oakland,CA,
5900 AVENAL AV,Oakland,CA,
4000 E 16TH ST,Oakland,CA,
56TH ST & MARTIN LUTHER KING JR WY,Oakland,CA,
53RD ST & SHATTUCK AV,Oakland,CA,
3300 E 23RD ST,Oakland,CA,
10000 VOLTAIRE AV,Oakland,CA,
8400 D ST,Oakland,CA,
2200 E 32ND ST,Oakland,CA,
4200 GREGORY ST,Oakland,CA,
5200 LAWTON AV,Oakland,CA,
2200 IVY DR,Oakland,CA,
2600 MAGNOLIA ST,Oakland,CA,
78TH AV & GARFIELD AV,Oakland,CA,
0 CARY CT,Oakland,CA,
3400 HARPER ST,Oakland,CA,
800 E 20TH ST,Oakland,CA,
8800 B ST,Oakland,CA,
1400 MOUNTAIN BLVD,Oakland,CA,
1100 KIRKHAM WY,Oakland,CA,
FOOTHILL BLVD & ROSEDALE AV,Oakland,CA,
3200 MILLSVIEW AV,Oakland,CA,
800 PROSPECT AV,Oakland,CA,
2200 109TH AV,Oakland,CA,
2600 MAXWELL AV,Oakland,CA,
6100 S ROCKRIDGE BLVD,Oakland,CA,
13400 CAMPUS DR,Oakland,CA,
2800 MAGNOLIA ST,Oakland,CA,
11100 NOVELDA DR,Oakland,CA,
2000 E 27TH ST,Oakland,CA,
700 32ND ST,Oakland,CA,
2000 26TH AV,Oakland,CA,
4900 WEBSTER ST,Oakland,CA,
100 15TH ST,Oakland,CA,
6600 HEARTWOOD DR,Oakland,CA,
3700 ENOS AV,Oakland,CA,
3200 GUIDO ST,Oakland,CA,
67TH AV & FOOTHILL BLVD,Oakland,CA,
2000 DRAKE DR,Oakland,CA,
7700 HILLMONT DR,Oakland,CA,
5000 YGNACIO AV,Oakland,CA,
1500 34TH ST,Oakland,CA,
1200 7TH AV,Oakland,CA,
3400 MALCOLM AV,Oakland,CA,
DAVIS ST & HUMBOLDT AV,Oakland,CA,
2000 99TH AV,Oakland,CA,
64TH AV & AVENAL AV,Oakland,CA,
E 10TH ST & FRUITVALE AV,Oakland,CA,
8500 THERMAL ST,Oakland,CA,
3400 MARTIN LUTHER KING JR WY,Oakland,CA,
2800 HELEN ST,Oakland,CA,
E 28TH ST & PARK BLVD,Oakland,CA,
4500 WEST ST,Oakland,CA,
8000 CREST AV,Oakland,CA,
8000 COACH DR,Oakland,CA,
35TH AV & REDDING ST,Oakland,CA,
ALAMEDA AV & HIGH ST,Oakland,CA,
200 FOSTER AV,Oakland,CA,
3300 MAGNOLIA ST,Oakland,CA,
3800 LOMA VISTA AV,Oakland,CA,
4100 39TH AV,Oakland,CA,
0 LINDEN ST,Oakland,CA,
6800 MOKELUMNE AV,Oakland,CA,
9400 BURR ST,Oakland,CA,
17TH AV & E 21ST ST,Oakland,CA,
1300 E 34TH ST,Oakland,CA,
2800 RAWSON ST,Oakland,CA,
38TH ST & SHAFTER AV,Oakland,CA,
FRUITVALE AV & SB I880,Oakland,CA,
500 EL DORADO AV,Oakland,CA,
200 30TH ST,Oakland,CA,
10600 RUSSETT ST,Oakland,CA,
48TH AV & BANCROFT AV,Oakland,CA,
2700 MYRTLE ST,Oakland,CA,
2300 MIDDLE HARBOR RD,Oakland,CA,
7700 CREST AV,Oakland,CA,
2700 MONTICELLO AV,Oakland,CA,
2200 39TH AV,Oakland,CA,
2000 E 23RD ST,Oakland,CA,
5400 BRANN ST,Oakland,CA,
6800 LEONA CREEK DR,Oakland,CA,
E 12TH ST & 44TH AV,Oakland,CA,
104TH AV & BIRCH ST,Oakland,CA,
CAPISTRANO DR & EL PASEO DR,Oakland,CA,
2200 CURTIS ST,Oakland,CA,
700 21ST ST,Oakland,CA,
ELYSIAN FIELDS DR & GOLF LINKS RD,Oakland,CA,
3000 DELAWARE ST,Oakland,CA,
2400 14TH AV,Oakland,CA,
61ST AV & BANCROFT AV,Oakland,CA,
9200 E ST,Oakland,CA,
4TH ST & WASHINGTON ST,Oakland,CA,
6000 MORSE DR,Oakland,CA,
1400 SUNSHINE CT,Oakland,CA,
4700 VIRGINIA AV,Oakland,CA,
700 E 17TH ST,Oakland,CA,
2800 61ST AV,Oakland,CA,
800 MARTIN LUTHER KING JR WY,Oakland,CA,
FLORA ST & HAVENSCOURT BLVD,Oakland,CA,
68TH AV & OUTLOOK AV,Oakland,CA,
8300 DOWLING ST,Oakland,CA,
DAVIS ST & PRENTISS PL,Oakland,CA,
500 WELDON AV,Oakland,CA,
6100 BUENA VISTA AV,Oakland,CA,
6TH ST & WEBSTER ST,Oakland,CA,
41ST ST & MARTIN LUTHER KING JR WY,Oakland,CA,
1900 IRVING AV,Oakland,CA,
13TH AV & E 28TH ST,Oakland,CA,
0 MARLOW DR,Oakland,CA,
1000 FILBERT ST,Oakland,CA,
2100 11TH AV,Oakland,CA,
7900 EDGEWATER DR,Oakland,CA,
200 SANTA ROSA AV,Oakland,CA,
900 MOORPARK AV,Oakland,CA,
4900 FAIRFAX AV,Oakland,CA,
E 15TH ST & 20TH AV,Oakland,CA,
1000 E 19TH ST,Oakland,CA,
4700 DAISY ST,Oakland,CA,
43RD ST & LINDEN ST,Oakland,CA,
107TH AV & MACARTHUR BLVD,Oakland,CA,
900 52ND ST,Oakland,CA,
5200 HARBORD DR,Oakland,CA,
500 46TH ST,Oakland,CA,
14TH ST & MYRTLE ST,Oakland,CA,
4700 STACEY ST,Oakland,CA,
3300 35TH AV,Oakland,CA,
2200 POPLAR ST,Oakland,CA,
8500 OLIVE ST,Oakland,CA,
E 17TH ST & 34TH AV,Oakland,CA,
8000 BROADWAY TER,Oakland,CA,
28TH ST & MANDELA PKWY,Oakland,CA,
8900 SAN LEANDRO ST,Oakland,CA,
3400 38TH AV,Oakland,CA,
10900 APRICOT ST,Oakland,CA,
800 E 12TH ST,Oakland,CA,
3400 BRUNELL DR,Oakland,CA,
1000 E 22ND ST,Oakland,CA,
5300 HILLEN DR,Oakland,CA,
6300 BROOKSIDE AV,Oakland,CA,
ARDLEY AV & MACARTHUR BLVD,Oakland,CA,
8200 BALDWIN ST,Oakland,CA,
2700 68TH AV,Oakland,CA,
2000 MAGELLAN DR,Oakland,CA,
800 MOORPARK AV,Oakland,CA,
4600 TULIP AV,Oakland,CA,
89TH AV & MACARTHUR BLVD,Oakland,CA,
1100 MANDELA PKWY,Oakland,CA,
9200 PLYMOUTH ST,Oakland,CA,
12TH ST & MADISON ST,Oakland,CA,
3000 MONTEREY BLVD,Oakland,CA,
90TH AV & SUNNYSIDE ST,Oakland,CA,
3300 MAPLE AV,Oakland,CA,
1900 HIGH ST,Oakland,CA,
4000 LINDEN ST,Oakland,CA,
9000 SENECA ST,Oakland,CA,
27TH AV & E 9TH ST,Oakland,CA,
2400 IVY DR,Oakland,CA,
2400 109TH AV,Oakland,CA,
2400 108TH AV,Oakland,CA,
2200 MIDDLE HARBOR RD,Oakland,CA,
24TH ST & NORTHGATE AV,Oakland,CA,
9000 B ST,Oakland,CA,
2900 WEBSTER ST,Oakland,CA,
15TH ST & WEST ST,Oakland,CA,
5200 E 10TH ST,Oakland,CA,
1000 AMITO AV,Oakland,CA,
5500 DOVER ST,Oakland,CA,
MOORPARK AV & PIPPIN ST,Oakland,CA,
5800 RACINE ST,Oakland,CA,
600 11TH ST,Oakland,CA,
1700 CLEMENS RD,Oakland,CA,
400 BURLWOOD AV,Oakland,CA,
E 12TH ST & DERBY AV,Oakland,CA,
77TH AV & HILLSIDE ST,Oakland,CA,
9600 BANCROFT AV,Oakland,CA,
2500 73RD AV,Oakland,CA,
3000 CARLSEN ST,Oakland,CA,
34TH AV & E 9TH ST,Oakland,CA,
400 HANOVER AV,Oakland,CA,
3RD ST & HARRISON ST,Oakland,CA,
12TH ST & LAKE MERRITT BLVD,Oakland,CA,
6700 EVERGREEN AV,Oakland,CA,
MCKINLEY AV & PARK BLVD,Oakland,CA,
17TH AV & FOOTHILL BLVD,Oakland,CA,
1300 34TH ST,Oakland,CA,
4000 COOLIDGE AV,Oakland,CA,
600 KENNEDY ST,Oakland,CA,
7000 HALLIDAY AV,Oakland,CA,
5400 ROBERTS AV,Oakland,CA,
E 15TH ST & 5TH AV,Oakland,CA,
1600 13TH AV,Oakland,CA,
5700 BANCROFT AV,Oakland,CA,
11TH ST & ALICE ST,Oakland,CA,
3200 DEERING ST,Oakland,CA,
6600 SIMSON ST,Oakland,CA,
2400 RAMPART ST,Oakland,CA,
ADELINE ST & MARKET ST,Oakland,CA,
500 11TH ST,Oakland,CA,
10400 DANTE AV,Oakland,CA,
1500 12TH AV,Oakland,CA,
8300 BIRCH ST,Oakland,CA,
300 JEFFERSON ST,Oakland,CA,
1100 EXCELSIOR AV,Oakland,CA,
2700 ALICIA ST,Oakland,CA,
500 ZORAH ST,Oakland,CA,
1800 MANDELA PKWY,Oakland,CA,
HILLMONT DR & SEMINARY AV,Oakland,CA,
35TH AV & PAXTON AV,Oakland,CA,
100 19TH ST,Oakland,CA,
1200 16TH AV,Oakland,CA,
1300 MAGNOLIA ST,Oakland,CA,
4400 HYACINTH AV,Oakland,CA,
103RD AV & BANCROFT AV,Oakland,CA,
3400 ETTIE ST,Oakland,CA,
38TH AV & ANGELO AV,Oakland,CA,
500 ALMANZA DR,Oakland,CA,
5800 ADELINE ST,Oakland,CA,
600 43RD ST,Oakland,CA,
13TH AV & E 18TH ST,Oakland,CA,
300 61ST ST,Oakland,CA,
1600 4TH AV,Oakland,CA,
1600 WILLOW ST,Oakland,CA,
600 65TH ST,Oakland,CA,
3900 PATTERSON AV,Oakland,CA,
7800 SANFORD ST,Oakland,CA,
34TH AV & GALINDO ST,Oakland,CA,
9200 PEACH ST,Oakland,CA,
82ND AV & NEY AV,Oakland,CA,
400 OAK ST,Oakland,CA,
84TH AV & MACARTHUR BLVD,Oakland,CA,
EDGEWATER DR & OAKPORT ST,Oakland,CA,
3600 RHODA AV,Oakland,CA,
66TH AV & LION WY,Oakland,CA,
1500 26TH AV,Oakland,CA,
500 CAPELL ST,Oakland,CA,
34TH ST & HELEN ST,Oakland,CA,
3700 REDDING ST,Oakland,CA,
1800 E 20TH ST,Oakland,CA,
900 E 11TH ST,Oakland,CA,
3100 WARD LN,Oakland,CA,
2000 18TH AV,Oakland,CA,
ALLENDALE AV & HIGH ST,Oakland,CA,
69TH AV & LUCILLE ST,Oakland,CA,
62ND ST & MARKET ST,Oakland,CA,
2000 PLEASANT VALLEY AV,Oakland,CA,
8200 A ST,Oakland,CA,
5000 DUBLIN AV,Oakland,CA,
4600 E 12TH ST,Oakland,CA,
9500 EMPIRE RD,Oakland,CA,
3100 MAXWELL AV,Oakland,CA,
10400 BANCROFT AV,Oakland,CA,
7000 SHIRLEY DR,Oakland,CA,
300 ATHOL AV,Oakland,CA,
2700 FRAZIER AV,Oakland,CA,
E 24TH ST & 25TH AV,Oakland,CA,
CARRINGTON ST & HIGH ST,Oakland,CA,
8700 DOWLING ST,Oakland,CA,
83RD AV & MACARTHUR BLVD,Oakland,CA,
60TH ST & MARTIN LUTHER KING JR WY,Oakland,CA,
600 COLORADOS DR,Oakland,CA,
E 20TH ST & 9TH AV,Oakland,CA,
800 35TH AV,Oakland,CA,
500 66TH AV,Oakland,CA,
700 59TH ST,Oakland,CA,
1000 E 8TH ST,Oakland,CA,
5700 SHATTUCK AV,Oakland,CA,
DISTRICT 5,Oakland,CA,
12TH ST & CHESTER ST,Oakland,CA,
1000 WARFIELD AV,Oakland,CA,
1200 MILLER AV,Oakland,CA,
700 FOOTHILL BLVD,Oakland,CA,
AVENAL AV & FOOTHILL BLVD,Oakland,CA,
800 KENNEDY ST,Oakland,CA,
900 E 22ND ST,Oakland,CA,
8700 B ST,Oakland,CA,
2700 99TH AV,Oakland,CA,
5000 DAISY ST,Oakland,CA,
3800 LYMAN RD,Oakland,CA,
2000 E 19TH ST,Oakland,CA,
0 HAMILTON PL,Oakland,CA,
7900 SANFORD ST,Oakland,CA,
6300 FAIRLANE DR,Oakland,CA,
3400 HOLLIS ST,Oakland,CA,
5800 MERRIEWOOD DR,Oakland,CA,
1400 42ND AV,Oakland,CA,
3500 OAK KNOLL BLVD,Oakland,CA,
6100 E 17TH ST,Oakland,CA,
6000 ASCOT DR,Oakland,CA,
5900 CHELTON DR,Oakland,CA,
2300 12TH AV,Oakland,CA,
6300 BROADWAY TER,Oakland,CA,
1200 HARRISON ST,Oakland,CA,
1000 BROOKWOOD RD,Oakland,CA,
3800 NEVIL ST,Oakland,CA,
300 CHESTER ST,Oakland,CA,
4200 MONTGOMERY ST,Oakland,CA,
600 4TH ST,Oakland,CA,
E 23RD ST & MITCHELL ST,Oakland,CA,
2600 IVY DR,Oakland,CA,
13000 BROOKPARK RD,Oakland,CA,
900 VILLAGE CIR,Oakland,CA,
3700 CARRINGTON ST,Oakland,CA,
7200 SKYLINE BLVD,Oakland,CA,
10TH AV & E 24TH ST,Oakland,CA,
4100 35TH AV,Oakland,CA,
2200 MAGNOLIA ST,Oakland,CA,
4300 EDGEWOOD AV,Oakland,CA,
64TH AV & BRANN ST,Oakland,CA,
7300 DEERWOOD AV,Oakland,CA,
700 HARRISON ST,Oakland,CA,
59TH ST & RACINE ST,Oakland,CA,
3500 38TH AV,Oakland,CA,
83RD AV & E ST,Oakland,CA,
3000 E 7TH ST,Oakland,CA,
10600 INTERNATIONAL BLVD,Oakland,CA,
9400 MOUNTAIN BLVD,Oakland,CA,
7400 RUDSDALE,Oakland,CA,
500 STONEFORD AV,Oakland,CA,
73RD AV & SPENCER ST,Oakland,CA,
400 98TH AV,Oakland,CA,
4100 LAGUNA AV,Oakland,CA,
2300 77TH AV,Oakland,CA,
600 ALVARADO RD,Oakland,CA,
10TH ST & ALICE ST,Oakland,CA,
4300 MONTGOMERY ST,Oakland,CA,
3000 MONTICELLO AV,Oakland,CA,
7000 WELD ST,Oakland,CA,
4700 GERANIUM PL,Oakland,CA,
3200 KANSAS ST,Oakland,CA,
52ND ST & DOVER ST,Oakland,CA,
3300 WEST ST,Oakland,CA,
2600 10TH AV,Oakland,CA,
3500 LAGUNA AV,Oakland,CA,
GRAY ST & HARRINGTON AV,Oakland,CA,
1300 CENTER ST,Oakland,CA,
CHAMPION ST & MONTANA ST,Oakland,CA,
200 WASHINGTON ST,Oakland,CA,
8800 BIRCH ST,Oakland,CA,
3200 WYMAN ST,Oakland,CA,
1600 VISTA ST,Oakland,CA,
10400 ROYAL OAK RD,Oakland,CA,
500 WATER ST,Oakland,CA,
700 WARFIELD AV,Oakland,CA,
5700 TRASK ST,Oakland,CA,
8200 OUTLOOK AV,Oakland,CA,
4000 FAIRWAY AV,Oakland,CA,
600 FAIRVIEW ST,Oakland,CA,
HEGENBERGER RD & LEET DR,Oakland,CA,
E 15TH ST & 2ND AV,Oakland,CA,
2700 BELLAIRE PL,Oakland,CA,
EMBARCADERO WEST & WASHINGTON ST,Oakland,CA,
100 VICENTE RD,Oakland,CA,
86TH AV & G ST,Oakland,CA,
4300 PARK BLVD,Oakland,CA,
2500 MASON ST,Oakland,CA,
3800 HUNTINGTON ST,Oakland,CA,
6600 SUNNYMERE AV,Oakland,CA,
6100 SAN PABLO AV,Oakland,CA,
3800 WISCONSIN ST,Oakland,CA,
19TH ST & JACKSON ST,Oakland,CA,
5900 MANCHESTER DR,Oakland,CA,
600 ALMANZA DR,Oakland,CA,
33RD ST & WEST ST,Oakland,CA,
1500 WELLINGTON ST,Oakland,CA,
73RD AV & RUDSDALE,Oakland,CA,
600 MONTCLAIR AV,Oakland,CA,
83RD AV & D ST,Oakland,CA,
88TH AV & D ST,Oakland,CA,
1500 55TH AV,Oakland,CA,
2000 PARK BLVD,Oakland,CA,
1500 16TH AV,Oakland,CA,
1400 MYRTLE ST,Oakland,CA,
MONTE VISTA AV & OAKLAND AV,Oakland,CA,
1100 10TH AV,Oakland,CA,
1100 101ST AV,Oakland,CA,
28TH ST & MARKET ST,Oakland,CA,
7500 RUDSDALE ST,Oakland,CA,
12TH AV & E 22ND ST,Oakland,CA,
4300 MACARTHUR BLVD,Oakland,CA,
1100 MARKET ST,Oakland,CA,
1100 16TH ST,Oakland,CA,
3300 LAGUNA WY,Oakland,CA,
3600 KINGSLEY ST,Oakland,CA,
5600 DENTON PL,Oakland,CA,
0 MAIDEN LN,Oakland,CA,
6100 RACINE ST,Oakland,CA,
90TH AV & DOWLING ST,Oakland,CA,
3100 HYDE ST,Oakland,CA,
7800 EDGEWATER DR,Oakland,CA,
2600 94TH AV,Oakland,CA,
85TH AV & ENTERPRISE WY,Oakland,CA,
BRIDGE AV & FOOTHILL BLVD,Oakland,CA,
26TH ST & CHESTNUT ST,Oakland,CA,
OAKLAND AV & PEARL ST,Oakland,CA,
2800 REGATTA ST,Oakland,CA,
76TH AV & HILLSIDE ST,Oakland,CA,
76TH AV & HAMILTON ST,Oakland,CA,
2600 CAMINO LENADA ST,Oakland,CA,
8200 GOLF LINKS RD,Oakland,CA,
8000 BANCROFT AV,Oakland,CA,
4700 EL CENTRO AV,Oakland,CA,
3200 HARRISON ST,Oakland,CA,
23RD AV & E 23RD ST,Oakland,CA,
MOUNTAIN BLVD & PARK BLVD,Oakland,CA,
2000 E 29TH ST,Oakland,CA,
101ST AV & PLYMOUTH ST,Oakland,CA,
4000 LAGUNA AV,Oakland,CA,
5100 PINECREST DR,Oakland,CA,
1700 MYRTLE ST,Oakland,CA,
2500 84TH AV,Oakland,CA,
2000 34TH AV,Oakland,CA,
4100 DICKSON CT,Oakland,CA,
1400 CHESTNUT ST,Oakland,CA,
23RD ST & HARRISON ST,Oakland,CA,
2800 E 23RD ST,Oakland,CA,
E 16TH ST & 24TH AV,Oakland,CA,
7000 PINEHAVEN RD,Oakland,CA,
3700 MAPLE AV,Oakland,CA,
2700 BARTLETT ST,Oakland,CA,
0 4TH ST,Oakland,CA,
0 ROSS CIR,Oakland,CA,
1600 12TH AV,Oakland,CA,
5400 PROCTOR AV,Oakland,CA,
2700 ARGYLE ST,Oakland,CA,
2200 21ST AV,Oakland,CA,
9700 BIRCH ST,Oakland,CA,
700 18TH ST,Oakland,CA,
8900 BURR ST,Oakland,CA,
2400 CASA CT,Oakland,CA,
COOLIDGE AV & PRENTISS ST,Oakland,CA,
1300 29TH AV,Oakland,CA,
7300 KRAUSE AV,Oakland,CA,
107TH AV & APRICOT ST,Oakland,CA,
5800 AVENAL AV,Oakland,CA,
2900 CHAPMAN ST,Oakland,CA,
62ND AV & BRANN ST,Oakland,CA,
6100 MEDAU PL,Oakland,CA,
15TH ST & MADISON ST,Oakland,CA,
9000 PLYMOUTH ST,Oakland,CA,
6000 MONADNOCK WY,Oakland,CA,
500 E 20TH ST,Oakland,CA,
57TH ST & VICENTE ST,Oakland,CA,
1500 5TH AV,Oakland,CA,
7500 HOLLY ST,Oakland,CA,
5800 MACARTHUR BLVD,Oakland,CA,
6100 SEMINARY AV,Oakland,CA,
3300 ELM ST,Oakland,CA,
600 36TH ST,Oakland,CA,
9200 F ST,Oakland,CA,
83RD AV & DOWLING ST,Oakland,CA,
MARKET ST & MILTON ST,Oakland,CA,
1800 WOODHAVEN WY,Oakland,CA,
1000 PINE ST,Oakland,CA,
HAYES ST & SEMINARY AV,Oakland,CA,
900 JACKSON ST,Oakland,CA,
47TH ST & MARTIN LUTHER KING JR WY,Oakland,CA,
6700 PINEHAVEN RD,Oakland,CA,
5700 BROOKDALE AV,Oakland,CA,
100TH AV & E ST,Oakland,CA,
4000 ALTAMONT AV,Oakland,CA,
4000 WATERHOUSE RD,Oakland,CA,
22ND AV & E 28TH ST,Oakland,CA,
2500 CORDOVA ST,Oakland,CA,
400 PERSHING DR,Oakland,CA,
E 12TH ST & 36TH AV,Oakland,CA,
4900 MOUNTAIN BLVD,Oakland,CA,
1600 E 15TH ST,Oakland,CA,
3200 FARNAM ST,Oakland,CA,
AUSEON AV & BANCROFT AV,Oakland,CA,
9700 C ST,Oakland,CA,
2100 105TH AV,Oakland,CA,
6800 OAKWOOD DR,Oakland,CA,
2600 LOGAN ST,Oakland,CA,
1000 SILER PL,Oakland,CA,
700 TRESTLE GLEN RD,Oakland,CA,
3800 ALLENDALE AV,Oakland,CA,
TELEGRAPH AV & THOMAS L. BERKLEY WY,Oakland,CA,
1600 23RD AV,Oakland,CA,
6100 CAMDEN ST,Oakland,CA,
3100 COURTLAND AV,Oakland,CA,
BROADWAY & KEITH AV,Oakland,CA,
1000 SUNNYHILLS RD,Oakland,CA,
SHEPHERD CANYON RD & SNAKE RD,Oakland,CA,
2800 ABBEY ST,Oakland,CA,
WB I580 & PARK BLVD,Oakland,CA,
3600 VIRDEN AV,Oakland,CA,
16TH ST & MYRTLE ST,Oakland,CA,
8600 HOLLY ST,Oakland,CA,
2100 BAXTER ST,Oakland,CA,
2300 8TH AV,Oakland,CA,
1500 CASTRO ST,Oakland,CA,
900 E 21ST ST,Oakland,CA,
0 RANDWICK AV,Oakland,CA,
1700 BRUSH ST,Oakland,CA,
39TH ST & WEST ST,Oakland,CA,
2400 SIESTA LN,Oakland,CA,
4100 AGUA VISTA ST,Oakland,CA,
4800 DAVENPORT AV,Oakland,CA,
1700 WOOD ST,Oakland,CA,
3800 SAN LEANDRO ST,Oakland,CA,
700 MADISON ST,Oakland,CA,
4800 FAIR AV,Oakland,CA,
1200 4TH AV,Oakland,CA,
9200 D ST,Oakland,CA,
7800 SUNKIST DR,Oakland,CA,
3400 COOLIDGE AV,Oakland,CA,
5800 SNAKE RD,Oakland,CA,
9900 CHERRY ST,Oakland,CA,
3500 E 12TH ST,Oakland,CA,
43RD ST & WEST ST,Oakland,CA,
5200 CORONADO AV,Oakland,CA,
1100 64TH ST,Oakland,CA,
900 SUNNYHILLS RD,Oakland,CA,
8000 MCCORMICK AV,Oakland,CA,
19TH AV & E 22ND ST,Oakland,CA,
1200 33RD AV,Oakland,CA,
1900 51ST AV,Oakland,CA,
GRAND AV & SANTA CLARA AV,Oakland,CA,
3800 ENOS AV,Oakland,CA,
900 KIRKHAM CT,Oakland,CA,
1700 5TH AV,Oakland,CA,
3100 SUTER ST,Oakland,CA,
3500 JOAQUIN MILLER RD,Oakland,CA,
2ND ST & ALICE ST,Oakland,CA,
2900 EASTMAN AV,Oakland,CA,
10200 PIPPIN ST,Oakland,CA,
800 WOODSON DR,Oakland,CA,
4400 WEST ST,Oakland,CA,
2500 99TH AV,Oakland,CA,
3500 ARDLEY AV,Oakland,CA,
300 ASHTON AV,Oakland,CA,
BROOKLYN AV & MERRITT AV,Oakland,CA,
3600 PARK BLVD,Oakland,CA,
AUSEON AV & HOLLY ST,Oakland,CA,
86TH AV & D ST,Oakland,CA,
13TH ST & OAK ST,Oakland,CA,
OAKDALE AV & SEMINARY AV,Oakland,CA,
FLORIDA ST & MAPLE AV,Oakland,CA,
1100 E 22ND ST,Oakland,CA,
BROOKDALE AV & HUMBOLDT AV,Oakland,CA,
98TH AV & STANLEY AV,Oakland,CA,
E 33RD ST & ELLIOT ST,Oakland,CA,
97TH AV & A ST,Oakland,CA,
1100 WELLINGTON ST,Oakland,CA,
3600 MONTEREY BLVD,Oakland,CA,
2600 13TH AV,Oakland,CA,
600 E 23RD ST,Oakland,CA,
5600 HILTON ST,Oakland,CA,
2800 HARRISON ST,Oakland,CA,
3600 SAN LEANDRO ST,Oakland,CA,
EMBARCADERO WEST & MARKET ST,Oakland,CA,
4900 STONERIDGE CT,Oakland,CA,
0 CAMELFORD PL,Oakland,CA,
BROCKHURST ST & MARTIN LUTHER KING JR WY,Oakland,CA,
3100 WISCONSIN ST,Oakland,CA,
19TH ST & CASTRO ST,Oakland,CA,
3800 PENNIMAN AV,Oakland,CA,
700 53RD ST,Oakland,CA,
1600 2ND AV,Oakland,CA,
9200 B ST,Oakland,CA,
0 OAK HILL CIR,Oakland,CA,
100 ISLETON AV,Oakland,CA,
FAIRMOUNT AV & W MACARTHUR BLVD,Oakland,CA,
FOOTHILL BLVD & LAKESHORE AV,Oakland,CA,
7400 KRAUSE AV,Oakland,CA,
8100 SURREY LN,Oakland,CA,
1200 E 33RD ST,Oakland,CA,
6600 SARONI DR,Oakland,CA,
2300 HAVENSCOURT BLVD,Oakland,CA,
1000 ARDMORE AV,Oakland,CA,
GRAND AV & EB I580,Oakland,CA,
8900 SENECA ST,Oakland,CA,
1300 BATES RD,Oakland,CA,
1600 E 38TH ST,Oakland,CA,
5900 WHITNEY ST,Oakland,CA,
1000 103RD AV,Oakland,CA,
3100 MAGNOLIA ST,Oakland,CA,
4000 35TH AV,Oakland,CA,
300 CENTER ST,Oakland,CA,
CURTIS ST & W GRAND AV,Oakland,CA,
HIGH ST & SAN CARLOS AV,Oakland,CA,
5600 ADELINE ST,Oakland,CA,
5900 HARBORD DR,Oakland,CA,
2900 E 23RD ST,Oakland,CA,
6TH ST & MADISON ST,Oakland,CA,
2500 DURANT AV,Oakland,CA,
51ST AV & FOOTHILL BLVD,Oakland,CA,
22ND ST & MARKET ST,Oakland,CA,
1900 CHESTNUT ST,Oakland,CA,
6200 FOOTHILL BLVD,Oakland,CA,
EDWARDS AV & MOUNTAIN BLVD,Oakland,CA,
700 BROCKHURST ST,Oakland,CA,
10500 PONTIAC ST,Oakland,CA,
102ND AV & E ST,Oakland,CA,
3400 PIEDMONT AV,Oakland,CA,
1800 99TH AV,Oakland,CA,
3400 E 18TH ST,Oakland,CA,
39TH AV & VICTOR AV,Oakland,CA,
2400 96TH AV,Oakland,CA,
RAWSON ST & TRASK ST,Oakland,CA,
2500 8TH AV,Oakland,CA,
88TH AV & BIRCH ST,Oakland,CA,
6100 DOVER ST,Oakland,CA,
ELWOOD AV & GRAND AV,Oakland,CA,
4500 SAN LEANDRO ST,Oakland,CA,
2400 CHURCH ST,Oakland,CA,
5200 SHAFTER AV,Oakland,CA,
7700 STERLING DR,Oakland,CA,
2300 MONTICELLO AV,Oakland,CA,
2600 E 9TH ST,Oakland,CA,
4500 TOMPKINS AV,Oakland,CA,
EB I580 & KELLER AV,Oakland,CA,
6TH ST & FRANKLIN ST,Oakland,CA,
9700 LAWLOR ST,Oakland,CA,
14TH AV & E 18TH ST,Oakland,CA,
5400 BROADWAY TER,Oakland,CA,
1500 FILBERT ST,Oakland,CA,
106TH AV & E ST,Oakland,CA,
7TH ST & JACKSON ST,Oakland,CA,
5800 ESTATES DR,Oakland,CA,
4500 HEAFEY RD,Oakland,CA,
9700 HILLGRADE CT,Oakland,CA,
4800 COLISEUM WY,Oakland,CA,
83RD AV & HOLLY ST,Oakland,CA,
LOWELL & STANFORD AV,Oakland,CA,
1200 14TH AV,Oakland,CA,
MANDANA BLVD & WARFIELD AV,Oakland,CA,
2200 108TH AV,Oakland,CA,
7600 GREENLY DR,Oakland,CA,
3200 61ST AV,Oakland,CA,
7100 BUCKINGHAM BLVD,Oakland,CA,
5700 HARBORD DR,Oakland,CA,
3000 56TH AV,Oakland,CA,
2600 8TH AV,Oakland,CA,
3500 LAUREL AV,Oakland,CA,
1000 WALKER AV,Oakland,CA,
9600 OLIVE ST,Oakland,CA,
10900 ESTEPA DR,Oakland,CA,
5200 FAIRFAX AV,Oakland,CA,
10500 GRAFFIAN ST,Oakland,CA,
9500 MOUNTAIN BLVD,Oakland,CA,
SHEPHERD CANYON RD & SKYLINE BLVD,Oakland,CA,
30TH ST & MAGNOLIA ST,Oakland,CA,
7800 ASH ST,Oakland,CA,
10500 EAST CT,Oakland,CA,
300 CLIFTON ST,Oakland,CA,
100 CLAY ST,Oakland,CA,
1900 GLEASON WY,Oakland,CA,
600 SPRUCE ST,Oakland,CA,
100TH AV & C ST,Oakland,CA,
0 MISSION HILLS,Oakland,CA,
42ND ST & BROADWAY,Oakland,CA,
1600 MOUNTAIN BLVD,Oakland,CA,
3900 ATLAS AV,Oakland,CA,
8100 OLIVE ST,Oakland,CA,
2500 HARRINGTON AV,Oakland,CA,
7600 KRAUSE AV,Oakland,CA,
8500 D ST,Oakland,CA,
6300 COLBY ST,Oakland,CA,
2100 E 17TH ST,Oakland,CA,
1800 MAGELLAN DR,Oakland,CA,
E 23RD ST & INYO AV,Oakland,CA,
3400 LOMA VISTA AV,Oakland,CA,
55TH AV & FAIRFAX AV,Oakland,CA,
6000 COLBY ST,Oakland,CA,
3700 BALFOUR AV,Oakland,CA,
7400 HILLMONT DR,Oakland,CA,
41ST ST & LINDEN ST,Oakland,CA,
3200 E 23RD ST,Oakland,CA,
200 MONTE VISTA AV,Oakland,CA,
75TH AV & HAWLEY ST,Oakland,CA,
2700 19TH AV,Oakland,CA,
1300 37TH AV,Oakland,CA,
400 HARDY ST,Oakland,CA,
3300 BRUNELL DR,Oakland,CA,
1600 54TH AV,Oakland,CA,
E 15TH ST & 7TH AV,Oakland,CA,
9TH ST & WILLOW ST,Oakland,CA,
1500 E 19TH ST,Oakland,CA,
5400 HILLEN DR,Oakland,CA,
20TH ST & THOMAS L. BERKLEY WY,Oakland,CA,
E 15TH ST & 18TH AV,Oakland,CA,
EB 51ST OFFRP ST & EB S24,Oakland,CA,
6200 GIRVIN DR,Oakland,CA,
4800 HARBORD DR,Oakland,CA,
2500 MONTANA ST,Oakland,CA,
1600 E 33RD ST,Oakland,CA,
6800 BROADWAY TER,Oakland,CA,
3500 MANGELS AV,Oakland,CA,
10TH ST & FALLON ST,Oakland,CA,
5100 LEONA ST,Oakland,CA,
43RD ST & MARTIN LUTHER KING JR WY,Oakland,CA,
7700 HOLLY ST,Oakland,CA,
5800 BALMORAL DR,Oakland,CA,
3300 WOOD ST,Oakland,CA,
9300 LAWLOR ST,Oakland,CA,
1000 CLAY ST,Oakland,CA,
E 15TH ST & 4TH AV,Oakland,CA,
9400 BIRCH ST,Oakland,CA,
5200 FLEMING AV,Oakland,CA,
6900 CHAMBERS DR,Oakland,CA,
7600 VALENTINE ST,Oakland,CA,
1800 109TH AV,Oakland,CA,
1600 W GRAND AV,Oakland,CA,
FOOTHILL BLVD & RUTHERFORD ST,Oakland,CA,
1700 E 12TH ST,Oakland,CA,
5600 BROADWAY,Oakland,CA,
10900 STONEMASON CT,Oakland,CA,
EDGEWATER DR & PENDLETON WY,Oakland,CA,
2200 103RD AV,Oakland,CA,
10900 RUSSETT ST,Oakland,CA,
5900 RACINE ST,Oakland,CA,
E 21ST ST & 27TH AV,Oakland,CA,
ALVINGROOM CT & MACARTHUR BLVD,Oakland,CA,
E 16TH ST & 23RD AV,Oakland,CA,
9500 EDES AV,Oakland,CA,
HIGH ST & NB I880,Oakland,CA,
11TH ST & OAK ST,Oakland,CA,
COURTLAND AV & SAN CARLOS AV,Oakland,CA,
OVERDALE AV & SEMINARY AV,Oakland,CA,
7500 GREENLY DR,Oakland,CA,
13TH AV & E 19TH ST,Oakland,CA,
4100 TOMPKINS AV,Oakland,CA,
1400 E 15TH ST,Oakland,CA,
E 21ST ST & 8TH AV,Oakland,CA,
1400 FILBERT ST,Oakland,CA,
3500 KANSAS ST,Oakland,CA,
700 GRIZZLY TERRACE DR,Oakland,CA,
3000 HUMBOLDT AV,Oakland,CA,
BROADWAY & EB S24 CONN,Oakland,CA,
4000 SEQUOYAH RD,Oakland,CA,
6100 MACARTHUR BLVD,Oakland,CA,
54TH ST & MARKET ST,Oakland,CA,
11TH AV & E 24TH ST,Oakland,CA,
92ND AV & PEACH ST,Oakland,CA,
6500 BUENA VENTURA AV,Oakland,CA,
1000 UNDERHILLS RD,Oakland,CA,
34TH ST & BROADWAY,Oakland,CA,
E 7TH ST & FRUITVALE AV,Oakland,CA,
1500 40TH ST,Oakland,CA,
6100 ESTATES DR,Oakland,CA,
4300 LA CRESTA AV,Oakland,CA,
1300 FOOTHILL BLVD,Oakland,CA,
1300 22ND AV,Oakland,CA,
7800 HANSOM DR,Oakland,CA,
3900 ARDLEY AV,Oakland,CA,
7000 BROADWAY TER,Oakland,CA,
8500 SAN LEANDRO ST,Oakland,CA,
11TH AV & E 12TH ST,Oakland,CA,
2100 TRAFALGAR PL,Oakland,CA,
3900 TURNLEY AV,Oakland,CA,
6300 LONGCROFT DR,Oakland,CA,
2700 55TH AV,Oakland,CA,
2500 98TH AV,Oakland,CA,
2700 60TH AV,Oakland,CA,
2700 E 9TH ST,Oakland,CA,
4000 AGUA VISTA ST,Oakland,CA,
E 15TH ST & LAKESHORE AV,Oakland,CA,
8400 BANCROFT AV,Oakland,CA,
89TH AV & G ST,Oakland,CA,
3900 MARKET ST,Oakland,CA,
E 12TH ST & 39TH AV,Oakland,CA,
7100 MARLBOROUGH TER,Oakland,CA,
8300 PARDEE DR,Oakland,CA,
3400 OAK KNOLL BLVD,Oakland,CA,
8400 HOLLY ST,Oakland,CA,
1800 E 23RD ST,Oakland,CA,
35TH AV & LYON AV,Oakland,CA,
800 ALMA PL,Oakland,CA,
9900 A ST,Oakland,CA,
1200 54TH AV,Oakland,CA,
34TH AV & DAVIS ST,Oakland,CA,
2400 19TH AV,Oakland,CA,
32ND ST & PERALTA ST,Oakland,CA,
100 MAIDEN LN,Oakland,CA,
2900 COURTLAND AV,Oakland,CA,
500 SPRUCE ST,Oakland,CA,
7800 ALDER ST,Oakland,CA,
13TH AV & E 33RD ST,Oakland,CA,
4300 TOWNSEND AV,Oakland,CA,
BROADWAY & OCEAN VIEW DR,Oakland,CA,
4100 GREENWOOD AV,Oakland,CA,
33RD AV & FARNAM ST,Oakland,CA,
FRUITVALE AV & LYMAN RD,Oakland,CA,
28TH ST & CHESTNUT ST,Oakland,CA,
4500 PARK BLVD,Oakland,CA,
6000 BUENA VISTA AV,Oakland,CA,
1200 18TH AV,Oakland,CA,
4000 EVERETT AV,Oakland,CA,
3300 MADERA AV,Oakland,CA,
35TH AV & MANGELS AV,Oakland,CA,
5700 COLTON BLVD,Oakland,CA,
3RD ST & CASTRO ST,Oakland,CA,
2400 WEST 12TH ST,Oakland,CA,
300 ELWOOD AV,Oakland,CA,
COLLEGE AV & KALES AV,Oakland,CA,
6700 AVENAL AV,Oakland,CA,
1100 E 19TH ST,Oakland,CA,
100 DUNCAN WY,Oakland,CA,
EB I580 & EB SEMINARY OFFRP AV,Oakland,CA,
3600 DELMONT AV,Oakland,CA,
400 BOULEVARD WY,Oakland,CA,
3000 PARKER AV,Oakland,CA,
1600 41ST AV,Oakland,CA,
E 17TH ST & 55TH AV,Oakland,CA,
400 WELDON AV,Oakland,CA,
9400 D ST,Oakland,CA,
1900 OAK CREST DR,Oakland,CA,
1200 UNION ST,Oakland,CA,
1900 33RD AV,Oakland,CA,
1200 70TH AV,Oakland,CA,
2900 FLORIDA ST,Oakland,CA,
1900 MAGELLAN DR,Oakland,CA,
26TH ST & MANDELA PKWY,Oakland,CA,
75TH AV & RUDSDALE ST,Oakland,CA,
23RD AV & E 24TH ST,Oakland,CA,
2400 9TH AV,Oakland,CA,
85TH AV & E ST,Oakland,CA,
5700 BROADWAY,Oakland,CA,
4600 GRASS VALLEY RD,Oakland,CA,
ATHENS AV & MARKET ST,Oakland,CA,
7500 KRAUSE AV,Oakland,CA,
400 GRAMERCY PL,Oakland,CA,
105TH AV & PEARMAIN ST,Oakland,CA,
10TH AV & E 19TH ST,Oakland,CA,
4500 WEBSTER ST,Oakland,CA,
2300 LEIMERT BLVD,Oakland,CA,
2500 11TH AV,Oakland,CA,
54TH ST & ADELINE ST,Oakland,CA,
3700 VICTOR AV,Oakland,CA,
34TH ST & LOUISE ST,Oakland,CA,
2500 WEST ST,Oakland,CA,
9600 BURR ST,Oakland,CA,
66TH AV & LEONA CREEK DR,Oakland,CA,
600 CATRON DR,Oakland,CA,
11TH AV & E 17TH ST,Oakland,CA,
46TH AV & BOND ST,Oakland,CA,
6TH ST & OAK ST,Oakland,CA,
9900 OLIVE ST,Oakland,CA,
11000 ESTEPA DR,Oakland,CA,
9TH ST & ALICE ST,Oakland,CA,
3100 CURRAN AV,Oakland,CA,
3400 MARGARITA AV,Oakland,CA,
IVY DR & PARK BLVD,Oakland,CA,
1000 37TH ST,Oakland,CA,
400 65TH ST,Oakland,CA,
1500 WILLOW ST,Oakland,CA,
4200 LINCOLN AV,Oakland,CA,
2200 TIFFIN RD,Oakland,CA,
6800 ESTATES DR,Oakland,CA,
4500 BROOKDALE AV,Oakland,CA,
106TH AV & VOLTAIRE AV,Oakland,CA,
5900 GRIZZLY PEAK BLVD,Oakland,CA,
22ND AV & E 30TH ST,Oakland,CA,
4200 TOMPKINS AV,Oakland,CA,
4100 KENTWOOD CT,Oakland,CA,
800 E 23RD ST,Oakland,CA,
79TH AV & PLYMOUTH ST,Oakland,CA,
2000 MANZANITA DR,Oakland,CA,
5900 MARGARIDO DR,Oakland,CA,
19TH ST & JEFFERSON ST,Oakland,CA,
200 TAURUS AV,Oakland,CA,
5100 LAWTON AV,Oakland,CA,
6300 MARKET ST,Oakland,CA,
13900 SKYLINE BLVD,Oakland,CA,
14TH AV & E 30TH ST,Oakland,CA,
85TH AV & BIRCH ST,Oakland,CA,
1800 DURANT AV,Oakland,CA,
105TH AV & ROYAL ANN ST,Oakland,CA,
200 JOHN ST,Oakland,CA,
2600 SCHOOL ST,Oakland,CA,
E 9TH ST & DEL MONTE AVE,Oakland,CA,
78TH AV & HOLLY ST,Oakland,CA,
35TH AV & CALIFORNIA ST,Oakland,CA,
0 WOODSIDE GLEN CT,Oakland,CA,
EDWARDS AV & GREENLY DR,Oakland,CA,
4100 LINCOLN AV,Oakland,CA,
10TH ST & PINE ST,Oakland,CA,
400 CHENEY AV,Oakland,CA,
11TH AV & E 19TH ST,Oakland,CA,
PERKINS ST & VAN BUREN AV,Oakland,CA,
1900 GASPAR DR,Oakland,CA,
7200 ARTHUR ST,Oakland,CA,
3600 MAJESTIC AV,Oakland,CA,
3400 CURRAN WY,Oakland,CA,
5900 KEITH AV,Oakland,CA,
5900 CLAREMONT AV,Oakland,CA,
1100 GLENDORA AV,Oakland,CA,
3600 LILY ST,Oakland,CA,
CRESTMONT DR & REDWOOD RD,Oakland,CA,
4700 MOUNTAIN BLVD,Oakland,CA,
400 ELLITA AV,Oakland,CA,
4600 HARBORD DR,Oakland,CA,
3RD ST & PERALTA ST,Oakland,CA,
6000 ADELINE ST,Oakland,CA,
5000 PARKRIDGE DR,Oakland,CA,
3200 MAPLE AV,Oakland,CA,
E 17TH ST & 41ST AV,Oakland,CA,
103RD AV & BYRON AV,Oakland,CA,
CLARKE ST & REDONDO AV,Oakland,CA,
35TH AV & WISCONSIN ST,Oakland,CA,
9500 PLYMOUTH ST,Oakland,CA,
AUSEON AV & BIRCH ST,Oakland,CA,
2500 UNION ST,Oakland,CA,
4500 WALNUT ST,Oakland,CA,
38TH ST & CLARKE ST,Oakland,CA,
9500 WALTER AV,Oakland,CA,
6200 MACARTHUR BLVD,Oakland,CA,
1000 23RD AV,Oakland,CA,
2100 MAGELLAN DR,Oakland,CA,
1000 90TH AV,Oakland,CA,
8000 RUDSDALE ST,Oakland,CA,
3000 MODESTO AV,Oakland,CA,
MACARTHUR BLVD & WESLEY AV,Oakland,CA,
5800 EASTLAWN ST,Oakland,CA,
0 DIABLO DR,Oakland,CA,
AUSEON AV & DOWLING ST,Oakland,CA,
105TH AV & PONTIAC ST,Oakland,CA,
KINGSLEY CIR & SEMINARY AV,Oakland,CA,
1500 YERBA BUENA AV,Oakland,CA,
1200 BATES RD,Oakland,CA,
2900 SHEFFIELD AV,Oakland,CA,
COOLIDGE AV & EB I580,Oakland,CA,
4500 LINDEN ST,Oakland,CA,
2500 FERN ST,Oakland,CA,
21ST ST & LINDEN ST,Oakland,CA,
HIGH ST & SB I880,Oakland,CA,
1000 JACKSON ST,Oakland,CA,
4400 TOMPKINS AV,Oakland,CA,
69TH AV & SPENCER ST,Oakland,CA,
E 16TH ST & 34TH AV,Oakland,CA,
1400 E 21ST ST,Oakland,CA,
BROADWAY TER & CLAREWOOD DR,Oakland,CA,
900 E 15TH ST,Oakland,CA,
3500 MAGNOLIA ST,Oakland,CA,
700 E 10TH ST,Oakland,CA,
88TH AV & G ST,Oakland,CA,
E 17TH ST & 4TH AV,Oakland,CA,
7900 FONTAINE ST,Oakland,CA,
28TH ST & ETTIE ST,Oakland,CA,
42ND ST & SHAFTER AV,Oakland,CA,
300 LEWIS ST,Oakland,CA,
E 10TH ST & 29TH AV,Oakland,CA,
94TH AV & OLIVE ST,Oakland,CA,
5100 CLAREMONT AV,Oakland,CA,
18TH ST & CHESTNUT ST,Oakland,CA,
99TH AV & PLYMOUTH ST,Oakland,CA,
700 23RD ST,Oakland,CA,
3000 MINNA AV,Oakland,CA,
0 MARR AV,Oakland,CA,
42ND AV & BANCROFT AV,Oakland,CA,
BROADWAY & MANILA AV,Oakland,CA,
14TH AV & E 22ND ST,Oakland,CA,
4800 YGNACIO AV,Oakland,CA,
DOOLITTLE DR & LANGLEY ST,Oakland,CA,
4000 NORTON AV,Oakland,CA,
6200 ACACIA AV,Oakland,CA,
29TH AV & FORD ST,Oakland,CA,
1900 HOOVER AV,Oakland,CA,
5300 BRANN ST,Oakland,CA,
700 LOUISIANA ST,Oakland,CA,
5900 ZINN DR,Oakland,CA,
HOLWAY ST & SEMINARY AV,Oakland,CA,
E 12TH ST & 40TH AV,Oakland,CA,
62ND AV & MONADNOCK WY,Oakland,CA,
19TH AV & E 25TH ST,Oakland,CA,
4200 NORTON AV,Oakland,CA,
1000 JEFFERSON ST,Oakland,CA,
14000 SKYLINE BLVD,Oakland,CA,
10100 LONGFELLOW AV,Oakland,CA,
500 KENWYN RD,Oakland,CA,
HIGH ST & YGNACIO AV,Oakland,CA,
5800 COLISEUM WY,Oakland,CA,
2000 73RD AV,Oakland,CA,
5100 DESMOND ST,Oakland,CA,
1600 62ND AV,Oakland,CA,
4000 HARDING WY,Oakland,CA,
1500 E 17TH ST,Oakland,CA,
4300 ANDERSON AV,Oakland,CA,
300 HIGH ST,Oakland,CA,
2800 RITCHIE ST,Oakland,CA,
1900 BYWOOD DR,Oakland,CA,
BELLEVUE AV & VAN BUREN AV,Oakland,CA,
1300 16TH ST,Oakland,CA,
3500 PENNIMAN AV,Oakland,CA,
3800 ARDLEY AV,Oakland,CA,
5100 MILES AV,Oakland,CA,
1100 14TH ST,Oakland,CA,
300 FOOTHILL BLVD,Oakland,CA,
3RD ST & MANDELA PKWY,Oakland,CA,
1400 MARKET ST,Oakland,CA,
10100 PIPPIN ST,Oakland,CA,
3600 LUNDHOLM AV,Oakland,CA,
3300 BIRDSALL AV,Oakland,CA,
3900 PARK BLVD,Oakland,CA,
600 KENWYN RD,Oakland,CA,
2600 19TH AV,Oakland,CA,
2000 CHESTNUT ST,Oakland,CA,
2900 BURDECK DR,Oakland,CA,
41ST ST & OPAL ST,Oakland,CA,
0 WESTMINSTER DR,Oakland,CA,
300 WASHINGTON ST,Oakland,CA,
71ST AV & SAN LEANDRO ST,Oakland,CA,
3700 BRUNELL DR,Oakland,CA,
3800 SANTA RITA ST,Oakland,CA,
4400 REINHARDT DR,Oakland,CA,
56TH ST & SAN PABLO AV,Oakland,CA,
40TH AV & MERA ST,Oakland,CA,
2900 MADELINE ST,Oakland,CA,
5800 VALLEJO ST,Oakland,CA,
2900 MONTICELLO AV,Oakland,CA,
12TH AV & E 17TH ST,Oakland,CA,
1000 ASHMOUNT AV,Oakland,CA,
5600 MORSE DR,Oakland,CA,
SAN PABLO AV & WILLIAM ST,Oakland,CA,
5900 FREMONT ST,Oakland,CA,
7TH ST & NB I880,Oakland,CA,
2000 109TH AV,Oakland,CA,
2700 MOUNTAIN BLVD,Oakland,CA,
2600 SHORT ST,Oakland,CA,
2200 92ND AV,Oakland,CA,
1700 99TH AV,Oakland,CA,
3100 MAPLE AV,Oakland,CA,
7300 CIRCLE HILL DR,Oakland,CA,
E 33RD ST & BEAUMONT AV,Oakland,CA,
1600 BRIDGE AV,Oakland,CA,
8200 NEY AV,Oakland,CA,
BURMA RD & MARITIME ST,Oakland,CA,
600 LOUISIANA ST,Oakland,CA,
2700 ABBEY ST,Oakland,CA,
5800 CHABOT RD,Oakland,CA,
1600 JEFFERSON ST,Oakland,CA,
900 TRESTLE GLEN RD,Oakland,CA,
10600 PIPPIN ST,Oakland,CA,
E 17TH ST & 33RD AV,Oakland,CA,
2100 TIFFIN RD,Oakland,CA,
15TH ST & WILLOW ST,Oakland,CA,
5900 SEMINARY AV,Oakland,CA,
800 JEFFERSON ST,Oakland,CA,
84TH AV & B ST,Oakland,CA,
3500 WILLIS CT,Oakland,CA,
8000 DOWLING ST,Oakland,CA,
7TH ST & MAGNOLIA ST,Oakland,CA,
2500 E 24TH ST,Oakland,CA,
5700 DOVER ST,Oakland,CA,
36TH ST & ADELINE ST,Oakland,CA,
39TH ST & MARKET ST,Oakland,CA,
7000 SARONI DR,Oakland,CA,
3300 WYMAN ST,Oakland,CA,
EMPIRE RD & HESKET RD,Oakland,CA,
1300 E 36TH ST,Oakland,CA,
1800 MOUNTAIN BLVD,Oakland,CA,
TOMPKINS AV & WILKIE ST,Oakland,CA,
4100 MIDVALE AV,Oakland,CA,
5500 SAN PABLO AV,Oakland,CA,
5300 HILLTOP CRES,Oakland,CA,
99TH AV & BANCROFT AV,Oakland,CA,
2800 FRAZIER AV,Oakland,CA,
CONGRESS AV & MONTICELLO AV,Oakland,CA,
14TH ST & CAMPBELL ST,Oakland,CA,
E 15TH ST & FRUITVALE AV,Oakland,CA,
26TH ST & SAN PABLO AV,Oakland,CA,
900 POPLAR CT,Oakland,CA,
INTERNATIONAL BLVD & TUCKER ST,Oakland,CA,
5200 MANILA AV,Oakland,CA,
6500 LUCAS AV,Oakland,CA,
7900 SURREY LN,Oakland,CA,
3500 WOODRUFF AV,Oakland,CA,
400 MARKET ST,Oakland,CA,
13600 SKYLINE BLVD,Oakland,CA,
4700 SEQUOYAH RD,Oakland,CA,
25TH AV & E 27TH ST,Oakland,CA,
100 STONEWALL RD,Oakland,CA,
96TH AV & HILLSIDE ST,Oakland,CA,
2700 MAXWELL AV,Oakland,CA,
3500 E 16TH ST,Oakland,CA,
9000 WALNUT ST,Oakland,CA,
1700 LEIMERT BLVD,Oakland,CA,
400 WEBSTER ST,Oakland,CA,
0 ECHO AV,Oakland,CA,
2700 SUNSET AV,Oakland,CA,
81ST AV & B ST,Oakland,CA,
6100 MARKET ST,Oakland,CA,
1900 WRENN ST,Oakland,CA,
1100 E 24TH ST,Oakland,CA,
32ND ST & HELEN ST,Oakland,CA,
2800 ALIDA ST,Oakland,CA,
500 MACARTHUR BLVD,Oakland,CA,
105TH AV & TOPANGA DR,Oakland,CA,
500 53RD ST,Oakland,CA,
E 12TH ST & 50TH AV,Oakland,CA,
6000 CONTRA COSTA RD,Oakland,CA,
E 22ND ST & 8TH AV,Oakland,CA,
5500 E 16TH ST,Oakland,CA,
5300 GENOA ST,Oakland,CA,
1800 MELVIN RD,Oakland,CA,
5500 FREMONT ST,Oakland,CA,
3100 CHAPMAN ST,Oakland,CA,
7600 HAMILTON ST,Oakland,CA,
4TH ST & JACKSON ST,Oakland,CA,
3300 VALE AV,Oakland,CA,
800 CARLSTON AV,Oakland,CA,
4100 NORTON AV,Oakland,CA,
700 12TH ST,Oakland,CA,
3000 SHEFFIELD AV,Oakland,CA,
1900 ROSEDALE AV,Oakland,CA,
1700 57TH AV,Oakland,CA,
3900 HANLY RD,Oakland,CA,
21ST AV & E 27TH ST,Oakland,CA,
14TH AV & E 32ND ST,Oakland,CA,
3800 SAN JUAN ST,Oakland,CA,
2200 CARROLL ST,Oakland,CA,
5100 TRASK ST,Oakland,CA,
3700 LOMA VISTA AV,Oakland,CA,
300 FRANKLIN ST,Oakland,CA,
2000 ASILOMAR DR,Oakland,CA,
3000 EASTMAN AV,Oakland,CA,
6200 DOVER ST,Oakland,CA,
16TH AV & E 17TH ST,Oakland,CA,
3900 GRAND AV,Oakland,CA,
3800 MERA ST,Oakland,CA,
8200 EDGEWATER DR,Oakland,CA,
4200 RIDGEMONT CT,Oakland,CA,
3200 E 17TH ST,Oakland,CA,
700 DOUGLAS AV,Oakland,CA,
5100 CAMDEN ST,Oakland,CA,
2200 8TH AV,Oakland,CA,
6400 HILLEGASS AV,Oakland,CA,
5200 WEST ST,Oakland,CA,
EDWARDS AV & SUNNYMERE AV,Oakland,CA,
10200 CARY ST,Oakland,CA,
9500 ALCALA AV,Oakland,CA,
ALISO AV & REDWOOD RD,Oakland,CA,
PARK BLVD & SB S13,Oakland,CA,
6200 LA SALLE AV,Oakland,CA,
4600 GERANIUM PL,Oakland,CA,
BARTLETT ST & BROOKDALE AV,Oakland,CA,
4700 CONGRESS AV,Oakland,CA,
2400 80TH AV,Oakland,CA,
8800 SENECA ST,Oakland,CA,
2900 SUMMIT ST,Oakland,CA,
12300 SKYLINE BLVD,Oakland,CA,
9800 MADDUX DR,Oakland,CA,
3RD ST & FRANKLIN ST,Oakland,CA,
83RD AV & B ST,Oakland,CA,
7200 EARHART RD,Oakland,CA,
29TH AV & NB I880,Oakland,CA,
600 CALMAR AV,Oakland,CA,
0 CATRON DR,Oakland,CA,
66TH AV & FLORA ST,Oakland,CA,
200 COVINGTON ST,Oakland,CA,
400 21ST ST,Oakland,CA,
7900 CAPWELL DR,Oakland,CA,
6100 HILLMONT DR,Oakland,CA,
3600 MALCOLM AV,Oakland,CA,
600 EMBARCADERO,Oakland,CA,
6100 CHABOT RD,Oakland,CA,
5900 SAN LEANDRO ST,Oakland,CA,
10000 BROADWAY TER,Oakland,CA,
1000 CLARENDON CRES,Oakland,CA,
400 ELWOOD AV,Oakland,CA,
49TH ST & CLARKE ST,Oakland,CA,
LA SALLE AV & MORAGA AV,Oakland,CA,
3100 FRYE ST,Oakland,CA,
4300 BERMUDA AV,Oakland,CA,
1900 ADELINE ST,Oakland,CA,
86TH AV & A ST,Oakland,CA,
2800 CHESTNUT ST,Oakland,CA,
1500 CENTER ST,Oakland,CA,
CROSBY AV & FOOTHILL BLVD,Oakland,CA,
1300 EMBARCADERO,Oakland,CA,
3700 SANTA RITA ST,Oakland,CA,
FOOTHILL BLVD & MITCHELL ST,Oakland,CA,
72ND AV & ORRAL ST,Oakland,CA,
E 12TH ST & 38TH AV,Oakland,CA,
300 E 10TH ST,Oakland,CA,
64TH AV & LAIRD AV,Oakland,CA,
68TH AV & FLORA ST,Oakland,CA,
6200 OUTLOOK AV,Oakland,CA,
11900 CAMPUS DR,Oakland,CA,
8100 UTAH ST,Oakland,CA,
3500 PIEDMONT AV,Oakland,CA,
9900 LAWLOR ST,Oakland,CA,
1100 8TH AV,Oakland,CA,
8100 BANCROFT AV,Oakland,CA,
8400 PLYMOUTH ST,Oakland,CA,
26TH ST & UNION ST,Oakland,CA,
2100 E 29TH ST,Oakland,CA,
3500 KEMPTON WY,Oakland,CA,
9000 D ST,Oakland,CA,
2600 LA CUESTA ST,Oakland,CA,
1700 EXCELSIOR AV,Oakland,CA,
HEGENBERGER RD & SB I880,Oakland,CA,
8600 BIRCH ST,Oakland,CA,
4000 MALCOLM AV,Oakland,CA,
FAIRMOUNT AV & HARRISON ST,Oakland,CA,
5500 MASONIC AV,Oakland,CA,
300 LANCASTER ST,Oakland,CA,
2000 CLEMENS RD,Oakland,CA,
500 29TH AV,Oakland,CA,
10700 ESTEPA DR,Oakland,CA,
E 7TH ST & LANCASTER ST,Oakland,CA,
1200 MOUNTAIN BLVD,Oakland,CA,
7500 MOUNTAIN BLVD,Oakland,CA,
1300 E 38TH ST,Oakland,CA,
BROADWAY & TAFT AV,Oakland,CA,
1700 22ND AV,Oakland,CA,
4800 GRASS VALLEY RD,Oakland,CA,
3800 SUTER ST,Oakland,CA,
5900 CHABOLYN TER,Oakland,CA,
4100 LYMAN RD,Oakland,CA,
73RD AV & HILLSIDE ST,Oakland,CA,
1800 CLEMENS RD,Oakland,CA,
HILTON ST & SEMINARY AV,Oakland,CA,
2100 26TH AV,Oakland,CA,
2200 50TH AV,Oakland,CA,
12TH ST & ALICE ST,Oakland,CA,
35TH AV & CUSTER ST,Oakland,CA,
10500 VOLTAIRE AV,Oakland,CA,
13TH ST & CAMPBELL ST,Oakland,CA,
69TH AV & FLORA ST,Oakland,CA,
1900 TIFFIN RD,Oakland,CA,
3000 BERLIN WY,Oakland,CA,
1200 49TH AV,Oakland,CA,
55TH AV & EDGERLY ST,Oakland,CA,
0 TATE TER,Oakland,CA,
2700 BEST AV,Oakland,CA,
3800 TWIN OAKS WY,Oakland,CA,
2800 75TH AV,Oakland,CA,
3100 HERRIOTT AV,Oakland,CA,
11100 LOCHARD ST,Oakland,CA,
10900 CALODEN ST,Oakland,CA,
3700 MARKET ST,Oakland,CA,
0 TWITTER LN,Oakland,CA,
7800 GREENLY DR,Oakland,CA,
200 38TH ST,Oakland,CA,
HUDSON ST & MILES AV,Oakland,CA,
15TH ST & CASTRO ST,Oakland,CA,
3600 RICHMOND BLVD,Oakland,CA,
10300 GREENVIEW DR,Oakland,CA,
7300 FRESNO ST,Oakland,CA,
5700 WALNUT ST,Oakland,CA,
69TH AV & LACEY AV,Oakland,CA,
9000 GOLF LINKS RD,Oakland,CA,
46TH ST & WEST ST,Oakland,CA,
5700 BALMORAL DR,Oakland,CA,
3700 PATTERSON AV,Oakland,CA,
2000 WARNER AV,Oakland,CA,
300 WAYNE AV,Oakland,CA,
OAKLAND AV & PERRY PL,Oakland,CA,
4800 GERANIUM PL,Oakland,CA,
4000 PARK BLVD,Oakland,CA,
2700 OLIVER AV,Oakland,CA,
OAK HILL RD & SEQUOYAH RD,Oakland,CA,
7400 RUDSDALE ST,Oakland,CA,
2200 FILBERT ST,Oakland,CA,
6100 OVERDALE AV,Oakland,CA,
100 FOSTER AV,Oakland,CA,
500 51ST ST,Oakland,CA,
2600 E 10TH ST,Oakland,CA,
MACARTHUR BLVD & RHODA AV,Oakland,CA,
12900 BROOKPARK RD,Oakland,CA,
9700 HOLLY ST,Oakland,CA,
5400 NORMANDIE AV,Oakland,CA,
5900 CONTRA COSTA RD,Oakland,CA,
8400 B ST,Oakland,CA,
3000 14TH AV,Oakland,CA,
35TH AV & VICTOR AV,Oakland,CA,
200 PERSHING DR,Oakland,CA,
55TH ST & DOVER ST,Oakland,CA,
3500 BOSTON AV,Oakland,CA,
LINCOLN AV & MONTEREY BLVD,Oakland,CA,
1400 CASTRO ST,Oakland,CA,
AILEEN ST & MARKET ST,Oakland,CA,
6100 FAIRLANE DR,Oakland,CA,
600 TRESTLE GLEN RD,Oakland,CA,
200 40TH ST,Oakland,CA,
3400 DEERING ST,Oakland,CA,
500 CLARA ST,Oakland,CA,
BROADWAY & NB S13,Oakland,CA,
61ST ST & COLBY ST,Oakland,CA,
100 STRATHMOOR DR,Oakland,CA,
500 E 15TH ST,Oakland,CA,
0 ORMINDALE CT,Oakland,CA,
8TH ST & JEFFERSON ST,Oakland,CA,
3000 MALCOLM AV,Oakland,CA,
1000 SAN FRANCISCO CT,Oakland,CA,
26TH AV & E 27TH ST,Oakland,CA,
62ND AV & TEVIS ST,Oakland,CA,
6400 ASCOT DR,Oakland,CA,
4800 SHATTUCK AV,Oakland,CA,
2300 81ST AV,Oakland,CA,
1300 E 19TH ST,Oakland,CA,
HAMPEL ST & PARK BLVD,Oakland,CA,
W MACARTHUR BLVD & MANILA AV,Oakland,CA,
5100 GOLDEN GATE AV,Oakland,CA,
9100 GOLF LINKS RD,Oakland,CA,
102ND AV & WALNUT ST,Oakland,CA,
E 22ND ST & 25TH AV,Oakland,CA,
13000 BROADWAY TER,Oakland,CA,
3200 E 9TH ST,Oakland,CA,
1600 WEST ST,Oakland,CA,
1700 46TH AV,Oakland,CA,
2100 9TH AV,Oakland,CA,
6700 SIMS DR,Oakland,CA,
1600 10TH AV,Oakland,CA,
E 12TH ST & MILLER AV,Oakland,CA,
900 SCOTT ST,Oakland,CA,
29TH ST & SUMMIT ST,Oakland,CA,
2900 VIOLA ST,Oakland,CA,
HIGH ST & TIDEWATER AV,Oakland,CA,
94TH AV & THERMAL ST,Oakland,CA,
1900 109TH AV,Oakland,CA,
3900 EVERETT AV,Oakland,CA,
12TH AV & FOOTHILL BLVD,Oakland,CA,
5200 GENOA ST,Oakland,CA,
3300 JORDAN RD,Oakland,CA,
6200 MEDAU PL,Oakland,CA,
BROADWAY & HAWTHORNE AV,Oakland,CA,
2100 FILBERT ST,Oakland,CA,
3600 COLUMBIAN DR,Oakland,CA,
0 SEQUOYAH VIEW DR,Oakland,CA,
100 COVINGTON ST,Oakland,CA,
300 BERGEDO DR,Oakland,CA,
3700 DELMONT AV,Oakland,CA,
13100 SKYLINE BLVD,Oakland,CA,
105TH AV & PIPPIN ST,Oakland,CA,
400 58TH ST,Oakland,CA,
8000 PHAETON DR,Oakland,CA,
3200 CHAMPION ST,Oakland,CA,
2300 63RD AV,Oakland,CA,
10TH ST & PERALTA ST,Oakland,CA,
2500 HEARST AV,Oakland,CA,
10300 VOLTAIRE AV,Oakland,CA,
94TH AV & B ST,Oakland,CA,
1500 EXCELSIOR AV,Oakland,CA,
300 CALDECOTT LN,Oakland,CA,
0 WINDWARD HILL,Oakland,CA,
4500 ELINORA AV,Oakland,CA,
DELAWARE ST & MAPLE AV,Oakland,CA,
100 RIDGEWAY AV,Oakland,CA,
900 E 28TH ST,Oakland,CA,
LAKESHORE AV & LONGRIDGE RD,Oakland,CA,
1500 53RD AV,Oakland,CA,
MONTEREY BLVD & PARK BLVD,Oakland,CA,
4TH ST & ALICE ST,Oakland,CA,
800 CREED RD,Oakland,CA,
57TH AV & ELIZABETH ST,Oakland,CA,
10400 E ST,Oakland,CA,
2800 HUMBOLDT AV,Oakland,CA,
AUSTIN ST & FOOTHILL BLVD,Oakland,CA,
900 12TH ST,Oakland,CA,
5900 MAJESTIC AV,Oakland,CA,
1900 E 38TH ST,Oakland,CA,
1300 73RD AV,Oakland,CA,
5500 VALLEJO ST,Oakland,CA,
700 E 23RD ST,Oakland,CA,
2600 E 20TH ST,Oakland,CA,
BROOKDALE AV & KINGSLAND AV,Oakland,CA,
2900 MILLSBRAE AV,Oakland,CA,
1000 29TH AV,Oakland,CA,
56TH ST & ADELINE ST,Oakland,CA,
6000 BANCROFT AV,Oakland,CA,
16TH ST & CHESTNUT ST,Oakland,CA,
AVENAL AV & CHURCH ST,Oakland,CA,
7000 SAYRE DR,Oakland,CA,
2500 LEIMERT BLVD,Oakland,CA,
7100 FOOTHILL BLVD,Oakland,CA,
25TH ST & NORTHGATE AV,Oakland,CA,
13TH AV & E 31ST ST,Oakland,CA,
2700 MADELINE ST,Oakland,CA,
5900 BUENA VISTA AV,Oakland,CA,
61ST AV & BRANN ST,Oakland,CA,
98TH AV & KITTY LN,Oakland,CA,
4200 BALFOUR AV,Oakland,CA,
4400 PARK BLVD,Oakland,CA,
3900 SANTA RITA ST,Oakland,CA,
6800 ELVERTON DR,Oakland,CA,
3200 PARTRIDGE AV,Oakland,CA,
1900 CORTEREAL AV,Oakland,CA,
35TH AV & MEADOW ST,Oakland,CA,
E 18TH ST & 35TH AV,Oakland,CA,
97TH AV & B ST,Oakland,CA,
400 WESLEY AV,Oakland,CA,
52ND AV & WENTWORTH AV,Oakland,CA,
7200 SPENCER ST,Oakland,CA,
1100 HOLLYWOOD AV,Oakland,CA,
3900 35TH AV,Oakland,CA,
3000 ROXBURY AV,Oakland,CA,
7600 RUDSDALE ST,Oakland,CA,
1200 61ST ST,Oakland,CA,
2200 14TH AV,Oakland,CA,
100TH AV & WALNUT ST,Oakland,CA,
6100 HARWOOD AV,Oakland,CA,
9200 RAILROAD AV,Oakland,CA,
400 7TH STREET,Oakland,CA,
2600 E 22ND ST,Oakland,CA,
2900 CAPP ST,Oakland,CA,
4000 PENNIMAN AV,Oakland,CA,
3RD ST & HENRY ST,Oakland,CA,
83RD AV & PLYMOUTH ST,Oakland,CA,
1100 59TH ST,Oakland,CA,
87TH AV & A ST,Oakland,CA,
1700 79TH AV,Oakland,CA,
106TH AV & PERALTA OAKS DR,Oakland,CA,
DP,Oakland,CA,
100 ADELINE ST,Oakland,CA,
4000 FOREST HILL AV,Oakland,CA,
9000 THERMAL ST,Oakland,CA,
3800 MANILA AV,Oakland,CA,
1600 TUCKER ST,Oakland,CA,
20TH ST & WEST ST,Oakland,CA,
3400 LYNDE ST,Oakland,CA,
6000 SEMINARY AV,Oakland,CA,
1400 ALLMAN ST,Oakland,CA,
4100 LAUREL AV,Oakland,CA,
2500 90TH AV,Oakland,CA,
BROADWAY & FRANKLIN ST,Oakland,CA,
ARTHUR ST & CHURCH ST,Oakland,CA,
3300 OCTAVIA ST,Oakland,CA,
20TH ST & PERALTA ST,Oakland,CA,
0 REATA PL,Oakland,CA,
HOWE ST & PLEASANT VALLEY AV,Oakland,CA,
2100 EMBARCADERO,Oakland,CA,
CAMDEN ST & MADERA AV,Oakland,CA,
10400 VOLTAIRE AV,Oakland,CA,
10500 PEBBLE BEACH DR,Oakland,CA,
2500 MYRTLE ST,Oakland,CA,
10200 E ST,Oakland,CA,
600 E 11TH ST,Oakland,CA,
2000 11TH AV,Oakland,CA,
3RD AV & FOOTHILL BLVD,Oakland,CA,
56TH ST & GASKILL ST,Oakland,CA,
4000 WALNUT ST,Oakland,CA,
6900 SNAKE RD,Oakland,CA,
E 21ST ST & PARK BLVD,Oakland,CA,
3500 GLEN PARK RD,Oakland,CA,
400 DERBY AV,Oakland,CA,
70TH AV & SPENCER ST,Oakland,CA,
100 7TH ST,Oakland,CA,
4000 BALFOUR AV,Oakland,CA,
600 51ST ST,Oakland,CA,
3600 QUIGLEY ST,Oakland,CA,
HELEN ST & PERALTA ST,Oakland,CA,
6400 BUENA VENTURA AV,Oakland,CA,
3800 LINCOLN AV,Oakland,CA,
2000 DENNISON ST,Oakland,CA,
86TH AV & PLYMOUTH ST,Oakland,CA,
EMPIRE RD & GIBRALTAR RD,Oakland,CA,
8900 GOLF LINKS RD,Oakland,CA,
E 12TH ST & 30TH AV,Oakland,CA,
2ND ST & JACKSON ST,Oakland,CA,
35TH ST & CHESTNUT ST,Oakland,CA,
600 MADISON ST,Oakland,CA,
6300 ESTATES DR,Oakland,CA,
E 17TH ST & 28TH AV,Oakland,CA,
4500 FAIRBAIRN AV,Oakland,CA,
1300 40TH AV,Oakland,CA,
4300 BRIDGEVIEW DR,Oakland,CA,
CONGRESS AV & FOOTHILL BLVD,Oakland,CA,
4600 FAIR AV,Oakland,CA,
4000 FRUITVALE AV,Oakland,CA,
1000 ELSINORE AV,Oakland,CA,
3900 WATERHOUSE RD,Oakland,CA,
AILEEN ST & SAN PABLO AV,Oakland,CA,
13TH AV & E 22ND ST,Oakland,CA,
1800 100TH AV,Oakland,CA,
104TH AV & SUNNYSIDE ST,Oakland,CA,
65TH AV & MACARTHUR BLVD,Oakland,CA,
11000 NOVELDA DR,Oakland,CA,
90TH AV & B ST,Oakland,CA,
BOSTON AV & MACARTHUR BLVD,Oakland,CA,
W GRAND AV & NB I880 CONN,Oakland,CA,
300 HEMPHILL PL,Oakland,CA,
12TH AV & E 24TH ST,Oakland,CA,
4500 SEQUOYAH RD,Oakland,CA,
200 105TH AV,Oakland,CA,
1100 SUNNYHILLS RD,Oakland,CA,
6100 BRANN ST,Oakland,CA,
1500 TELEGRAPH AV,Oakland,CA,
3500 62ND AV,Oakland,CA,
85TH AV & AMELIA ST,Oakland,CA,
1300 71ST AV,Oakland,CA,
900 45TH AV,Oakland,CA,
7200 OUTLOOK AV,Oakland,CA,
5000 E 10TH ST,Oakland,CA,
MONTICELLO AV & VIRGINIA AV,Oakland,CA,
800 E 8TH ST,Oakland,CA,
10TH AV & E 15TH ST,Oakland,CA,
9300 MOUNTAIN BLVD,Oakland,CA,
28TH ST & FILBERT ST,Oakland,CA,
3600 HARBOR VIEW AV,Oakland,CA,
5900 LA SALLE AV,Oakland,CA,
5000 CRYSTAL RIDGE CT,Oakland,CA,
77TH AV & SPENCER ST,Oakland,CA,
6300 COLISEUM WY,Oakland,CA,
6800 FRESNO ST,Oakland,CA,
200 E 10TH ST,Oakland,CA,
400 MONTE VISTA AV,Oakland,CA,
2100 7TH AV,Oakland,CA,
2500 WAKEFIELD AV,Oakland,CA,
4500 MERRILL AV,Oakland,CA,
82ND AV & IRIS ST,Oakland,CA,
4000 LA CRESTA AV,Oakland,CA,
6000 HILLEGASS AV,Oakland,CA,
1400 E 36TH ST,Oakland,CA,
98TH AV & PEARMAIN ST,Oakland,CA,
CHAMPION ST & MACARTHUR BLVD,Oakland,CA,
1600 CENTER ST,Oakland,CA,
6200 CANNING ST,Oakland,CA,
900 HILLCROFT CIR,Oakland,CA,
82ND AV & GOLF LINKS RD,Oakland,CA,
13TH AV & E 24TH ST,Oakland,CA,
9300 D ST,Oakland,CA,
3200 60TH AV,Oakland,CA,
E 17TH ST & 35TH AV,Oakland,CA,
6200 COLISEUM WY,Oakland,CA,
16TH ST & FILBERT ST,Oakland,CA,
9600 A ST,Oakland,CA,
7200 SUNKIST DR,Oakland,CA,
3000 82ND AV,Oakland,CA,
73RD AV & HAWLEY ST,Oakland,CA,
4200 MARTIN LUTHER KING JR WY,Oakland,CA,
3800 BRIGHTON AV,Oakland,CA,
0 GARLAND AV,Oakland,CA,
2100 LINDEN ST,Oakland,CA,
2100 E 22ND ST,Oakland,CA,
5TH ST & UNION ST,Oakland,CA,
3RD ST & CHESTNUT ST,Oakland,CA,
700 24TH ST,Oakland,CA,
0 RISHELL DR,Oakland,CA,
8000 FONTAINE ST,Oakland,CA,
900 26TH AV,Oakland,CA,
9TH ST & CHESTER ST,Oakland,CA,
500 56TH ST,Oakland,CA,
6900 WELD ST,Oakland,CA,
8000 B ST,Oakland,CA,
1100 61ST ST,Oakland,CA,
21ST AV & E 26TH ST,Oakland,CA,
4400 MORAGA AV,Oakland,CA,
3900 WHITTLE AV,Oakland,CA,
32ND ST & MANDELA PKWY,Oakland,CA,
61ST AV & CAMDEN ST,Oakland,CA,
3300 CRANE WY,Oakland,CA,
57TH AV & SCOVILLE ST,Oakland,CA,
DISTRICT 4,Oakland,CA,
HIGH ST & JENSEN ST,Oakland,CA,
10600 GRAFFIAN ST,Oakland,CA,
9600 EMPIRE RD,Oakland,CA,
4400 DAVENPORT AV,Oakland,CA,
1000 41ST AV,Oakland,CA,
16TH ST & WEST ST,Oakland,CA,
FRUITVALE AV & WB I580,Oakland,CA,
3000 LAKESHORE AV,Oakland,CA,
6400 ESTATES DR,Oakland,CA,
7600 SURREY LN,Oakland,CA,
55TH ST & LOWELL ST,Oakland,CA,
10300 ROYAL OAK RD,Oakland,CA,
900 GRACE AV,Oakland,CA,
82ND AV & A ST,Oakland,CA,
11TH AV & E 18TH ST,Oakland,CA,
9400 THERMAL ST,Oakland,CA,
8000 SURREY LN,Oakland,CA,
9900 PIPPIN ST,Oakland,CA,
21ST AV & E 24TH ST,Oakland,CA,
2200 25TH AV,Oakland,CA,
3400 STORER AV,Oakland,CA,
E 21ST ST & 9TH AV,Oakland,CA,
6200 ROCKY POINT CT,Oakland,CA,
6400 PINEHAVEN RD,Oakland,CA,
4200 SHAFTER AV,Oakland,CA,
49TH ST & WEBSTER ST,Oakland,CA,
2600 MANDELA PKWY,Oakland,CA,
11200 GOLF LINKS RD,Oakland,CA,
E 13TH ST & 31ST AV,Oakland,CA,
CLAREMONT AV & CLARKE ST,Oakland,CA,
6TH ST & MARKET ST,Oakland,CA,
3500 BRIGHTON AV,Oakland,CA,
3700 RANDOLPH AV,Oakland,CA,
3800 OPAL ST,Oakland,CA,
4900 MANILA AV,Oakland,CA,
45TH AV & SAN LEANDRO ST,Oakland,CA,
BEAT 17,Oakland,CA,
5800 MARGARIDO DR,Oakland,CA,
1900 11TH AV,Oakland,CA,
CARY ST & HALE AV,Oakland,CA,
1100 OAK ST,Oakland,CA,
5TH ST & WEBSTER ST,Oakland,CA,
E 21ST ST & 5TH AV,Oakland,CA,
6700 AITKEN DR,Oakland,CA,
54TH ST & DOVER ST,Oakland,CA,
6200 CASTLE DR,Oakland,CA,
5300 EL CAMILE AV,Oakland,CA,
1700 WEST ST,Oakland,CA,
0 HEGENBERGER PL,Oakland,CA,
5900 COLBY ST,Oakland,CA,
1200 28TH ST,Oakland,CA,
2200 LIVINGSTON ST,Oakland,CA,
5TH ST & CHESTER ST,Oakland,CA,
107TH AV & RUSSETT ST,Oakland,CA,
30TH ST & WEBSTER ST,Oakland,CA,
AILEEN ST & LOWELL ST,Oakland,CA,
74TH AV & BANCROFT AV,Oakland,CA,
2000 21ST AV,Oakland,CA,
2100 17TH AV,Oakland,CA,
700 19TH ST,Oakland,CA,
400 22ND ST,Oakland,CA,
10TH AV & E 17TH ST,Oakland,CA,
1700 SAUSAL ST,Oakland,CA,
10700 STELLA ST,Oakland,CA,
3500 BRUCE ST,Oakland,CA,
1600 20TH ST,Oakland,CA,
300 6TH AV,Oakland,CA,
HUDSON ST & SHAFTER AV,Oakland,CA,
4600 MARTIN LUTHER KING JR WY,Oakland,CA,
0 DUNCAN WY,Oakland,CA,
6200 BROADWAY TER,Oakland,CA,
JEFFERSON ST & SAN PABLO AV,Oakland,CA,
3400 MORCOM AV,Oakland,CA,
100 HIGH ST,Oakland,CA,
AREA 3,Oakland,CA,
7700 SURREY LN,Oakland,CA,
7500 SAN LEANDRO ST,Oakland,CA,
9200 WALNUT ST,Oakland,CA,
5900 MARKET ST,Oakland,CA,
102ND AV & BIRCH ST,Oakland,CA,
1700 20TH AV,Oakland,CA,
14TH ST & CENTER ST,Oakland,CA,
AREA 2,Oakland,CA,
400 FRANKLIN ST,Oakland,CA,
6000 IDAHO ST,Oakland,CA,
0 BAYO VISTA AV,Oakland,CA,
3800 CARRINGTON ST,Oakland,CA,
0 MONTE VISTA AV,Oakland,CA,
9100 MACARTHUR BLVD,Oakland,CA,
3100 MONTEREY BLVD,Oakland,CA,
REDWOOD RD & NB S13,Oakland,CA,
2300 HARRINGTON AV,Oakland,CA,
4900 DAISY ST,Oakland,CA,
COLTON BLVD & SNAKE RD,Oakland,CA,
1200 POWELL ST,Oakland,CA,
8700 PLYMOUTH ST,Oakland,CA,
6200 MANOA ST,Oakland,CA,
MONTGOMERY ST & PLEASANT VALLEY AV,Oakland,CA,
5900 TAFT AV,Oakland,CA,
2400 83RD AV,Oakland,CA,
ALIDA ST & LINCOLN AV,Oakland,CA,
5400 WALNUT ST,Oakland,CA,
2800 8TH AV,Oakland,CA,
2600 BEST AV,Oakland,CA,
1400 3RD ST,Oakland,CA,
5900 BROADWAY,Oakland,CA,
E 12TH ST & 9TH AV,Oakland,CA,
3200 E 16TH ST,Oakland,CA,
100 MARITIME ST,Oakland,CA,
7000 DEVON WY,Oakland,CA,
42ND AV & BOND ST,Oakland,CA,
6200 MAJESTIC AV,Oakland,CA,
9500 HILLSIDE ST,Oakland,CA,
12100 BLYTHEN WY,Oakland,CA,
E 10TH ST & 52ND AV,Oakland,CA,
19TH ST & ALICE ST,Oakland,CA,
GRIZZLY PEAK BLVD & MARLBOROUGH TER,Oakland,CA,
9700 BURGOS AV,Oakland,CA,
2800 E 10TH ST,Oakland,CA,
7600 GARFIELD AV,Oakland,CA,
5900 ESTATES DR,Oakland,CA,
700 2ND ST,Oakland,CA,
6600 HERZOG ST,Oakland,CA,
4400 SEQUOYAH RD,Oakland,CA,
4000 MIDVALE AV,Oakland,CA,
56TH AV & MACARTHUR BLVD,Oakland,CA,
5600 BUENA VISTA AV,Oakland,CA,
4800 CALDERWOOD CT,Oakland,CA,
1000 COTTON ST,Oakland,CA,
12500 BROOKPARK RD,Oakland,CA,
6500 BROADWAY TER,Oakland,CA,
58TH AV & MACARTHUR BLVD,Oakland,CA,
77TH AV & HALLIDAY AV,Oakland,CA,
8300 HOLLY ST,Oakland,CA,
6500 GIRVIN DR,Oakland,CA,
CHAMPION ST & SCHOOL ST,Oakland,CA,
1400 TRESTLE GLEN RD,Oakland,CA,
DAVIS ST & HARRINGTON AV,Oakland,CA,
60TH AV & CAMDEN ST,Oakland,CA,
67TH AV & FLORA ST,Oakland,CA,
3900 WALNUT ST,Oakland,CA,
4200 AGUA VISTA ST,Oakland,CA,
3700 LEIGHTON CT,Oakland,CA,
3000 WISCONSIN ST,Oakland,CA,
2700 TRUMAN AV,Oakland,CA,
1900 E 23RD ST,Oakland,CA,
5400 LOCKSLEY AV,Oakland,CA,
4TH ST & FRANKLIN ST,Oakland,CA,
1400 MANDELA PKWY,Oakland,CA,
94TH AV & LAWLOR ST,Oakland,CA,
63RD AV & MACARTHUR BLVD,Oakland,CA,
62ND ST & BAKER ST,Oakland,CA,
GOSS ST & WOOD ST,Oakland,CA,
HEGENBERGER CT & HEGENBERGER LOOP,Oakland,CA,
10600 PONTIAC ST X,Oakland,CA,
51ST ST & CLARKE ST,Oakland,CA,
900 LONGRIDGE RD,Oakland,CA,
GRAND AV & SUNNYSLOPE AV,Oakland,CA,
5600 WALNUT ST,Oakland,CA,
0 EASTMONT TOWN CENTER,Oakland,CA,
1800 BROADWAY,Oakland,CA,
