Address,City,State,Zip
400 7TH ST,Oakland,CA,
2600 73RD AV,Oakland,CA,
DIRECTED PATROL,Oakland,CA,
8400 EDGEWATER DR,Oakland,CA,
500 HEGENBERGER RD,Oakland,CA,
1400 E 31ST ST,Oakland,CA,
14TH ST & BROADWAY,Oakland,CA,
7200 BANCROFT AV,Oakland,CA,
600 15TH ST,Oakland,CA,
200 W MACARTHUR BLVD,Oakland,CA,
300 HAWTHORNE AV,Oakland,CA,
3200 LAKESHORE AV,Oakland,CA,
600 HEGENBERGER RD,Oakland,CA,
4300 TOMPKINS AV,Oakland,CA,
1400 7TH ST,Oakland,CA,
8700 G ST,Oakland,CA,
98TH AV & INTERNATIONAL BLVD,Oakland,CA,
DIRECTIVE PATROL,Oakland,CA,
800 W GRAND AV,Oakland,CA,
2500 HAVENSCOURT BLVD,Oakland,CA,
1400 HARRISON ST,Oakland,CA,
2300 SAN PABLO AV,Oakland,CA,
400 HEGENBERGER RD,Oakland,CA,
100 98TH AV,Oakland,CA,
HIGH ST & INTERNATIONAL BLVD,Oakland,CA,
300 GRAND AV,Oakland,CA,
FRUITVALE AV & INTERNATIONAL BLVD,Oakland,CA,
3900 LOMA VISTA AV,Oakland,CA,
14TH ST & MARTIN LUTHER KING JR WY,Oakland,CA,
9800 INTERNATIONAL BLVD,Oakland,CA,
7000 COLISEUM WY,Oakland,CA,
3000 E 9TH ST,Oakland,CA,
1300 BROADWAY,Oakland,CA,
4100 MASTERSON ST,Oakland,CA,
6900 BANCROFT AV,Oakland,CA,
8400 EDES AV,Oakland,CA,
300 40TH ST,Oakland,CA,
1200 BROADWAY,Oakland,CA,
5100 BROADWAY,Oakland,CA,
19TH ST & TELEGRAPH AV,Oakland,CA,
200 E 18TH ST,Oakland,CA,
4200 INTERNATIONAL BLVD,Oakland,CA,
500 16TH ST,Oakland,CA,
1600 8TH ST,Oakland,CA,
73RD AV & BANCROFT AV,Oakland,CA,
2500 SAN PABLO AV,Oakland,CA,
40TH ST & TELEGRAPH AV,Oakland,CA,
13TH ST & BROADWAY,Oakland,CA,
7500 INTERNATIONAL BLVD,Oakland,CA,
1400 BROADWAY,Oakland,CA,
7100 EDGEWATER DR,Oakland,CA,
W GRAND AV & TELEGRAPH AV,Oakland,CA,
3200 GRAND AV,Oakland,CA,
9800 MACARTHUR BLVD,Oakland,CA,
12TH ST & BROADWAY,Oakland,CA,
3400 SAN PABLO AV,Oakland,CA,
2200 TELEGRAPH AV,Oakland,CA,
73RD AV & INTERNATIONAL BLVD,Oakland,CA,
2700 ALVINGROOM CT,Oakland,CA,
300 E 18TH ST,Oakland,CA,
100 14TH ST,Oakland,CA,
3400 FRUITVALE AV,Oakland,CA,
3400 E 12TH ST,Oakland,CA,
3700 TELEGRAPH AV,Oakland,CA,
32ND ST & SAN PABLO AV,Oakland,CA,
600 14TH ST,Oakland,CA,
2600 E 27TH ST,Oakland,CA,
6900 FOOTHILL BLVD,Oakland,CA,
3200 INTERNATIONAL BLVD,Oakland,CA,
10700 MACARTHUR BLVD,Oakland,CA,
1900 26TH AV,Oakland,CA,
300 105TH AV,Oakland,CA,
1100 34TH ST,Oakland,CA,
10900 INTERNATIONAL BLVD,Oakland,CA,
FRUITVALE AV & MACARTHUR BLVD,Oakland,CA,
1500 JACKSON ST,Oakland,CA,
500 14TH ST,Oakland,CA,
SPECIAL ASSIGNMENT,Oakland,CA,
7600 MACARTHUR BLVD,Oakland,CA,
8400 ENTERPRISE WY,Oakland,CA,
1600 FRUITVALE AV,Oakland,CA,
8100 INTERNATIONAL BLVD,Oakland,CA,
400 W MACARTHUR BLVD,Oakland,CA,
5400 BANCROFT AV,Oakland,CA,
300 13TH ST,Oakland,CA,
32ND ST & MARKET ST,Oakland,CA,
300 12TH ST,Oakland,CA,
2200 INTERNATIONAL BLVD,Oakland,CA,
2700 GARDEN ST,Oakland,CA,
2300 HARRISON ST,Oakland,CA,
700 52ND ST,Oakland,CA,
51ST ST & TELEGRAPH AV,Oakland,CA,
8600 MACARTHUR BLVD,Oakland,CA,
2600 INTERNATIONAL BLVD,Oakland,CA,
FOOTHILL BLVD & FRUITVALE AV,Oakland,CA,
8400 INTERNATIONAL BLVD,Oakland,CA,
8900 INTERNATIONAL BLVD,Oakland,CA,
51ST AV & INTERNATIONAL BLVD,Oakland,CA,
85TH AV & INTERNATIONAL BLVD,Oakland,CA,
3100 COOLIDGE AV,Oakland,CA,
4000 ALAMEDA AV,Oakland,CA,
6600 BANCROFT AV,Oakland,CA,
5400 FOOTHILL BLVD,Oakland,CA,
800 69TH AV,Oakland,CA,
2300 INTERNATIONAL BLVD,Oakland,CA,
700 W MACARTHUR BLVD,Oakland,CA,
3800 HOWE ST,Oakland,CA,
4100 BROADWAY,Oakland,CA,
1000 62ND ST,Oakland,CA,
5400 COLISEUM WY,Oakland,CA,
90TH AV & INTERNATIONAL BLVD,Oakland,CA,
2900 INTERNATIONAL BLVD,Oakland,CA,
MARITIME ST & MIDDLE HARBOR RD,Oakland,CA,
1000 BROADWAY,Oakland,CA,
2400 TELEGRAPH AV,Oakland,CA,
14TH ST & HARRISON ST,Oakland,CA,
700 WILLOW ST,Oakland,CA,
400 14TH ST,Oakland,CA,
1400 JEFFERSON ST,Oakland,CA,
3100 HIGH ST,Oakland,CA,
0 HEGENBERGER RD,Oakland,CA,
200 LEE ST,Oakland,CA,
900 BROADWAY,Oakland,CA,
100 41ST ST,Oakland,CA,
35TH AV & INTERNATIONAL BLVD,Oakland,CA,
W MACARTHUR BLVD & TELEGRAPH AV,Oakland,CA,
200 28TH ST,Oakland,CA,
300 BROADWAY,Oakland,CA,
700 PERALTA ST,Oakland,CA,
EDGEWATER DR & HEGENBERGER RD,Oakland,CA,
8700 HILLSIDE ST,Oakland,CA,
7900 MACARTHUR BLVD,Oakland,CA,
98TH AV & EDES AV,Oakland,CA,
400 FAIRMOUNT AV,Oakland,CA,
10000 MACARTHUR BLVD,Oakland,CA,
HIGH ST & MACARTHUR BLVD,Oakland,CA,
1000 MACARTHUR BLVD,Oakland,CA,
2100 SAN PABLO AV,Oakland,CA,
3600 WEBSTER ST,Oakland,CA,
1600 46TH AV,Oakland,CA,
1400 89TH AV,Oakland,CA,
600 W GRAND AV,Oakland,CA,
3400 FOOTHILL BLVD,Oakland,CA,
82ND AV & INTERNATIONAL BLVD,Oakland,CA,
3500 FRUITVALE AV,Oakland,CA,
1000 26TH ST,Oakland,CA,
3000 E 15TH ST,Oakland,CA,
3500 SAN PABLO AV,Oakland,CA,
5300 INTERNATIONAL BLVD,Oakland,CA,
1700 89TH AV,Oakland,CA,
3300 LAKESHORE AV,Oakland,CA,
1800 EMBARCADERO,Oakland,CA,
1000 7TH ST,Oakland,CA,
5600 BANCROFT AV,Oakland,CA,
1900 SAN PABLO AV,Oakland,CA,
5000 TELEGRAPH AV,Oakland,CA,
2900 FRUITVALE AV,Oakland,CA,
800 34TH ST,Oakland,CA,
300 9TH ST,Oakland,CA,
1700 BROADWAY,Oakland,CA,
106TH AV & MACARTHUR BLVD,Oakland,CA,
14TH ST & JACKSON ST,Oakland,CA,
1400 44TH AV,Oakland,CA,
3200 FOOTHILL BLVD,Oakland,CA,
1900 HARRISON ST,Oakland,CA,
14TH ST & FRANKLIN ST,Oakland,CA,
35TH AV & MACARTHUR BLVD,Oakland,CA,
W GRAND AV & MARKET ST,Oakland,CA,
1000 8TH ST,Oakland,CA,
200 GRAND AV,Oakland,CA,
1400 35TH AV,Oakland,CA,
1500 27TH AV,Oakland,CA,
3700 RUBY ST,Oakland,CA,
37TH AV & INTERNATIONAL BLVD,Oakland,CA,
7700 KRAUSE AV,Oakland,CA,
7800 MACARTHUR BLVD,Oakland,CA,
66TH AV & SAN LEANDRO ST,Oakland,CA,
400 40TH ST,Oakland,CA,
18TH AV & INTERNATIONAL BLVD,Oakland,CA,
INTERNATIONAL BLVD & SEMINARY AV,Oakland,CA,
38TH AV & INTERNATIONAL BLVD,Oakland,CA,
500 40TH ST,Oakland,CA,
800 MEAD AV,Oakland,CA,
2500 INTERNATIONAL BLVD,Oakland,CA,
2400 INTERNATIONAL BLVD,Oakland,CA,
32ND ST & FILBERT ST,Oakland,CA,
400 13TH ST,Oakland,CA,
1400 92ND AV,Oakland,CA,
1900 90TH AV,Oakland,CA,
900 MANDELA PKWY,Oakland,CA,
1200 65TH AV,Oakland,CA,
3400 INTERNATIONAL BLVD,Oakland,CA,
1500 ALICE ST,Oakland,CA,
8600 HILLSIDE ST,Oakland,CA,
6600 MACARTHUR BLVD,Oakland,CA,
2300 E 29TH ST,Oakland,CA,
1600 HIGH ST,Oakland,CA,
700 WEBSTER ST,Oakland,CA,
1900 FOOTHILL BLVD,Oakland,CA,
1500 BROADWAY,Oakland,CA,
4000 PIEDMONT AV,Oakland,CA,
8800 INTERNATIONAL BLVD,Oakland,CA,
2100 INTERNATIONAL BLVD,Oakland,CA,
400 EMBARCADERO WEST,Oakland,CA,
4000 MACARTHUR BLVD,Oakland,CA,
90TH AV & BANCROFT AV,Oakland,CA,
3700 INTERNATIONAL BLVD,Oakland,CA,
3200 SAN PABLO AV,Oakland,CA,
200 HEGENBERGER RD,Oakland,CA,
24TH ST & TELEGRAPH AV,Oakland,CA,
82ND AV & MACARTHUR BLVD,Oakland,CA,
7900 NEY AV,Oakland,CA,
1900 BROADWAY,Oakland,CA,
98TH AV & SAN LEANDRO ST,Oakland,CA,
500 21ST ST,Oakland,CA,
5400 WADEAN PL,Oakland,CA,
7800 INTERNATIONAL BLVD,Oakland,CA,
1700 SEMINARY AV,Oakland,CA,
2000 INTERNATIONAL BLVD,Oakland,CA,
5700 COLLEGE AV,Oakland,CA,
84TH AV & INTERNATIONAL BLVD,Oakland,CA,
2100 HIGH ST,Oakland,CA,
2800 INTERNATIONAL BLVD,Oakland,CA,
3000 WEBSTER ST,Oakland,CA,
3400 HIGH ST,Oakland,CA,
2700 INTERNATIONAL BLVD,Oakland,CA,
600 WILLIAM ST,Oakland,CA,
2300 BROADWAY,Oakland,CA,
800 W MACARTHUR BLVD,Oakland,CA,
45TH ST & TELEGRAPH AV,Oakland,CA,
GRAND AV & PERKINS ST,Oakland,CA,
7TH ST & MANDELA PKWY,Oakland,CA,
5700 ADELINE ST,Oakland,CA,
2700 FRUITVALE AV,Oakland,CA,
17TH ST & BROADWAY,Oakland,CA,
7TH ST & MARKET ST,Oakland,CA,
500 18TH ST,Oakland,CA,
1900 SEMINARY AV,Oakland,CA,
3300 INTERNATIONAL BLVD,Oakland,CA,
45TH ST & MARKET ST,Oakland,CA,
4200 MACARTHUR BLVD,Oakland,CA,
MACARTHUR BLVD & SEMINARY AV,Oakland,CA,
3800 COOLIDGE AV,Oakland,CA,
500 WILLIAM ST,Oakland,CA,
500 24TH ST,Oakland,CA,
9700 INTERNATIONAL BLVD,Oakland,CA,
14TH ST & JEFFERSON ST,Oakland,CA,
3100 INTERNATIONAL BLVD,Oakland,CA,
22ND AV & INTERNATIONAL BLVD,Oakland,CA,
3000 FRUITVALE AV,Oakland,CA,
900 66TH AV,Oakland,CA,
4100 PIEDMONT AV,Oakland,CA,
100 CATRON DR,Oakland,CA,
1900 MOUNTAIN BLVD,Oakland,CA,
100 GRAND AV,Oakland,CA,
1200 INTERNATIONAL BLVD,Oakland,CA,
42ND AV & INTERNATIONAL BLVD,Oakland,CA,
5100 FOOTHILL BLVD,Oakland,CA,
2000 38TH AV,Oakland,CA,
27TH AV & INTERNATIONAL BLVD,Oakland,CA,
23RD AV & INTERNATIONAL BLVD,Oakland,CA,
2300 FRUITVALE AV,Oakland,CA,
200 2ND ST,Oakland,CA,
7TH ST & MARITIME ST,Oakland,CA,
3400 SALISBURY ST,Oakland,CA,
5300 COLLEGE AV,Oakland,CA,
800 32ND ST,Oakland,CA,
2400 MACARTHUR BLVD,Oakland,CA,
3100 FRUITVALE AV,Oakland,CA,
W MACARTHUR BLVD & PIEDMONT AV,Oakland,CA,
200 40TH STREET WY,Oakland,CA,
300 8TH ST,Oakland,CA,
2100 57TH AV,Oakland,CA,
4000 INTERNATIONAL BLVD,Oakland,CA,
3100 35TH AV,Oakland,CA,
34TH ST & SAN PABLO AV,Oakland,CA,
1700 27TH AV,Oakland,CA,
FOOTHILL BLVD & HIGH ST,Oakland,CA,
400 PERKINS ST,Oakland,CA,
5100 TELEGRAPH AV,Oakland,CA,
200 14TH ST,Oakland,CA,
14TH ST & WEBSTER ST,Oakland,CA,
1400 FRUITVALE AV,Oakland,CA,
200 MACARTHUR BLVD,Oakland,CA,
7600 LOCKWOOD ST,Oakland,CA,
600 23RD ST,Oakland,CA,
900 57TH ST,Oakland,CA,
9200 HILLSIDE ST,Oakland,CA,
2200 E 15TH ST,Oakland,CA,
23RD ST & TELEGRAPH AV,Oakland,CA,
5300 TELEGRAPH AV,Oakland,CA,
29TH AV & INTERNATIONAL BLVD,Oakland,CA,
10600 MACARTHUR BLVD,Oakland,CA,
2500 35TH AV,Oakland,CA,
1800 PARK BLVD,Oakland,CA,
300 W MACARTHUR BLVD,Oakland,CA,
1000 81ST AV,Oakland,CA,
600 31ST ST,Oakland,CA,
35TH AV & FOOTHILL BLVD,Oakland,CA,
1200 STANFORD AV,Oakland,CA,
3800 TELEGRAPH AV,Oakland,CA,
98TH AV & BANCROFT AV,Oakland,CA,
1800 14TH ST,Oakland,CA,
900 MARKET ST,Oakland,CA,
73RD AV & MACARTHUR BLVD,Oakland,CA,
8000 MACARTHUR BLVD,Oakland,CA,
500 32ND ST,Oakland,CA,
14TH ST & PERALTA ST,Oakland,CA,
900 53RD ST,Oakland,CA,
EDES AV & HEGENBERGER RD,Oakland,CA,
2700 RITCHIE ST,Oakland,CA,
25TH AV & INTERNATIONAL BLVD,Oakland,CA,
1700 28TH AV,Oakland,CA,
7400 WELD ST,Oakland,CA,
2300 98TH AV,Oakland,CA,
1500 LAKESIDE DR,Oakland,CA,
2400 FRUITVALE AV,Oakland,CA,
21ST ST & MARKET ST,Oakland,CA,
1200 99TH AV,Oakland,CA,
3600 INTERNATIONAL BLVD,Oakland,CA,
10100 FOOTHILL BLVD,Oakland,CA,
1200 LAKESHORE AV,Oakland,CA,
1100 65TH AV,Oakland,CA,
3100 FILBERT ST,Oakland,CA,
W MACARTHUR BLVD & MARTIN LUTHER KING JR WY,Oakland,CA,
100TH AV & INTERNATIONAL BLVD,Oakland,CA,
W MACARTHUR BLVD & MARKET ST,Oakland,CA,
1400 74TH AV,Oakland,CA,
11TH ST & BROADWAY,Oakland,CA,
900 APGAR ST,Oakland,CA,
300 14TH ST,Oakland,CA,
6400 INTERNATIONAL BLVD,Oakland,CA,
3800 39TH AV,Oakland,CA,
27TH ST & TELEGRAPH AV,Oakland,CA,
4100 PENNIMAN AV,Oakland,CA,
2200 SAN PABLO AV,Oakland,CA,
800 ISABELLA ST,Oakland,CA,
500 28TH ST,Oakland,CA,
90TH AV & MACARTHUR BLVD,Oakland,CA,
55TH ST & TELEGRAPH AV,Oakland,CA,
GRAND AV & LAKE PARK AV,Oakland,CA,
1000 AILEEN ST,Oakland,CA,
3300 E 12TH ST,Oakland,CA,
20TH ST & BROADWAY,Oakland,CA,
2900 HIGH ST,Oakland,CA,
3000 BROADWAY,Oakland,CA,
94TH AV & INTERNATIONAL BLVD,Oakland,CA,
9100 INTERNATIONAL BLVD,Oakland,CA,
24TH ST & CHESTNUT ST,Oakland,CA,
2000 MOUNTAIN BLVD,Oakland,CA,
1600 35TH AV,Oakland,CA,
1600 BROADWAY,Oakland,CA,
1100 82ND AV,Oakland,CA,
1200 79TH AV,Oakland,CA,
98TH AV & MACARTHUR BLVD,Oakland,CA,
2900 SCHOOL ST,Oakland,CA,
2300 TELEGRAPH AV,Oakland,CA,
7200 SAN LEANDRO ST,Oakland,CA,
800 ATHENS AV,Oakland,CA,
38TH AV & FOOTHILL BLVD,Oakland,CA,
92ND AV & INTERNATIONAL BLVD,Oakland,CA,
2600 ALVINGROOM CT,Oakland,CA,
19TH AV & INTERNATIONAL BLVD,Oakland,CA,
800 37TH ST,Oakland,CA,
14TH ST & MADISON ST,Oakland,CA,
2500 FOOTHILL BLVD,Oakland,CA,
900 FALLON ST,Oakland,CA,
300 HEGENBERGER RD,Oakland,CA,
4500 GILBERT ST,Oakland,CA,
1000 E 12TH ST,Oakland,CA,
1300 66TH AV,Oakland,CA,
8300 INTERNATIONAL BLVD,Oakland,CA,
200 ATHOL AV,Oakland,CA,
6200 INTERNATIONAL BLVD,Oakland,CA,
0 JACK LONDON SQ,Oakland,CA,
2700 FOOTHILL BLVD,Oakland,CA,
6200 HILTON ST,Oakland,CA,
1000 72ND AV,Oakland,CA,
40TH ST & MARTIN LUTHER KING JR WY,Oakland,CA,
5000 INTERNATIONAL BLVD,Oakland,CA,
51ST ST & BROADWAY,Oakland,CA,
4900 TELEGRAPH AV,Oakland,CA,
800 MILTON ST,Oakland,CA,
300 EUCLID AV,Oakland,CA,
3200 MARKET ST,Oakland,CA,
3000 LOGAN ST,Oakland,CA,
7700 MACARTHUR BLVD,Oakland,CA,
2200 MARTIN LUTHER KING JR WY,Oakland,CA,
600 BELLEVUE AV,Oakland,CA,
1400 SEMINARY AV,Oakland,CA,
2700 TELEGRAPH AV,Oakland,CA,
1500 23RD AV,Oakland,CA,
89TH AV & INTERNATIONAL BLVD,Oakland,CA,
2300 E 22ND ST,Oakland,CA,
5300 BANCROFT AV,Oakland,CA,
1400 HIGH ST,Oakland,CA,
900 84TH AV,Oakland,CA,
7400 LOCKWOOD ST,Oakland,CA,
20TH AV & INTERNATIONAL BLVD,Oakland,CA,
3800 INTERNATIONAL BLVD,Oakland,CA,
1300 102ND AV,Oakland,CA,
1400 85TH AV,Oakland,CA,
2000 MARKET ST,Oakland,CA,
20TH ST & TELEGRAPH AV,Oakland,CA,
3800 HANLY RD,Oakland,CA,
88TH AV & INTERNATIONAL BLVD,Oakland,CA,
6000 INTERNATIONAL BLVD,Oakland,CA,
500 31ST ST,Oakland,CA,
5600 COLLEGE AV,Oakland,CA,
800 56TH ST,Oakland,CA,
GRAND AV & HARRISON ST,Oakland,CA,
4200 FOOTHILL BLVD,Oakland,CA,
2600 FRUITVALE AV,Oakland,CA,
3600 E 16TH ST,Oakland,CA,
1300 81ST AV,Oakland,CA,
36TH AV & INTERNATIONAL BLVD,Oakland,CA,
E 27TH ST & FRUITVALE AV,Oakland,CA,
4100 REDWOOD RD,Oakland,CA,
3300 GRAND AV,Oakland,CA,
1200 84TH AV,Oakland,CA,
5900 MACARTHUR BLVD,Oakland,CA,
300 LESTER AV,Oakland,CA,
3400 DAVIS ST,Oakland,CA,
5TH ST & BROADWAY,Oakland,CA,
500 25TH ST,Oakland,CA,
300 MACARTHUR BLVD,Oakland,CA,
BROADWAY & W MACARTHUR BLVD,Oakland,CA,
7300 BANCROFT AV,Oakland,CA,
900 72ND AV,Oakland,CA,
27TH ST & MARTIN LUTHER KING JR WY,Oakland,CA,
11800 SKYLINE BLVD,Oakland,CA,
5900 INTERNATIONAL BLVD,Oakland,CA,
1400 84TH AV,Oakland,CA,
41ST ST & BROADWAY,Oakland,CA,
200 FAIRMOUNT AV,Oakland,CA,
6800 HAWLEY ST,Oakland,CA,
2100 BROADWAY,Oakland,CA,
1300 PERALTA ST,Oakland,CA,
400 15TH ST,Oakland,CA,
98TH AV & BIGGE AV,Oakland,CA,
4500 INTERNATIONAL BLVD,Oakland,CA,
600 W MACARTHUR BLVD,Oakland,CA,
3000 HIGH ST,Oakland,CA,
1200 98TH AV,Oakland,CA,
400 8TH ST,Oakland,CA,
1900 81ST AV,Oakland,CA,
2200 BROADWAY,Oakland,CA,
100 EMBARCADERO WEST,Oakland,CA,
W GRAND AV & MARTIN LUTHER KING JR WY,Oakland,CA,
9100 EDES AV,Oakland,CA,
6400 FOOTHILL BLVD,Oakland,CA,
3700 BROADWAY,Oakland,CA,
1900 INTERNATIONAL BLVD,Oakland,CA,
7000 MACARTHUR BLVD,Oakland,CA,
7TH ST & ADELINE ST,Oakland,CA,
4400 TELEGRAPH AV,Oakland,CA,
3500 GALINDO ST,Oakland,CA,
1300 94TH AV,Oakland,CA,
1100 100TH AV,Oakland,CA,
3500 DIMOND AV,Oakland,CA,
34TH AV & INTERNATIONAL BLVD,Oakland,CA,
4600 FOOTHILL BLVD,Oakland,CA,
85TH AV & SAN LEANDRO ST,Oakland,CA,
0 10TH ST,Oakland,CA,
1100 3RD AV,Oakland,CA,
800 FRANKLIN ST,Oakland,CA,
29TH ST & MARTIN LUTHER KING JR WY,Oakland,CA,
1500 INTERNATIONAL BLVD,Oakland,CA,
BANCROFT AV & HAVENSCOURT BLVD,Oakland,CA,
12200 SKYLINE BLVD,Oakland,CA,
8300 EDES AV,Oakland,CA,
LAKE PARK AV & LAKESHORE AV,Oakland,CA,
79TH AV & INTERNATIONAL BLVD,Oakland,CA,
W GRAND AV & SAN PABLO AV,Oakland,CA,
7100 INTERNATIONAL BLVD,Oakland,CA,
600 DOUGLAS AV,Oakland,CA,
3500 INTERNATIONAL BLVD,Oakland,CA,
2500 E 16TH ST,Oakland,CA,
2600 HAVENSCOURT BLVD,Oakland,CA,
1700 EMBARCADERO,Oakland,CA,
12TH ST & FRANKLIN ST,Oakland,CA,
1700 CASTRO ST,Oakland,CA,
400 29TH ST,Oakland,CA,
4700 FOOTHILL BLVD,Oakland,CA,
14TH ST & CLAY ST,Oakland,CA,
5800 INTERNATIONAL BLVD,Oakland,CA,
1600 51ST AV,Oakland,CA,
104TH AV & INTERNATIONAL BLVD,Oakland,CA,
400 GRAND AV,Oakland,CA,
2200 62ND AV,Oakland,CA,
300 HANOVER AV,Oakland,CA,
1800 27TH AV,Oakland,CA,
1700 MARKET ST,Oakland,CA,
40TH ST & BROADWAY,Oakland,CA,
4300 BROADWAY,Oakland,CA,
3800 MARKET ST,Oakland,CA,
40TH AV & INTERNATIONAL BLVD,Oakland,CA,
1300 INTERNATIONAL BLVD,Oakland,CA,
CLAREMONT AV & COLLEGE AV,Oakland,CA,
1400 INTERNATIONAL BLVD,Oakland,CA,
1100 70TH AV,Oakland,CA,
3100 CUTHBERT AV,Oakland,CA,
3800 MAYBELLE AV,Oakland,CA,
300 11TH ST,Oakland,CA,
1700 MIDDLE HARBOR RD,Oakland,CA,
2100 90TH AV,Oakland,CA,
4800 TELEGRAPH AV,Oakland,CA,
2600 77TH AV,Oakland,CA,
2200 96TH AV,Oakland,CA,
2000 MACARTHUR BLVD,Oakland,CA,
2900 BROADWAY,Oakland,CA,
500 8TH ST,Oakland,CA,
5600 TELEGRAPH AV,Oakland,CA,
900 W MACARTHUR BLVD,Oakland,CA,
400 38TH ST,Oakland,CA,
1100 8TH ST,Oakland,CA,
1500 FRUITVALE AV,Oakland,CA,
1800 10TH AV,Oakland,CA,
2200 E 20TH ST,Oakland,CA,
23RD ST & SAN PABLO AV,Oakland,CA,
1800 E 25TH ST,Oakland,CA,
1500 24TH AV,Oakland,CA,
500 W GRAND AV,Oakland,CA,
2900 MACARTHUR BLVD,Oakland,CA,
10100 INTERNATIONAL BLVD,Oakland,CA,
400 E 18TH ST,Oakland,CA,
3800 MARTIN LUTHER KING JR WY,Oakland,CA,
5400 COLLEGE AV,Oakland,CA,
55TH AV & INTERNATIONAL BLVD,Oakland,CA,
4100 TELEGRAPH AV,Oakland,CA,
1700 84TH AV,Oakland,CA,
1700 12TH ST,Oakland,CA,
7TH ST & BROADWAY,Oakland,CA,
80TH AV & INTERNATIONAL BLVD,Oakland,CA,
2600 66TH AV,Oakland,CA,
4000 TELEGRAPH AV,Oakland,CA,
800 INTERNATIONAL BLVD,Oakland,CA,
400 SANTA CLARA AV,Oakland,CA,
1500 105TH AV,Oakland,CA,
4700 MACARTHUR BLVD,Oakland,CA,
4100 INTERNATIONAL BLVD,Oakland,CA,
2500 FRUITVALE AV,Oakland,CA,
3600 BROADWAY,Oakland,CA,
2600 PARKER AV,Oakland,CA,
3100 TELEGRAPH AV,Oakland,CA,
3300 TELEGRAPH AV,Oakland,CA,
HIGH ST & SAN LEANDRO ST,Oakland,CA,
2500 26TH AV,Oakland,CA,
1400 8TH AV,Oakland,CA,
2100 35TH AV,Oakland,CA,
1000 100TH AV,Oakland,CA,
8TH ST & BROADWAY,Oakland,CA,
8TH ST & ADELINE ST,Oakland,CA,
1200 37TH AV,Oakland,CA,
E 18TH ST & 3RD AV,Oakland,CA,
600 16TH ST,Oakland,CA,
2200 84TH AV,Oakland,CA,
200 3RD ST,Oakland,CA,
3000 RICHMOND BLVD,Oakland,CA,
52ND ST & SHATTUCK AV,Oakland,CA,
1700 TELEGRAPH AV,Oakland,CA,
2100 89TH AV,Oakland,CA,
BROADWAY & GRAND AV,Oakland,CA,
25TH ST & TELEGRAPH AV,Oakland,CA,
2200 MACARTHUR BLVD,Oakland,CA,
83RD AV & INTERNATIONAL BLVD,Oakland,CA,
2400 34TH AV,Oakland,CA,
200 10TH ST,Oakland,CA,
0 FRANK H OGAWA PLZ,Oakland,CA,
3000 INTERNATIONAL BLVD,Oakland,CA,
5000 MACARTHUR BLVD,Oakland,CA,
3700 39TH AV,Oakland,CA,
2500 CHURCH ST,Oakland,CA,
1900 82ND AV,Oakland,CA,
35TH ST & SAN PABLO AV,Oakland,CA,
1100 INTERNATIONAL BLVD,Oakland,CA,
49TH ST & TELEGRAPH AV,Oakland,CA,
103RD AV & INTERNATIONAL BLVD,Oakland,CA,
300 CHESTNUT ST,Oakland,CA,
200 13TH ST,Oakland,CA,
1500 39TH AV,Oakland,CA,
9900 MACARTHUR BLVD,Oakland,CA,
2800 TELEGRAPH AV,Oakland,CA,
3400 PAXTON AV,Oakland,CA,
5300 FOOTHILL BLVD,Oakland,CA,
3700 ALAMEDA AV,Oakland,CA,
2100 51ST AV,Oakland,CA,
2300 92ND AV,Oakland,CA,
1200 26TH AV,Oakland,CA,
28TH AV & INTERNATIONAL BLVD,Oakland,CA,
1600 12TH ST,Oakland,CA,
1000 76TH AV,Oakland,CA,
1700 11TH ST,Oakland,CA,
2700 79TH AV,Oakland,CA,
27TH ST & BROADWAY,Oakland,CA,
100 BAY PL,Oakland,CA,
45TH AV & INTERNATIONAL BLVD,Oakland,CA,
600 SYCAMORE ST,Oakland,CA,
1000 53RD ST,Oakland,CA,
8200 INTERNATIONAL BLVD,Oakland,CA,
14TH AV & INTERNATIONAL BLVD,Oakland,CA,
41ST ST & PIEDMONT AV,Oakland,CA,
3200 MACARTHUR BLVD,Oakland,CA,
100 FRISBIE ST,Oakland,CA,
1100 75TH AV,Oakland,CA,
34TH ST & PERALTA ST,Oakland,CA,
44TH AV & INTERNATIONAL BLVD,Oakland,CA,
8000 GREENRIDGE DR,Oakland,CA,
5700 FOOTHILL BLVD,Oakland,CA,
61ST ST & ADELINE ST,Oakland,CA,
4300 TELEGRAPH AV,Oakland,CA,
900 40TH ST,Oakland,CA,
2500 MARTIN LUTHER KING JR WY,Oakland,CA,
GRAND AV & MACARTHUR BLVD,Oakland,CA,
2300 FOOTHILL BLVD,Oakland,CA,
4800 DAISY ST,Oakland,CA,
4300 INTERNATIONAL BLVD,Oakland,CA,
2600 26TH AV,Oakland,CA,
66TH AV & INTERNATIONAL BLVD,Oakland,CA,
1400 88TH AV,Oakland,CA,
900 60TH ST,Oakland,CA,
2400 90TH AV,Oakland,CA,
1300 CLAY ST,Oakland,CA,
9700 EDES AV,Oakland,CA,
10TH ST & MANDELA PKWY,Oakland,CA,
1300 80TH AV,Oakland,CA,
7800 NEY AV,Oakland,CA,
500 BELLEVUE AV,Oakland,CA,
300 VERNON ST,Oakland,CA,
1400 73RD AV,Oakland,CA,
200 VICTORY CT,Oakland,CA,
600 37TH ST,Oakland,CA,
5400 INTERNATIONAL BLVD,Oakland,CA,
3700 GRAND AV,Oakland,CA,
15TH ST & JEFFERSON ST,Oakland,CA,
42ND ST & TELEGRAPH AV,Oakland,CA,
DISTRICT 2,Oakland,CA,
1000 71ST AV,Oakland,CA,
46TH AV & INTERNATIONAL BLVD,Oakland,CA,
9900 99TH AV CT,Oakland,CA,
5000 CONGRESS AV,Oakland,CA,
55TH ST & MARTIN LUTHER KING JR WY,Oakland,CA,
1900 PARK BLVD,Oakland,CA,
400 W GRAND AV,Oakland,CA,
98TH AV & C ST,Oakland,CA,
1800 28TH AV,Oakland,CA,
3RD ST & BROADWAY,Oakland,CA,
400 DOUGLAS AV,Oakland,CA,
34TH ST & TELEGRAPH AV,Oakland,CA,
2600 79TH AV,Oakland,CA,
1900 106TH AV,Oakland,CA,
10500 INTERNATIONAL BLVD,Oakland,CA,
3800 WEST ST,Oakland,CA,
1700 INTERNATIONAL BLVD,Oakland,CA,
5900 HAYES ST,Oakland,CA,
3000 MACARTHUR BLVD,Oakland,CA,
2500 E 12TH ST,Oakland,CA,
1500 35TH AV,Oakland,CA,
500 GRAND AV,Oakland,CA,
3300 FOOTHILL BLVD,Oakland,CA,
FOOTHILL BLVD & HAVENSCOURT BLVD,Oakland,CA,
200 FRANK H OGAWA PLZ,Oakland,CA,
15TH ST & WEBSTER ST,Oakland,CA,
8100 MACARTHUR BLVD,Oakland,CA,
2400 SEMINARY AV,Oakland,CA,
9800 SUNNYSIDE ST,Oakland,CA,
1500 36TH AV,Oakland,CA,
3900 BROADWAY,Oakland,CA,
1500 JEFFERSON ST,Oakland,CA,
400 17TH ST,Oakland,CA,
10TH ST & BROADWAY,Oakland,CA,
2600 38TH AV,Oakland,CA,
90TH AV & OLIVE ST,Oakland,CA,
4300 PIEDMONT AV,Oakland,CA,
500 12TH ST,Oakland,CA,
13TH ST & FRANKLIN ST,Oakland,CA,
1500 38TH AV,Oakland,CA,
1500 MADISON ST,Oakland,CA,
300 20TH ST,Oakland,CA,
2600 TELEGRAPH AV,Oakland,CA,
19TH ST & SAN PABLO AV,Oakland,CA,
400 105TH AV,Oakland,CA,
W GRAND AV & MANDELA PKWY,Oakland,CA,
3900 TELEGRAPH AV,Oakland,CA,
2000 84TH AV,Oakland,CA,
700 ADELINE ST,Oakland,CA,
COOLIDGE AV & MACARTHUR BLVD,Oakland,CA,
6400 TELEGRAPH AV,Oakland,CA,
2500 10TH AV,Oakland,CA,
17TH AV & INTERNATIONAL BLVD,Oakland,CA,
W MACARTHUR BLVD & WEST ST,Oakland,CA,
15TH ST & BROADWAY,Oakland,CA,
2600 74TH AV,Oakland,CA,
1300 52ND AV,Oakland,CA,
1400 87TH AV,Oakland,CA,
MACARTHUR BLVD & PARK BLVD,Oakland,CA,
9800 BANCROFT AV,Oakland,CA,
52ND AV & INTERNATIONAL BLVD,Oakland,CA,
1200 66TH AV,Oakland,CA,
FOOTHILL BLVD & SEMINARY AV,Oakland,CA,
87TH AV & INTERNATIONAL BLVD,Oakland,CA,
1900 FILBERT ST,Oakland,CA,
800 53RD ST,Oakland,CA,
1400 50TH AV,Oakland,CA,
6600 INTERNATIONAL BLVD,Oakland,CA,
99TH AV & INTERNATIONAL BLVD,Oakland,CA,
1700 82ND AV,Oakland,CA,
77TH AV & BANCROFT AV,Oakland,CA,
1500 MARKET ST,Oakland,CA,
2300 MARTIN LUTHER KING JR WY,Oakland,CA,
2200 82ND AV,Oakland,CA,
1400 82ND AV,Oakland,CA,
1400 46TH AV,Oakland,CA,
500 59TH ST,Oakland,CA,
5000 FAIRFAX AV,Oakland,CA,
2000 80TH AV,Oakland,CA,
19TH ST & BROADWAY,Oakland,CA,
2400 COOLIDGE AV,Oakland,CA,
1700 8TH ST,Oakland,CA,
3600 DIMOND AV,Oakland,CA,
3600 MAYBELLE AV,Oakland,CA,
1800 92ND AV,Oakland,CA,
1000 54TH ST,Oakland,CA,
6200 SAN PABLO AV,Oakland,CA,
3200 ADELINE ST,Oakland,CA,
5300 CLAREMONT AV,Oakland,CA,
1600 85TH AV,Oakland,CA,
21ST AV & INTERNATIONAL BLVD,Oakland,CA,
8TH ST & CAMPBELL ST,Oakland,CA,
1100 BROADWAY,Oakland,CA,
900 FRANKLIN ST,Oakland,CA,
1600 72ND AV,Oakland,CA,
2200 HIGH ST,Oakland,CA,
7000 BANCROFT AV,Oakland,CA,
400 27TH ST,Oakland,CA,
2200 90TH AV,Oakland,CA,
13TH ST & WEBSTER ST,Oakland,CA,
9200 INTERNATIONAL BLVD,Oakland,CA,
SPEC ASSIGN,Oakland,CA,
1200 8TH ST,Oakland,CA,
2700 76TH AV,Oakland,CA,
900 14TH ST,Oakland,CA,
81ST AV & INTERNATIONAL BLVD,Oakland,CA,
1600 70TH AV,Oakland,CA,
2800 E 16TH ST,Oakland,CA,
1200 73RD AV,Oakland,CA,
9600 E ST,Oakland,CA,
13800 E 14TH ST,Oakland,CA,
2300 HUMBOLDT AV,Oakland,CA,
1400 ADELINE ST,Oakland,CA,
1300 7TH ST,Oakland,CA,
3400 TELEGRAPH AV,Oakland,CA,
39TH AV & INTERNATIONAL BLVD,Oakland,CA,
105TH AV & INTERNATIONAL BLVD,Oakland,CA,
5200 TELEGRAPH AV,Oakland,CA,
78TH AV & BANCROFT AV,Oakland,CA,
3500 FOOTHILL BLVD,Oakland,CA,
14TH ST & ALICE ST,Oakland,CA,
4700 TELEGRAPH AV,Oakland,CA,
3600 TELEGRAPH AV,Oakland,CA,
500 19TH ST,Oakland,CA,
50TH AV & INTERNATIONAL BLVD,Oakland,CA,
BELLEVUE AV & GRAND AV,Oakland,CA,
7700 EDGEWATER DR,Oakland,CA,
1300 53RD AV,Oakland,CA,
1300 64TH AV,Oakland,CA,
1ST AV & INTERNATIONAL BLVD,Oakland,CA,
2900 WEST ST,Oakland,CA,
5200 FOOTHILL BLVD,Oakland,CA,
2800 MACARTHUR BLVD,Oakland,CA,
500 LAKE PARK AV,Oakland,CA,
2000 36TH AV,Oakland,CA,
1000 63RD ST,Oakland,CA,
3000 FILBERT ST,Oakland,CA,
500 98TH AV,Oakland,CA,
1100 98TH AV,Oakland,CA,
1400 81ST AV,Oakland,CA,
5100 INTERNATIONAL BLVD,Oakland,CA,
3900 INTERNATIONAL BLVD,Oakland,CA,
51ST ST & SHATTUCK AV,Oakland,CA,
4200 PIEDMONT AV,Oakland,CA,
48TH AV & INTERNATIONAL BLVD,Oakland,CA,
900 63RD ST,Oakland,CA,
0 MOSS AV,Oakland,CA,
1800 INTERNATIONAL BLVD,Oakland,CA,
8500 INTERNATIONAL BLVD,Oakland,CA,
2800 HIGH ST,Oakland,CA,
1000 98TH AV,Oakland,CA,
4400 INTERNATIONAL BLVD,Oakland,CA,
ALCATRAZ AV & TELEGRAPH AV,Oakland,CA,
24TH ST & SAN PABLO AV,Oakland,CA,
82ND AV & BANCROFT AV,Oakland,CA,
900 INTERNATIONAL BLVD,Oakland,CA,
1900 FRUITVALE AV,Oakland,CA,
1600 92ND AV,Oakland,CA,
1000 59TH ST,Oakland,CA,
17TH ST & TELEGRAPH AV,Oakland,CA,
2000 HARRINGTON AV,Oakland,CA,
4700 INTERNATIONAL BLVD,Oakland,CA,
3500 LYON AV,Oakland,CA,
6500 TELEGRAPH AV,Oakland,CA,
17TH ST & CASTRO ST,Oakland,CA,
400 BELLEVUE AV,Oakland,CA,
65TH AV & INTERNATIONAL BLVD,Oakland,CA,
69TH AV & INTERNATIONAL BLVD,Oakland,CA,
105TH AV & EDES AV,Oakland,CA,
400 LAKE PARK AV,Oakland,CA,
98TH AV & GOLF LINKS RD,Oakland,CA,
1500 MIDDLE HARBOR RD,Oakland,CA,
2800 NICOL AV,Oakland,CA,
700 34TH ST,Oakland,CA,
8TH ST & WEBSTER ST,Oakland,CA,
1700 HIGH ST,Oakland,CA,
800 7TH AV,Oakland,CA,
100 FRANK H OGAWA PLZ,Oakland,CA,
800 81ST AV,Oakland,CA,
800 60TH ST,Oakland,CA,
2600 RITCHIE ST,Oakland,CA,
700 INTERNATIONAL BLVD,Oakland,CA,
900 69TH AV,Oakland,CA,
1400 20TH AV,Oakland,CA,
1000 INTERNATIONAL BLVD,Oakland,CA,
55TH AV & FOOTHILL BLVD,Oakland,CA,
2200 85TH AV,Oakland,CA,
7700 HILLSIDE ST,Oakland,CA,
1900 42ND AV,Oakland,CA,
1400 36TH AV,Oakland,CA,
400 28TH ST,Oakland,CA,
1900 AUSEON AV,Oakland,CA,
10100 MACARTHUR BLVD,Oakland,CA,
BALDWIN ST & HEGENBERGER RD,Oakland,CA,
900 105TH AV,Oakland,CA,
5TH AV & INTERNATIONAL BLVD,Oakland,CA,
1600 81ST AV,Oakland,CA,
1900 21ST AV,Oakland,CA,
27TH ST & NORTHGATE AV,Oakland,CA,
2300 HIGH ST,Oakland,CA,
1400 ALICE ST,Oakland,CA,
200 BROADWAY,Oakland,CA,
2900 MCCLURE ST,Oakland,CA,
500 23RD ST,Oakland,CA,
100 17TH ST,Oakland,CA,
2000 TELEGRAPH AV,Oakland,CA,
1400 HAVENSCOURT BLVD,Oakland,CA,
2000 E 21ST ST,Oakland,CA,
26TH AV & FOOTHILL BLVD,Oakland,CA,
3100 SAN PABLO AV,Oakland,CA,
2500 HIGH ST,Oakland,CA,
1900 COURTLAND AV,Oakland,CA,
44TH ST & TELEGRAPH AV,Oakland,CA,
600 E 18TH ST,Oakland,CA,
DIST 2,Oakland,CA,
1500 80TH AV,Oakland,CA,
5100 BANCROFT AV,Oakland,CA,
76TH AV & MACARTHUR BLVD,Oakland,CA,
1300 98TH AV,Oakland,CA,
2200 E 19TH ST,Oakland,CA,
3600 MARTIN LUTHER KING JR WY,Oakland,CA,
1300 E 27TH ST,Oakland,CA,
2000 85TH AV,Oakland,CA,
E 12TH ST & 22ND AV,Oakland,CA,
1200 32ND ST,Oakland,CA,
1400 38TH AV,Oakland,CA,
2400 66TH AV,Oakland,CA,
E 12TH ST & FRUITVALE AV,Oakland,CA,
0 AIRPORT DR,Oakland,CA,
7200 INTERNATIONAL BLVD,Oakland,CA,
3800 LUSK ST,Oakland,CA,
800 30TH ST,Oakland,CA,
28TH ST & MARTIN LUTHER KING JR WY,Oakland,CA,
900 UNION ST,Oakland,CA,
2900 LINDEN ST,Oakland,CA,
1700 26TH AV,Oakland,CA,
E 18TH ST & LAKESHORE AV,Oakland,CA,
2600 FOOTHILL BLVD,Oakland,CA,
300 23RD AV,Oakland,CA,
400 12TH ST,Oakland,CA,
900 70TH AV,Oakland,CA,
8000 INTERNATIONAL BLVD,Oakland,CA,
9200 SUNNYSIDE ST,Oakland,CA,
2200 E 25TH ST,Oakland,CA,
800 45TH ST,Oakland,CA,
0 MACARTHUR BLVD,Oakland,CA,
300 49TH ST,Oakland,CA,
7200 MACARTHUR BLVD,Oakland,CA,
2200 48TH AV,Oakland,CA,
HAMILTON ST & HEGENBERGER RD,Oakland,CA,
2600 35TH AV,Oakland,CA,
9500 INTERNATIONAL BLVD,Oakland,CA,
1800 38TH AV,Oakland,CA,
9400 INTERNATIONAL BLVD,Oakland,CA,
1800 FRUITVALE AV,Oakland,CA,
7700 NEY AV,Oakland,CA,
1200 94TH AV,Oakland,CA,
1300 99TH AV,Oakland,CA,
1000 55TH ST,Oakland,CA,
1500 6TH AV,Oakland,CA,
BANCROFT AV & HIGH ST,Oakland,CA,
400 25TH ST,Oakland,CA,
48TH ST & TELEGRAPH AV,Oakland,CA,
3300 FRUITVALE AV,Oakland,CA,
27TH AV & FOOTHILL BLVD,Oakland,CA,
1400 FRANKLIN ST,Oakland,CA,
W MACARTHUR BLVD & WEBSTER ST,Oakland,CA,
41ST AV & INTERNATIONAL BLVD,Oakland,CA,
7000 LOCKWOOD ST,Oakland,CA,
6200 HAYES ST,Oakland,CA,
1000 75TH AV,Oakland,CA,
700 MARKET ST,Oakland,CA,
2200 10TH AV,Oakland,CA,
1500 79TH AV,Oakland,CA,
2100 34TH AV,Oakland,CA,
1200 62ND AV,Oakland,CA,
100 MONTECITO AV,Oakland,CA,
2100 FRUITVALE AV,Oakland,CA,
600 GRAND AV,Oakland,CA,
800 MANDELA PKWY,Oakland,CA,
1900 84TH AV,Oakland,CA,
1400 37TH AV,Oakland,CA,
300 15TH ST,Oakland,CA,
1700 69TH AV,Oakland,CA,
400 HALE AV,Oakland,CA,
2600 HUMBOLDT AV,Oakland,CA,
500 MERRITT AV,Oakland,CA,
400 STATEN AV,Oakland,CA,
2100 SEMINARY AV,Oakland,CA,
41ST ST & TELEGRAPH AV,Oakland,CA,
2400 WEBSTER ST,Oakland,CA,
300 17TH ST,Oakland,CA,
7TH ST & MIDDLE HARBOR RD,Oakland,CA,
12TH ST & WEBSTER ST,Oakland,CA,
1400 JACKSON ST,Oakland,CA,
1400 8TH ST,Oakland,CA,
5900 TELEGRAPH AV,Oakland,CA,
3000 BLOSSOM ST,Oakland,CA,
100TH AV & MACARTHUR BLVD,Oakland,CA,
8900 LAWLOR ST,Oakland,CA,
400 BROADWAY,Oakland,CA,
4500 TELEGRAPH AV,Oakland,CA,
LAKESHORE AV & MANDANA BLVD,Oakland,CA,
4000 LYON AV,Oakland,CA,
7000 LACEY AV,Oakland,CA,
2300 E 17TH ST,Oakland,CA,
200 E 12TH ST,Oakland,CA,
1100 29TH AV,Oakland,CA,
100 HEGENBERGER RD,Oakland,CA,
2200 35TH AV,Oakland,CA,
9900 INTERNATIONAL BLVD,Oakland,CA,
9200 BANCROFT AV,Oakland,CA,
COLISEUM WY & HIGH ST,Oakland,CA,
2000 81ST AV,Oakland,CA,
66TH AV & COLISEUM WY,Oakland,CA,
1900 89TH AV,Oakland,CA,
62ND AV & INTERNATIONAL BLVD,Oakland,CA,
2900 TELEGRAPH AV,Oakland,CA,
3600 39TH AV,Oakland,CA,
800 47TH ST,Oakland,CA,
400 E 17TH ST,Oakland,CA,
26TH AV & INTERNATIONAL BLVD,Oakland,CA,
2700 BROADWAY,Oakland,CA,
8TH AV & INTERNATIONAL BLVD,Oakland,CA,
800 31ST ST,Oakland,CA,
E 18TH ST & PARK BLVD,Oakland,CA,
1300 8TH ST,Oakland,CA,
19TH AV & FOOTHILL BLVD,Oakland,CA,
3500 MACARTHUR BLVD,Oakland,CA,
200 BAY PL,Oakland,CA,
2300 90TH AV,Oakland,CA,
4000 BROADWAY,Oakland,CA,
1800 HARRISON ST,Oakland,CA,
6900 HALLIDAY AV,Oakland,CA,
7TH ST & CENTER ST,Oakland,CA,
23RD ST & WEST ST,Oakland,CA,
400 49TH ST,Oakland,CA,
59TH ST & TELEGRAPH AV,Oakland,CA,
1700 MACARTHUR BLVD,Oakland,CA,
300 10TH ST,Oakland,CA,
2000 19TH AV,Oakland,CA,
1800 41ST AV,Oakland,CA,
1600 90TH AV,Oakland,CA,
1700 E 19TH ST,Oakland,CA,
E 12TH ST & 35TH AV,Oakland,CA,
6500 FOOTHILL BLVD,Oakland,CA,
3300 BROOKDALE AV,Oakland,CA,
1100 73RD AV,Oakland,CA,
2200 MOUNTAIN BLVD,Oakland,CA,
6100 FOOTHILL BLVD,Oakland,CA,
100 E 12TH ST,Oakland,CA,
1300 82ND AV,Oakland,CA,
2600 FISHER AV,Oakland,CA,
2000 HIGH ST,Oakland,CA,
W GRAND AV & NORTHGATE AV,Oakland,CA,
2600 76TH AV,Oakland,CA,
2300 107TH AV,Oakland,CA,
2300 96TH AV,Oakland,CA,
3600 PENNIMAN AV,Oakland,CA,
1000 57TH ST,Oakland,CA,
3400 68TH AV,Oakland,CA,
1200 81ST AV,Oakland,CA,
7800 ARTHUR ST,Oakland,CA,
800 WASHINGTON ST,Oakland,CA,
3000 FOOTHILL BLVD,Oakland,CA,
800 44TH ST,Oakland,CA,
6600 LAIRD AV,Oakland,CA,
2800 55TH AV,Oakland,CA,
9900 C ST,Oakland,CA,
2800 SUMMIT ST,Oakland,CA,
1400 70TH AV,Oakland,CA,
9TH ST & FRANKLIN ST,Oakland,CA,
1900 85TH AV,Oakland,CA,
9800 ELMAR AV,Oakland,CA,
2900 BROOKDALE AV,Oakland,CA,
1800 98TH AV,Oakland,CA,
400 LEE ST,Oakland,CA,
30TH ST & TELEGRAPH AV,Oakland,CA,
10400 FOOTHILL BLVD,Oakland,CA,
3700 HIGH ST,Oakland,CA,
2400 SAN PABLO AV,Oakland,CA,
1600 84TH AV,Oakland,CA,
E 16TH ST & FRUITVALE AV,Oakland,CA,
1000 66TH AV,Oakland,CA,
BROOKDALE AV & HIGH ST,Oakland,CA,
2500 77TH AV,Oakland,CA,
1200 92ND AV,Oakland,CA,
900 HIGH ST,Oakland,CA,
900 86TH AV,Oakland,CA,
BANCROFT AV & SEMINARY AV,Oakland,CA,
1200 97TH AV,Oakland,CA,
30TH ST & MARTIN LUTHER KING JR WY,Oakland,CA,
3500 35TH AV,Oakland,CA,
10300 INTERNATIONAL BLVD,Oakland,CA,
LAKESHORE AV & MACARTHUR BLVD,Oakland,CA,
400 9TH ST,Oakland,CA,
15TH ST & MARTIN LUTHER KING JR WY,Oakland,CA,
3400 LAGUNA AV,Oakland,CA,
0 FAIRMOUNT AV,Oakland,CA,
73RD AV & WELD ST,Oakland,CA,
2300 NORTHGATE AV,Oakland,CA,
FRUITVALE AV & SAN LEANDRO ST,Oakland,CA,
4500 ELLEN ST,Oakland,CA,
3700 MANDELA PKWY,Oakland,CA,
1600 TELEGRAPH AV,Oakland,CA,
3000 CAPP ST,Oakland,CA,
900 34TH ST,Oakland,CA,
7600 INTERNATIONAL BLVD,Oakland,CA,
300 34TH ST,Oakland,CA,
1600 103RD AV,Oakland,CA,
6900 KRAUSE AV,Oakland,CA,
2300 E 15TH ST,Oakland,CA,
800 MARKET ST,Oakland,CA,
6300 CAMDEN ST,Oakland,CA,
3500 BROOKDALE AV,Oakland,CA,
2700 26TH AV,Oakland,CA,
23RD AV & FOOTHILL BLVD,Oakland,CA,
1600 HARRISON ST,Oakland,CA,
9TH ST & BROADWAY,Oakland,CA,
1500 29TH AV,Oakland,CA,
17TH ST & FRANKLIN ST,Oakland,CA,
1400 11TH AV,Oakland,CA,
2500 25TH AV,Oakland,CA,
2600 E 16TH ST,Oakland,CA,
4000 FOOTHILL BLVD,Oakland,CA,
9700 GOLF LINKS RD,Oakland,CA,
SPECIAL ASSIGN,Oakland,CA,
800 WILLOW ST,Oakland,CA,
2400 26TH AV,Oakland,CA,
3500 HIGH ST,Oakland,CA,
800 57TH ST,Oakland,CA,
1600 INTERNATIONAL BLVD,Oakland,CA,
9600 EDES AV,Oakland,CA,
9300 BANCROFT AV,Oakland,CA,
LINCOLN AV & MACARTHUR BLVD,Oakland,CA,
2900 14TH AV,Oakland,CA,
800 55TH ST,Oakland,CA,
8400 PARDEE DR,Oakland,CA,
1400 WEBSTER ST,Oakland,CA,
5800 WALNUT ST,Oakland,CA,
3700 SUTER ST,Oakland,CA,
5700 TELEGRAPH AV,Oakland,CA,
3200 PRENTISS ST,Oakland,CA,
2700 PARKER AV,Oakland,CA,
2600 PRENTISS PL,Oakland,CA,
5800 BANCROFT AV,Oakland,CA,
1000 101ST AV,Oakland,CA,
900 37TH ST,Oakland,CA,
400 37TH ST,Oakland,CA,
700 JEAN ST,Oakland,CA,
6900 LOCKWOOD ST,Oakland,CA,
22ND ST & TELEGRAPH AV,Oakland,CA,
800 27TH ST,Oakland,CA,
1600 86TH AV,Oakland,CA,
7TH ST & WILLOW ST,Oakland,CA,
9TH ST & WASHINGTON ST,Oakland,CA,
1300 104TH AV,Oakland,CA,
2700 SAN PABLO AV,Oakland,CA,
3000 ADELINE ST,Oakland,CA,
52ND ST & MARTIN LUTHER KING JR WY,Oakland,CA,
1200 75TH AV,Oakland,CA,
1600 69TH AV,Oakland,CA,
5000 BANCROFT AV,Oakland,CA,
1300 65TH AV,Oakland,CA,
700 SYCAMORE ST,Oakland,CA,
1600 7TH ST,Oakland,CA,
1000 86TH AV,Oakland,CA,
2300 HUGHES AV,Oakland,CA,
1000 16TH ST,Oakland,CA,
1600 36TH AV,Oakland,CA,
300 45TH ST,Oakland,CA,
2200 87TH AV,Oakland,CA,
600 34TH ST,Oakland,CA,
300 MONTE VISTA AV,Oakland,CA,
7900 INTERNATIONAL BLVD,Oakland,CA,
5900 COLLEGE AV,Oakland,CA,
800 FOOTHILL BLVD,Oakland,CA,
INTERNATIONAL BLVD & MILLER AV,Oakland,CA,
35TH AV & BROOKDALE AV,Oakland,CA,
1300 62ND AV,Oakland,CA,
1400 104TH AV,Oakland,CA,
FRUITVALE AV & MONTANA ST,Oakland,CA,
900 7TH ST,Oakland,CA,
1600 16TH ST,Oakland,CA,
1000 CALCOT PL,Oakland,CA,
3700 PIEDMONT AV,Oakland,CA,
1900 FRANKLIN ST,Oakland,CA,
100 2ND ST,Oakland,CA,
8600 INTERNATIONAL BLVD,Oakland,CA,
29TH ST & BROADWAY,Oakland,CA,
2600 68TH AV,Oakland,CA,
29TH ST & TELEGRAPH AV,Oakland,CA,
2100 SANTA RITA ST,Oakland,CA,
2100 HARRINGTON AV,Oakland,CA,
47TH AV & INTERNATIONAL BLVD,Oakland,CA,
500 SYCAMORE ST,Oakland,CA,
2500 E 15TH ST,Oakland,CA,
2200 LAKESHORE AV,Oakland,CA,
900 43RD ST,Oakland,CA,
1900 73RD AV,Oakland,CA,
64TH AV & INTERNATIONAL BLVD,Oakland,CA,
400 MERRITT AV,Oakland,CA,
6700 INTERNATIONAL BLVD,Oakland,CA,
400 30TH ST,Oakland,CA,
5400 TELEGRAPH AV,Oakland,CA,
2300 WEST ST,Oakland,CA,
54TH AV & INTERNATIONAL BLVD,Oakland,CA,
800 BROADWAY,Oakland,CA,
2000 CHURCH ST,Oakland,CA,
500 105TH AV,Oakland,CA,
2500 MIDDLE HARBOR RD,Oakland,CA,
8TH ST & MARKET ST,Oakland,CA,
30TH ST & SAN PABLO AV,Oakland,CA,
1900 E 28TH ST,Oakland,CA,
1500 34TH AV,Oakland,CA,
2400 8TH AV,Oakland,CA,
105TH AV & SAN LEANDRO ST,Oakland,CA,
6900 FRESNO ST,Oakland,CA,
200 WHITMORE ST,Oakland,CA,
600 17TH ST,Oakland,CA,
1000 32ND ST,Oakland,CA,
2700 64TH AV,Oakland,CA,
2300 87TH AV,Oakland,CA,
6800 MACARTHUR BLVD,Oakland,CA,
7300 EDGEWATER DR,Oakland,CA,
3400 RICHMOND BLVD,Oakland,CA,
200 VERNON ST,Oakland,CA,
3900 ALAMEDA AV,Oakland,CA,
3300 BROADWAY,Oakland,CA,
30TH ST & ADELINE ST,Oakland,CA,
4200 TELEGRAPH AV,Oakland,CA,
14TH ST & ADELINE ST,Oakland,CA,
BROOKLYN AV & LAKESHORE AV,Oakland,CA,
1400 16TH ST,Oakland,CA,
1900 88TH AV,Oakland,CA,
500 41ST ST,Oakland,CA,
4600 MALAT ST,Oakland,CA,
5700 HARMON AV,Oakland,CA,
3300 LOMA VISTA WY,Oakland,CA,
1400 45TH AV,Oakland,CA,
1500 76TH AV,Oakland,CA,
400 ASHTON AV,Oakland,CA,
2100 50TH AV,Oakland,CA,
3200 HYDE ST,Oakland,CA,
3700 COOLIDGE AV,Oakland,CA,
102ND AV & INTERNATIONAL BLVD,Oakland,CA,
40TH ST & MARKET ST,Oakland,CA,
900 54TH ST,Oakland,CA,
1200 103RD AV,Oakland,CA,
1000 56TH ST,Oakland,CA,
2600 MYRTLE ST,Oakland,CA,
64TH AV & BANCROFT AV,Oakland,CA,
3600 FOOTHILL BLVD,Oakland,CA,
3700 FOOTHILL BLVD,Oakland,CA,
800 20TH ST,Oakland,CA,
8700 INTERNATIONAL BLVD,Oakland,CA,
98TH AV & E ST,Oakland,CA,
2300 82ND AV,Oakland,CA,
5100 FAIRFAX AV,Oakland,CA,
0 VERNON ST,Oakland,CA,
600 TYLER ST,Oakland,CA,
1400 79TH AV,Oakland,CA,
9000 INTERNATIONAL BLVD,Oakland,CA,
7TH ST & WEBSTER ST,Oakland,CA,
200 PERKINS ST,Oakland,CA,
2800 38TH AV,Oakland,CA,
400 ROLAND WY,Oakland,CA,
REDWOOD RD & SKYLINE BLVD,Oakland,CA,
EUCLID AV & GRAND AV,Oakland,CA,
1700 87TH AV,Oakland,CA,
3200 SHEFFIELD AV,Oakland,CA,
100 9TH ST,Oakland,CA,
15TH ST & HARRISON ST,Oakland,CA,
7500 HILLSIDE ST,Oakland,CA,
10400 SAN LEANDRO ST,Oakland,CA,
2100 HAVENSCOURT BLVD,Oakland,CA,
3200 LYNDE ST,Oakland,CA,
7800 BANCROFT AV,Oakland,CA,
11TH ST & WEBSTER ST,Oakland,CA,
3300 MARTIN LUTHER KING JR WY,Oakland,CA,
6600 FOOTHILL BLVD,Oakland,CA,
14TH ST & MANDELA PKWY,Oakland,CA,
400 36TH ST,Oakland,CA,
1400 17TH AV,Oakland,CA,
3000 TELEGRAPH AV,Oakland,CA,
FRUITVALE AV & LOGAN ST,Oakland,CA,
800 UNION ST,Oakland,CA,
1700 AUSEON AV,Oakland,CA,
EL EMBARCADERO & LAKESHORE AV,Oakland,CA,
1000 61ST ST,Oakland,CA,
3200 NICOL AV,Oakland,CA,
1400 LAKESIDE DR,Oakland,CA,
9400 MACARTHUR BLVD,Oakland,CA,
7100 HOLLY ST,Oakland,CA,
2400 ASHBY AV,Oakland,CA,
600 HARRISON ST,Oakland,CA,
200 41ST ST,Oakland,CA,
24TH ST & BROADWAY,Oakland,CA,
5900 MARTIN LUTHER KING JR WY,Oakland,CA,
200 EUCLID AV,Oakland,CA,
700 KEVIN CT,Oakland,CA,
9800 WALNUT ST,Oakland,CA,
73RD AV & LOCKWOOD ST,Oakland,CA,
1300 88TH AV,Oakland,CA,
500 58TH ST,Oakland,CA,
6500 BANCROFT AV,Oakland,CA,
2000 BROADWAY,Oakland,CA,
10700 PIPPIN ST,Oakland,CA,
2800 64TH AV,Oakland,CA,
1200 39TH AV,Oakland,CA,
400 41ST ST,Oakland,CA,
2200 SEMINARY AV,Oakland,CA,
500 BODEN WY,Oakland,CA,
400 24TH ST,Oakland,CA,
1800 57TH AV,Oakland,CA,
1300 97TH AV,Oakland,CA,
13TH AV & INTERNATIONAL BLVD,Oakland,CA,
1900 TELEGRAPH AV,Oakland,CA,
1400 78TH AV,Oakland,CA,
ADELINE ST & W GRAND AV,Oakland,CA,
SAN PABLO AV & STANFORD AV,Oakland,CA,
5TH AV & EMBARCADERO,Oakland,CA,
4100 MACARTHUR BLVD,Oakland,CA,
21ST ST & TELEGRAPH AV,Oakland,CA,
200 29TH ST,Oakland,CA,
1000 105TH AV,Oakland,CA,
71ST AV & INTERNATIONAL BLVD,Oakland,CA,
4600 TELEGRAPH AV,Oakland,CA,
1000 73RD AV,Oakland,CA,
1600 83RD AV,Oakland,CA,
900 55TH ST,Oakland,CA,
800 WEBSTER ST,Oakland,CA,
1100 77TH AV,Oakland,CA,
5600 FOOTHILL BLVD,Oakland,CA,
100 WASHINGTON ST,Oakland,CA,
96TH AV & INTERNATIONAL BLVD,Oakland,CA,
1100 69TH AV,Oakland,CA,
99TH AV & MACARTHUR BLVD,Oakland,CA,
27TH ST & SAN PABLO AV,Oakland,CA,
30TH ST & LINDEN ST,Oakland,CA,
1300 95TH AV,Oakland,CA,
1300 JACKSON ST,Oakland,CA,
3500 QUIGLEY ST,Oakland,CA,
78TH AV & INTERNATIONAL BLVD,Oakland,CA,
8300 GOLF LINKS RD,Oakland,CA,
E 12TH ST & 14TH AV,Oakland,CA,
9800 C ST,Oakland,CA,
1300 85TH AV,Oakland,CA,
3600 PATTERSON AV,Oakland,CA,
FOOTHILL BLVD & MACARTHUR BLVD,Oakland,CA,
6300 TELEGRAPH AV,Oakland,CA,
35TH ST & MARKET ST,Oakland,CA,
24TH AV & INTERNATIONAL BLVD,Oakland,CA,
2000 5TH AV,Oakland,CA,
1300 83RD AV,Oakland,CA,
3000 BROOK ST,Oakland,CA,
4900 COLISEUM WY,Oakland,CA,
1900 EMBARCADERO,Oakland,CA,
5500 MARTIN LUTHER KING JR WY,Oakland,CA,
6500 FENHAM ST,Oakland,CA,
800 E 18TH ST,Oakland,CA,
1800 39TH AV,Oakland,CA,
600 WEBSTER ST,Oakland,CA,
7200 HOLLY ST,Oakland,CA,
1200 83RD AV,Oakland,CA,
98TH AV & D ST,Oakland,CA,
2000 MYRTLE ST,Oakland,CA,
3100 MARTIN LUTHER KING JR WY,Oakland,CA,
6300 INTERNATIONAL BLVD,Oakland,CA,
800 61ST ST,Oakland,CA,
55TH AV & BANCROFT AV,Oakland,CA,
DISTRICT 3,Oakland,CA,
400 6TH ST,Oakland,CA,
1400 55TH AV,Oakland,CA,
3700 MACARTHUR BLVD,Oakland,CA,
1500 FRANKLIN ST,Oakland,CA,
35TH AV & SUTER ST,Oakland,CA,
3900 ALTAMONT AV,Oakland,CA,
1300 SEMINARY AV,Oakland,CA,
2900 E 16TH ST,Oakland,CA,
5300 FAIRFAX AV,Oakland,CA,
500 61ST ST,Oakland,CA,
8300 OAKPORT ST,Oakland,CA,
500 62ND ST,Oakland,CA,
7300 INTERNATIONAL BLVD,Oakland,CA,
1300 105TH AV,Oakland,CA,
1200 80TH AV,Oakland,CA,
0 GRAND AV,Oakland,CA,
9200 C ST,Oakland,CA,
2000 LINDEN ST,Oakland,CA,
2700 25TH AV,Oakland,CA,
1100 35TH AV,Oakland,CA,
1100 54TH ST,Oakland,CA,
6100 SHATTUCK AV,Oakland,CA,
40TH ST & PIEDMONT AV,Oakland,CA,
8000 SAN LEANDRO ST,Oakland,CA,
5500 BROOKDALE AV,Oakland,CA,
300 ADAMS ST,Oakland,CA,
6200 HARMON AV,Oakland,CA,
7TH ST & UNION ST,Oakland,CA,
5700 E 15TH ST,Oakland,CA,
2200 COOLIDGE AV,Oakland,CA,
8TH ST & MANDELA PKWY,Oakland,CA,
2100 TELEGRAPH AV,Oakland,CA,
300 STATEN AV,Oakland,CA,
9600 D ST,Oakland,CA,
BRUSH ST & W GRAND AV,Oakland,CA,
18TH ST & MARKET ST,Oakland,CA,
1600 87TH AV,Oakland,CA,
23RD ST & MARTIN LUTHER KING JR WY,Oakland,CA,
2400 HUMBOLDT AV,Oakland,CA,
1200 51ST AV,Oakland,CA,
2400 67TH AV,Oakland,CA,
1600 80TH AV,Oakland,CA,
GARFIELD AV & PARKER AV,Oakland,CA,
1400 13TH ST,Oakland,CA,
700 27TH ST,Oakland,CA,
36TH ST & MARKET ST,Oakland,CA,
6800 ARTHUR ST,Oakland,CA,
1400 66TH AV,Oakland,CA,
34TH ST & ADELINE ST,Oakland,CA,
3200 35TH AV,Oakland,CA,
2000 FILBERT ST,Oakland,CA,
1800 90TH AV,Oakland,CA,
3000 MYRTLE ST,Oakland,CA,
HANOVER AV & LAKESHORE AV,Oakland,CA,
BANCROFT AV & CHURCH ST,Oakland,CA,
500 17TH ST,Oakland,CA,
4800 INTERNATIONAL BLVD,Oakland,CA,
900 21ST ST,Oakland,CA,
2500 82ND AV,Oakland,CA,
1600 14TH ST,Oakland,CA,
79TH AV & HOLLY ST,Oakland,CA,
1000 85TH AV,Oakland,CA,
2000 87TH AV,Oakland,CA,
2700 23RD AV,Oakland,CA,
2100 10TH AV,Oakland,CA,
2600 75TH AV,Oakland,CA,
3300 72ND AV,Oakland,CA,
16TH ST & MARTIN LUTHER KING JR WY,Oakland,CA,
4400 MACARTHUR BLVD,Oakland,CA,
1900 86TH AV,Oakland,CA,
1700 36TH AV,Oakland,CA,
31ST AV & INTERNATIONAL BLVD,Oakland,CA,
3800 ALISO AV,Oakland,CA,
2400 57TH AV,Oakland,CA,
77TH AV & INTERNATIONAL BLVD,Oakland,CA,
6900 MACARTHUR BLVD,Oakland,CA,
2500 HUMBOLDT AV,Oakland,CA,
1300 103RD AV,Oakland,CA,
400 CRESCENT ST,Oakland,CA,
900 85TH AV,Oakland,CA,
600 S ELMHURST AV,Oakland,CA,
2000 MIDDLE HARBOR RD,Oakland,CA,
2100 38TH AV,Oakland,CA,
1200 82ND AV,Oakland,CA,
2500 63RD AV,Oakland,CA,
6200 FENHAM ST,Oakland,CA,
3900 PIEDMONT AV,Oakland,CA,
E 23RD ST & FRUITVALE AV,Oakland,CA,
1400 PERALTA ST,Oakland,CA,
2200 86TH AV,Oakland,CA,
10TH AV & INTERNATIONAL BLVD,Oakland,CA,
16TH AV & INTERNATIONAL BLVD,Oakland,CA,
2800 E 9TH ST,Oakland,CA,
18TH ST & SAN PABLO AV,Oakland,CA,
2000 90TH AV,Oakland,CA,
9900 WALNUT ST,Oakland,CA,
2000 FRANKLIN ST,Oakland,CA,
900 E 12TH ST,Oakland,CA,
57TH AV & BANCROFT AV,Oakland,CA,
800 41ST ST,Oakland,CA,
800 APGAR ST,Oakland,CA,
1300 E 32ND ST,Oakland,CA,
200 WAYNE AV,Oakland,CA,
6200 SEMINARY AV,Oakland,CA,
3600 HIGH ST,Oakland,CA,
1100 63RD ST,Oakland,CA,
5300 WALNUT ST,Oakland,CA,
600 OAK ST,Oakland,CA,
10800 MACARTHUR BLVD,Oakland,CA,
3000 75TH AV,Oakland,CA,
1800 7TH AV,Oakland,CA,
5700 ELIZABETH ST,Oakland,CA,
6400 SAN LEANDRO ST,Oakland,CA,
73RD AV & HOLLY ST,Oakland,CA,
200 4TH ST,Oakland,CA,
700 WASHINGTON ST,Oakland,CA,
1100 10TH ST,Oakland,CA,
2000 82ND AV,Oakland,CA,
28TH ST & TELEGRAPH AV,Oakland,CA,
2800 SAN PABLO AV,Oakland,CA,
500 CAPISTRANO DR,Oakland,CA,
1200 55TH ST,Oakland,CA,
2200 40TH AV,Oakland,CA,
6800 FOOTHILL BLVD,Oakland,CA,
500 34TH ST,Oakland,CA,
1400 83RD AV,Oakland,CA,
1600 82ND AV,Oakland,CA,
400 HIGH ST,Oakland,CA,
3400 BOSTON AV,Oakland,CA,
3600 GRAND AV,Oakland,CA,
900 75TH AV,Oakland,CA,
5200 CLAREMONT AV,Oakland,CA,
12TH AV & INTERNATIONAL BLVD,Oakland,CA,
40TH ST & SHAFTER AV,Oakland,CA,
1400 34TH AV,Oakland,CA,
3800 PIEDMONT AV,Oakland,CA,
6400 SAN PABLO AV,Oakland,CA,
1500 WEBSTER ST,Oakland,CA,
5200 INTERNATIONAL BLVD,Oakland,CA,
100 BROADWAY,Oakland,CA,
1800 73RD AV,Oakland,CA,
6600 LION WY,Oakland,CA,
200 FITZPATRICK RD,Oakland,CA,
1000 STANFORD AV,Oakland,CA,
4TH ST & BROADWAY,Oakland,CA,
2100 47TH AV,Oakland,CA,
40TH ST & HOWE ST,Oakland,CA,
3000 BROOKDALE AV,Oakland,CA,
800 43RD ST,Oakland,CA,
900 53RD AV,Oakland,CA,
E 12TH ST & 29TH AV,Oakland,CA,
7800 PLYMOUTH ST,Oakland,CA,
700 45TH ST,Oakland,CA,
2600 67TH AV,Oakland,CA,
3200 GALINDO ST,Oakland,CA,
3600 WEST ST,Oakland,CA,
71ST AV & HAMILTON ST,Oakland,CA,
9600 INTERNATIONAL BLVD,Oakland,CA,
8300 B ST,Oakland,CA,
3900 BROOKDALE AV,Oakland,CA,
800 66TH AV,Oakland,CA,
8300 BALDWIN ST,Oakland,CA,
7600 HILLSIDE ST,Oakland,CA,
1800 88TH AV,Oakland,CA,
GRAND AV & STATEN AV,Oakland,CA,
500 85TH AV,Oakland,CA,
37TH ST & MARTIN LUTHER KING JR WY,Oakland,CA,
0 BROADWAY,Oakland,CA,
0 GLEN AV,Oakland,CA,
600 INTERNATIONAL BLVD,Oakland,CA,
1600 AUSEON AV,Oakland,CA,
2100 WEBSTER ST,Oakland,CA,
2300 VALLEY ST,Oakland,CA,
2400 64TH AV,Oakland,CA,
700 WALKER AV,Oakland,CA,
8TH ST & OAK ST,Oakland,CA,
200 MAKIN RD,Oakland,CA,
500 INTERNATIONAL BLVD,Oakland,CA,
800 52ND ST,Oakland,CA,
4000 ALLENDALE AV,Oakland,CA,
1100 SEMINARY AV,Oakland,CA,
300 FAIRMOUNT AV,Oakland,CA,
2400 HAVENSCOURT BLVD,Oakland,CA,
1400 E 22ND ST,Oakland,CA,
2300 CHURCH ST,Oakland,CA,
1000 70TH AV,Oakland,CA,
3700 FRUITVALE AV,Oakland,CA,
FISH RANCH RD & GRIZZLY PEAK BLVD,Oakland,CA,
2700 NICOL AV,Oakland,CA,
2900 68TH AV,Oakland,CA,
2300 MARKET ST,Oakland,CA,
PLEITNER AV & SCHOOL ST,Oakland,CA,
5700 MARKET ST,Oakland,CA,
1400 77TH AV,Oakland,CA,
3400 SCHOOL ST,Oakland,CA,
200 CAIRO RD,Oakland,CA,
1900 83RD AV,Oakland,CA,
7000 INTERNATIONAL BLVD,Oakland,CA,
9300 INTERNATIONAL BLVD,Oakland,CA,
400 JONES AV,Oakland,CA,
2300 13TH AV,Oakland,CA,
21ST ST & BROADWAY,Oakland,CA,
1900 WEBSTER ST,Oakland,CA,
5400 BROOKDALE AV,Oakland,CA,
600 BROOKLYN AV,Oakland,CA,
2300 106TH AV,Oakland,CA,
36TH AV & FOOTHILL BLVD,Oakland,CA,
1200 78TH AV,Oakland,CA,
27TH ST & HARRISON ST,Oakland,CA,
40TH ST & WEBSTER ST,Oakland,CA,
106TH AV & FOOTHILL BLVD,Oakland,CA,
400 ORANGE ST,Oakland,CA,
3500 GRAY ST,Oakland,CA,
48TH AV & FOOTHILL BLVD,Oakland,CA,
1400 90TH AV,Oakland,CA,
7700 BANCROFT AV,Oakland,CA,
2600 GRANDE VISTA AV,Oakland,CA,
2300 DASHWOOD AV,Oakland,CA,
1700 9TH ST,Oakland,CA,
1200 76TH AV,Oakland,CA,
8300 MACARTHUR BLVD,Oakland,CA,
9800 OLIVE ST,Oakland,CA,
4500 MARKET ST,Oakland,CA,
400 63RD ST,Oakland,CA,
4700 TOMPKINS AV,Oakland,CA,
2900 E 19TH ST,Oakland,CA,
1800 11TH AV,Oakland,CA,
86TH AV & INTERNATIONAL BLVD,Oakland,CA,
500 10TH ST,Oakland,CA,
400 43RD ST,Oakland,CA,
2600 78TH AV,Oakland,CA,
11TH ST & WILLOW ST,Oakland,CA,
1900 48TH AV,Oakland,CA,
4200 PARK BLVD,Oakland,CA,
1100 71ST AV,Oakland,CA,
600 30TH ST,Oakland,CA,
400 WORTH ST,Oakland,CA,
2300 86TH AV,Oakland,CA,
5300 TRASK ST,Oakland,CA,
2300 88TH AV,Oakland,CA,
2000 46TH AV,Oakland,CA,
1200 88TH AV,Oakland,CA,
2900 MARTIN LUTHER KING JR WY,Oakland,CA,
5500 ASCOT DR,Oakland,CA,
2200 FOOTHILL BLVD,Oakland,CA,
800 46TH ST,Oakland,CA,
100 ATHOL AV,Oakland,CA,
500 45TH ST,Oakland,CA,
5TH AV & E 8TH ST,Oakland,CA,
1400 47TH AV,Oakland,CA,
1800 TELEGRAPH AV,Oakland,CA,
98TH AV & EMPIRE RD,Oakland,CA,
300 LAKESIDE DR,Oakland,CA,
3400 DIMOND AV,Oakland,CA,
1900 MARKET ST,Oakland,CA,
900 41ST ST,Oakland,CA,
3400 64TH AV PL,Oakland,CA,
E 18TH ST & 5TH AV,Oakland,CA,
1200 60TH AV,Oakland,CA,
2500 MARKET ST,Oakland,CA,
9000 HILLSIDE ST,Oakland,CA,
5200 BELVEDERE ST,Oakland,CA,
BAY PL & HARRISON ST,Oakland,CA,
800 19TH ST,Oakland,CA,
6500 INTERNATIONAL BLVD,Oakland,CA,
COOLIDGE AV & FOOTHILL BLVD,Oakland,CA,
MARTIN LUTHER KING JR WY & SYCAMORE ST,Oakland,CA,
2400 65TH AV,Oakland,CA,
4100 PARK BLVD,Oakland,CA,
10200 MACARTHUR BLVD,Oakland,CA,
5700 INTERNATIONAL BLVD,Oakland,CA,
700 E 11TH ST,Oakland,CA,
2400 27TH AV,Oakland,CA,
1100 24TH ST,Oakland,CA,
7TH ST & PERALTA ST,Oakland,CA,
COOLIDGE AV & SCHOOL ST,Oakland,CA,
1400 1ST AV,Oakland,CA,
3000 SCHOOL ST,Oakland,CA,
2100 42ND AV,Oakland,CA,
800 ARLINGTON AV,Oakland,CA,
85TH AV & G ST,Oakland,CA,
1300 89TH AV,Oakland,CA,
10500 CREEKSIDE CIR,Oakland,CA,
37TH ST & TELEGRAPH AV,Oakland,CA,
3500 CUSTER ST,Oakland,CA,
3600 MANDELA PKWY,Oakland,CA,
900 77TH AV,Oakland,CA,
1500 E 12TH ST,Oakland,CA,
1700 90TH AV,Oakland,CA,
5900 HOLWAY ST,Oakland,CA,
2800 MARTIN LUTHER KING JR WY,Oakland,CA,
1700 41ST AV,Oakland,CA,
18TH ST & TELEGRAPH AV,Oakland,CA,
2000 57TH AV,Oakland,CA,
E 15TH ST & 23RD AV,Oakland,CA,
10300 MACARTHUR BLVD,Oakland,CA,
64TH AV & MACARTHUR BLVD,Oakland,CA,
5000 FOOTHILL BLVD,Oakland,CA,
2800 E 7TH ST,Oakland,CA,
3500 SANBORN DR,Oakland,CA,
2400 HIGH ST,Oakland,CA,
3400 JOAQUIN MILLER RD,Oakland,CA,
1300 63RD AV,Oakland,CA,
66TH AV & OAKPORT ST,Oakland,CA,
9TH ST & WEBSTER ST,Oakland,CA,
12TH ST & PERALTA ST,Oakland,CA,
500 63RD ST,Oakland,CA,
1000 WILLOW ST,Oakland,CA,
23RD ST & BROADWAY,Oakland,CA,
1200 105TH AV,Oakland,CA,
3400 CHESTNUT ST,Oakland,CA,
8700 MACARTHUR BLVD,Oakland,CA,
2200 47TH AV,Oakland,CA,
1200 7TH ST,Oakland,CA,
3800 BUELL ST,Oakland,CA,
MACARTHUR BLVD & RITCHIE ST,Oakland,CA,
3200 SCHOOL ST,Oakland,CA,
76TH AV & INTERNATIONAL BLVD,Oakland,CA,
2800 62ND AV,Oakland,CA,
1900 E 30TH ST,Oakland,CA,
1500 52ND AV,Oakland,CA,
500 33RD ST,Oakland,CA,
800 CHESTER ST,Oakland,CA,
32ND ST & ADELINE ST,Oakland,CA,
3900 HIGH ST,Oakland,CA,
1500 8TH AV,Oakland,CA,
1200 87TH AV,Oakland,CA,
1600 33RD AV,Oakland,CA,
2200 83RD AV,Oakland,CA,
6300 COLLEGE AV,Oakland,CA,
5200 BANCROFT AV,Oakland,CA,
1400 51ST AV,Oakland,CA,
2900 58TH AV,Oakland,CA,
5800 E 16TH ST,Oakland,CA,
5300 FLEMING AV,Oakland,CA,
27TH ST & WEST ST,Oakland,CA,
2200 HAVENSCOURT BLVD,Oakland,CA,
6900 LACEY AV,Oakland,CA,
600 32ND ST,Oakland,CA,
10800 EDES AV,Oakland,CA,
900 44TH ST,Oakland,CA,
1000 30TH ST,Oakland,CA,
2000 CROSBY AV,Oakland,CA,
7800 LOCKWOOD ST,Oakland,CA,
4600 CONGRESS AV,Oakland,CA,
2700 74TH AV,Oakland,CA,
1800 BRIDGE AV,Oakland,CA,
2600 62ND AV,Oakland,CA,
2800 69TH AV,Oakland,CA,
2400 E 27TH ST,Oakland,CA,
1600 LAKESHORE AV,Oakland,CA,
1900 19TH AV,Oakland,CA,
8100 HILLSIDE ST,Oakland,CA,
1700 23RD AV,Oakland,CA,
1600 5TH AV,Oakland,CA,
3RD ST & ADELINE ST,Oakland,CA,
800 BROCKHURST ST,Oakland,CA,
2800 68TH AV,Oakland,CA,
1700 81ST AV,Oakland,CA,
13TH ST & PERALTA ST,Oakland,CA,
38TH AV & MACARTHUR BLVD,Oakland,CA,
6200 BROMLEY AV,Oakland,CA,
1300 51ST AV,Oakland,CA,
3100 14TH AV,Oakland,CA,
800 70TH AV,Oakland,CA,
5900 SAN PABLO AV,Oakland,CA,
300 PERKINS ST,Oakland,CA,
700 MANDANA BLVD,Oakland,CA,
15TH ST & FRANKLIN ST,Oakland,CA,
4500 CONGRESS AV,Oakland,CA,
3200 LIESE AV,Oakland,CA,
5600 OCEAN VIEW DR,Oakland,CA,
ALCATRAZ AV & SHATTUCK AV,Oakland,CA,
3700 ALLENDALE AV,Oakland,CA,
2200 FRUITVALE AV,Oakland,CA,
1400 48TH AV,Oakland,CA,
3700 BROOKDALE AV,Oakland,CA,
8TH ST & CLAY ST,Oakland,CA,
2600 HARRISON ST,Oakland,CA,
600 E 17TH ST,Oakland,CA,
900 71ST AV,Oakland,CA,
1600 78TH AV,Oakland,CA,
BROADWAY & PLEASANT VALLEY AV,Oakland,CA,
22ND AV & FOOTHILL BLVD,Oakland,CA,
94TH AV & BANCROFT AV,Oakland,CA,
3300 ARKANSAS ST,Oakland,CA,
9800 BURR ST,Oakland,CA,
600 27TH ST,Oakland,CA,
3400 LAKESHORE AV,Oakland,CA,
73RD AV & GARFIELD AV,Oakland,CA,
3100 BEAUMONT AV,Oakland,CA,
0 PEROLY CT,Oakland,CA,
1300 79TH AV,Oakland,CA,
2300 E 21ST ST,Oakland,CA,
900 91ST AV,Oakland,CA,
400 44TH ST,Oakland,CA,
18TH AV & FOOTHILL BLVD,Oakland,CA,
3300 ADELINE ST,Oakland,CA,
5000 COLISEUM WY,Oakland,CA,
7700 OAKPORT ST,Oakland,CA,
52ND ST & TELEGRAPH AV,Oakland,CA,
2800 BROADWAY,Oakland,CA,
2700 PARK BLVD,Oakland,CA,
6600 SAN PABLO AV,Oakland,CA,
4600 FAIRFAX AV,Oakland,CA,
2600 HIGH ST,Oakland,CA,
8100 DOWLING ST,Oakland,CA,
3100 SUMMIT ST,Oakland,CA,
1400 56TH AV,Oakland,CA,
1600 CHURCH ST,Oakland,CA,
3500 GRAND AV,Oakland,CA,
9500 SUNNYSIDE ST,Oakland,CA,
11TH ST & CASTRO ST,Oakland,CA,
HIGH ST & PORTER ST,Oakland,CA,
1100 85TH AV,Oakland,CA,
33RD AV & INTERNATIONAL BLVD,Oakland,CA,
1200 FALLON ST,Oakland,CA,
3200 WEST ST,Oakland,CA,
1200 96TH AV,Oakland,CA,
FRUITVALE AV & SCHOOL ST,Oakland,CA,
APGAR ST & WEST ST,Oakland,CA,
2700 HIGH ST,Oakland,CA,
500 37TH ST,Oakland,CA,
CREST AV & FONTAINE ST,Oakland,CA,
5400 SAN PABLO AV,Oakland,CA,
25TH AV & FOOTHILL BLVD,Oakland,CA,
1300 84TH AV,Oakland,CA,
900 35TH ST,Oakland,CA,
2400 FERN ST,Oakland,CA,
6600 BRANN ST,Oakland,CA,
1100 60TH AV,Oakland,CA,
9500 MACARTHUR BLVD,Oakland,CA,
400 CLARA ST,Oakland,CA,
2000 64TH AV,Oakland,CA,
1000 18TH ST,Oakland,CA,
1600 79TH AV,Oakland,CA,
5TH ST & ADELINE ST,Oakland,CA,
9000 RAILROAD AV,Oakland,CA,
1100 83RD AV,Oakland,CA,
73RD AV & ARTHUR ST,Oakland,CA,
FAIRFAX AV & FOOTHILL BLVD,Oakland,CA,
1500 CHANDLER ST,Oakland,CA,
4900 E 12TH ST,Oakland,CA,
3100 TEXAS ST,Oakland,CA,
3200 14TH AV,Oakland,CA,
2000 92ND AV,Oakland,CA,
10500 TOPANGA DR,Oakland,CA,
1000 60TH ST,Oakland,CA,
3200 BROOKDALE AV,Oakland,CA,
1600 WEBSTER ST,Oakland,CA,
5800 COLLEGE AV,Oakland,CA,
1700 62ND AV,Oakland,CA,
4200 SUTER ST,Oakland,CA,
70TH AV & INTERNATIONAL BLVD,Oakland,CA,
1900 40TH AV,Oakland,CA,
500 FOOTHILL BLVD,Oakland,CA,
96TH AV & BANCROFT AV,Oakland,CA,
2200 E 22ND ST,Oakland,CA,
3700 LINCOLN AV,Oakland,CA,
DIMOND AV & MACARTHUR BLVD,Oakland,CA,
1900 69TH AV,Oakland,CA,
2400 35TH AV,Oakland,CA,
2100 E 24TH ST,Oakland,CA,
3000 E 19TH ST,Oakland,CA,
2300 57TH AV,Oakland,CA,
4800 MACARTHUR BLVD,Oakland,CA,
5400 PRINCETON ST,Oakland,CA,
1400 MACARTHUR BLVD,Oakland,CA,
600 24TH ST,Oakland,CA,
6700 MACARTHUR BLVD,Oakland,CA,
6100 HILTON ST,Oakland,CA,
1100 58TH AV,Oakland,CA,
DIRECT PATROL,Oakland,CA,
500 22ND ST,Oakland,CA,
2000 83RD AV,Oakland,CA,
900 WOOD ST,Oakland,CA,
500 MERRIMAC ST,Oakland,CA,
6000 OLD QUARRY LOOP,Oakland,CA,
1600 10TH ST,Oakland,CA,
1900 CROSBY AV,Oakland,CA,
3200 LOGAN ST,Oakland,CA,
5600 SHATTUCK AV,Oakland,CA,
20TH ST & WEBSTER ST,Oakland,CA,
1000 65TH ST,Oakland,CA,
EMBARCADERO WEST & WEBSTER ST,Oakland,CA,
1100 84TH AV,Oakland,CA,
1400 MARTIN LUTHER KING JR WY,Oakland,CA,
3900 NEVIL ST,Oakland,CA,
100 MOSS AV,Oakland,CA,
1700 85TH AV,Oakland,CA,
8400 MACARTHUR BLVD,Oakland,CA,
3100 KINGSLAND AV,Oakland,CA,
1300 106TH AV,Oakland,CA,
5900 SHATTUCK AV,Oakland,CA,
0 EMBARCADERO WEST,Oakland,CA,
2500 34TH AV,Oakland,CA,
600 85TH AV,Oakland,CA,
2100 23RD AV,Oakland,CA,
900 W GRAND AV,Oakland,CA,
11TH ST & CLAY ST,Oakland,CA,
2100 MACARTHUR BLVD,Oakland,CA,
24TH ST & WEBSTER ST,Oakland,CA,
1100 30TH ST,Oakland,CA,
1900 38TH AV,Oakland,CA,
E 18TH ST & 9TH AV,Oakland,CA,
2700 73RD AV,Oakland,CA,
1300 96TH AV,Oakland,CA,
2400 FOOTHILL BLVD,Oakland,CA,
2800 FRUITVALE AV,Oakland,CA,
1200 MACARTHUR BLVD,Oakland,CA,
900 24TH ST,Oakland,CA,
900 ARLINGTON AV,Oakland,CA,
4200 MASTERSON ST,Oakland,CA,
5500 FOOTHILL BLVD,Oakland,CA,
2100 48TH AV,Oakland,CA,
900 81ST AV,Oakland,CA,
800 PINE ST,Oakland,CA,
0 LINDA AV,Oakland,CA,
3200 FILBERT ST,Oakland,CA,
1700 92ND AV,Oakland,CA,
1500 78TH AV,Oakland,CA,
400 CAPISTRANO DR,Oakland,CA,
2700 ADELINE ST,Oakland,CA,
600 18TH ST,Oakland,CA,
36TH ST & MARTIN LUTHER KING JR WY,Oakland,CA,
1400 27TH AV,Oakland,CA,
2300 83RD AV,Oakland,CA,
9900 MEDFORD AV,Oakland,CA,
3000 NICOL AV,Oakland,CA,
5400 CRITTENDEN ST,Oakland,CA,
400 60TH ST,Oakland,CA,
3400 WILSON AV,Oakland,CA,
900 46TH ST,Oakland,CA,
600 CLARA ST,Oakland,CA,
1300 90TH AV,Oakland,CA,
6400 SHATTUCK AV,Oakland,CA,
6100 INTERNATIONAL BLVD,Oakland,CA,
1300 E 17TH ST,Oakland,CA,
700 98TH AV,Oakland,CA,
1500 13TH AV,Oakland,CA,
1000 W GRAND AV,Oakland,CA,
14TH ST & FRONTAGE RD,Oakland,CA,
68TH AV & MACARTHUR BLVD,Oakland,CA,
2600 UNION ST,Oakland,CA,
9900 GIBRALTAR RD,Oakland,CA,
54TH AV & SAN LEANDRO ST,Oakland,CA,
DIST 1,Oakland,CA,
5800 MARTIN LUTHER KING JR WY,Oakland,CA,
1600 FRANKLIN ST,Oakland,CA,
INTERNATIONAL CORRIDOR,Oakland,CA,
3200 BOSTON AV,Oakland,CA,
2100 E 27TH ST,Oakland,CA,
800 22ND ST,Oakland,CA,
800 21ST ST,Oakland,CA,
13TH ST & JACKSON ST,Oakland,CA,
400 LESSER ST,Oakland,CA,
900 37TH AV,Oakland,CA,
10400 LINK ST,Oakland,CA,
55TH ST & SHATTUCK AV,Oakland,CA,
1600 28TH AV,Oakland,CA,
400 42ND ST,Oakland,CA,
3000 62ND AV,Oakland,CA,
17TH ST & SAN PABLO AV,Oakland,CA,
3000 PLEITNER AV,Oakland,CA,
SAN PABLO AV & THOMAS L. BERKLEY WY,Oakland,CA,
400 34TH ST,Oakland,CA,
2300 PARK BLVD,Oakland,CA,
98TH AV & SB I880,Oakland,CA,
8100 BIRCH ST,Oakland,CA,
1600 13TH ST,Oakland,CA,
1900 E 15TH ST,Oakland,CA,
1000 82ND AV,Oakland,CA,
300 CASWELL AV,Oakland,CA,
34TH ST & MARTIN LUTHER KING JR WY,Oakland,CA,
4600 BOND ST,Oakland,CA,
600 54TH ST,Oakland,CA,
700 40TH ST,Oakland,CA,
4500 BANCROFT AV,Oakland,CA,
40TH ST & WEST ST,Oakland,CA,
700 22ND ST,Oakland,CA,
3300 SAN PABLO AV,Oakland,CA,
2200 41ST AV,Oakland,CA,
500 E 12TH ST,Oakland,CA,
W GRAND AV & WEST ST,Oakland,CA,
1400 28TH AV,Oakland,CA,
2100 FRANKLIN ST,Oakland,CA,
100 40TH ST,Oakland,CA,
9TH AV & INTERNATIONAL BLVD,Oakland,CA,
EL EMBARCADERO & GRAND AV,Oakland,CA,
3300 SUTER ST,Oakland,CA,
500 EL PASEO DR,Oakland,CA,
6500 EASTLAWN ST,Oakland,CA,
23RD ST & VALLEY ST,Oakland,CA,
14TH ST & MARKET ST,Oakland,CA,
4200 REDDING ST,Oakland,CA,
2300 BARTLETT ST,Oakland,CA,
30TH ST & FILBERT ST,Oakland,CA,
1700 68TH AV,Oakland,CA,
DERBY AV & INTERNATIONAL BLVD,Oakland,CA,
700 E 18TH ST,Oakland,CA,
34TH ST & CHESTNUT ST,Oakland,CA,
3300 68TH AV,Oakland,CA,
2500 BROADWAY,Oakland,CA,
86TH AV & BANCROFT AV,Oakland,CA,
9900 HESKET RD,Oakland,CA,
900 90TH AV,Oakland,CA,
DISTRICT 1,Oakland,CA,
9400 PEACH ST,Oakland,CA,
2600 109TH AV,Oakland,CA,
53RD ST & MARTIN LUTHER KING JR WY,Oakland,CA,
7800 GARFIELD AV,Oakland,CA,
4400 BROADWAY,Oakland,CA,
HEGENBERGER RD & INTERNATIONAL BLVD,Oakland,CA,
26TH ST & MARTIN LUTHER KING JR WY,Oakland,CA,
3000 LYNDE ST,Oakland,CA,
3700 E 12TH ST,Oakland,CA,
2100 E 28TH ST,Oakland,CA,
MACARTHUR BLVD & PIERSON ST,Oakland,CA,
2ND AV & INTERNATIONAL BLVD,Oakland,CA,
16TH ST & SAN PABLO AV,Oakland,CA,
700 KENNEDY ST,Oakland,CA,
4100 BROOKDALE AV,Oakland,CA,
1200 42ND AV,Oakland,CA,
100 EMBARCADERO,Oakland,CA,
2400 E 23RD ST,Oakland,CA,
700 S ELMHURST AV,Oakland,CA,
63RD AV & INTERNATIONAL BLVD,Oakland,CA,
1800 LAKESHORE AV,Oakland,CA,
1600 EXCELSIOR AV,Oakland,CA,
1500 77TH AV,Oakland,CA,
600 CAPISTRANO DR,Oakland,CA,
6400 MACARTHUR BLVD,Oakland,CA,
8TH ST & FRANKLIN ST,Oakland,CA,
900 BROCKHURST ST,Oakland,CA,
FAIRFAX AV & HIGH ST,Oakland,CA,
4300 FLEMING AV,Oakland,CA,
1400 AUSEON AV,Oakland,CA,
7300 HOLLY ST,Oakland,CA,
900 61ST ST,Oakland,CA,
12TH ST & OAK ST,Oakland,CA,
16TH ST & JEFFERSON ST,Oakland,CA,
34TH AV & FOOTHILL BLVD,Oakland,CA,
6600 FLORA ST,Oakland,CA,
2100 LAKESHORE AV,Oakland,CA,
1800 8TH AV,Oakland,CA,
800 POPLAR CT,Oakland,CA,
9900 B ST,Oakland,CA,
COLISEUM WY & KEVIN CT,Oakland,CA,
9700 CHERRY ST,Oakland,CA,
500 W MACARTHUR BLVD,Oakland,CA,
2800 PARKER AV,Oakland,CA,
1600 34TH AV,Oakland,CA,
3500 68TH AV,Oakland,CA,
2100 69TH AV,Oakland,CA,
57TH AV & INTERNATIONAL BLVD,Oakland,CA,
9900 EMPIRE RD,Oakland,CA,
2100 41ST AV,Oakland,CA,
24TH AV & FOOTHILL BLVD,Oakland,CA,
2400 MARKET ST,Oakland,CA,
7900 BANCROFT AV,Oakland,CA,
800 40TH ST,Oakland,CA,
1700 WEBSTER ST,Oakland,CA,
7500 NEY AV,Oakland,CA,
GRAND AV & WEBSTER ST,Oakland,CA,
7500 ARTHUR ST,Oakland,CA,
10500 FOOTHILL BLVD,Oakland,CA,
700 29TH ST,Oakland,CA,
11TH AV & INTERNATIONAL BLVD,Oakland,CA,
73RD AV & HEGENBERGER RD,Oakland,CA,
3900 BURCKHALTER AV,Oakland,CA,
500 9TH ST,Oakland,CA,
1600 99TH AV,Oakland,CA,
7200 FRESNO ST,Oakland,CA,
9600 SUNNYSIDE ST,Oakland,CA,
1300 WEBSTER ST,Oakland,CA,
800 34TH AV,Oakland,CA,
1400 86TH AV,Oakland,CA,
5500 HILTON ST,Oakland,CA,
1700 83RD AV,Oakland,CA,
10300 BYRON AV,Oakland,CA,
2700 E 23RD ST,Oakland,CA,
5800 ELIZABETH ST,Oakland,CA,
9300 PLYMOUTH ST,Oakland,CA,
5600 SAN PABLO AV,Oakland,CA,
1200 90TH AV,Oakland,CA,
E 12TH ST & 25TH AV,Oakland,CA,
1500 88TH AV,Oakland,CA,
2800 BROOKDALE AV,Oakland,CA,
1700 E 24TH ST,Oakland,CA,
200 MATHER ST,Oakland,CA,
900 26TH ST,Oakland,CA,
200 17TH ST,Oakland,CA,
14TH ST & CASTRO ST,Oakland,CA,
4500 MACARTHUR BLVD,Oakland,CA,
3100 BIRDSALL AV,Oakland,CA,
5200 BROADWAY,Oakland,CA,
6900 ARTHUR ST,Oakland,CA,
3000 E 18TH ST,Oakland,CA,
600 3RD ST,Oakland,CA,
7TH ST & HARRISON ST,Oakland,CA,
200 ORANGE ST,Oakland,CA,
9400 PLYMOUTH ST,Oakland,CA,
1000 ARLINGTON AV,Oakland,CA,
8000 PLYMOUTH ST,Oakland,CA,
8100 IDLEWOOD ST,Oakland,CA,
1100 86TH AV,Oakland,CA,
3500 HOLLIS ST,Oakland,CA,
1600 ADELINE ST,Oakland,CA,
5400 EL CAMILE AV,Oakland,CA,
0 HEGENBERGER CT,Oakland,CA,
3300 E 17TH ST,Oakland,CA,
1400 15TH AV,Oakland,CA,
1600 E 20TH ST,Oakland,CA,
1700 37TH AV,Oakland,CA,
2600 WALLACE ST,Oakland,CA,
900 28TH ST,Oakland,CA,
1200 SEMINARY AV,Oakland,CA,
6800 LION WY,Oakland,CA,
10800 INTERNATIONAL BLVD,Oakland,CA,
1700 12TH AV,Oakland,CA,
1500 MACARTHUR BLVD,Oakland,CA,
92ND AV & BANCROFT AV,Oakland,CA,
41ST AV & FOOTHILL BLVD,Oakland,CA,
55TH AV & WENTWORTH AV,Oakland,CA,
92ND AV & SAN LEANDRO ST,Oakland,CA,
E 19TH ST & FRUITVALE AV,Oakland,CA,
1400 MADISON ST,Oakland,CA,
1700 38TH AV,Oakland,CA,
17TH ST & WEBSTER ST,Oakland,CA,
800 10TH ST,Oakland,CA,
4200 BROADWAY,Oakland,CA,
2400 89TH AV,Oakland,CA,
8000 IDLEWOOD ST,Oakland,CA,
30TH AV & INTERNATIONAL BLVD,Oakland,CA,
2500 14TH AV,Oakland,CA,
1600 68TH AV,Oakland,CA,
9800 KOFORD RD,Oakland,CA,
3400 ADELINE ST,Oakland,CA,
1800 6TH AV,Oakland,CA,
2300 80TH AV,Oakland,CA,
2300 84TH AV,Oakland,CA,
4700 LINCOLN AV,Oakland,CA,
FRUITVALE AV & EB I580,Oakland,CA,
1400 14TH AV,Oakland,CA,
1800 79TH AV,Oakland,CA,
6700 LEONA CREEK DR,Oakland,CA,
1100 EMBARCADERO,Oakland,CA,
800 E 19TH ST,Oakland,CA,
6600 LEONA CREEK DR,Oakland,CA,
32ND ST & UNION ST,Oakland,CA,
900 56TH ST,Oakland,CA,
5400 RUTH AV,Oakland,CA,
1200 104TH AV,Oakland,CA,
101ST AV & INTERNATIONAL BLVD,Oakland,CA,
800 15TH ST,Oakland,CA,
43RD ST & TELEGRAPH AV,Oakland,CA,
2400 PARK BLVD,Oakland,CA,
9800 LAWLOR ST,Oakland,CA,
50TH AV & BANCROFT AV,Oakland,CA,
3000 CURRAN AV,Oakland,CA,
2600 SEMINARY AV,Oakland,CA,
4300 RILEA WY,Oakland,CA,
2200 E 23RD ST,Oakland,CA,
84TH AV & BANCROFT AV,Oakland,CA,
1000 69TH AV,Oakland,CA,
400 CHETWOOD ST,Oakland,CA,
2900 CHESTNUT ST,Oakland,CA,
2500 64TH AV,Oakland,CA,
5300 WENTWORTH AV,Oakland,CA,
82ND AV & BIRCH ST,Oakland,CA,
NB HIGH OFFRP ST & NB I880,Oakland,CA,
500 OAKLAND AV,Oakland,CA,
200 WEBSTER ST,Oakland,CA,
3600 35TH AV,Oakland,CA,
1400 LAKESHORE AV,Oakland,CA,
W GRAND AV & VALLEY ST,Oakland,CA,
7TH ST & CHESTER ST,Oakland,CA,
200 PARK VIEW TER,Oakland,CA,
1200 E 34TH ST,Oakland,CA,
9800 THERMAL ST,Oakland,CA,
1200 47TH AV,Oakland,CA,
BOND ST & HIGH ST,Oakland,CA,
8400 ASTER AV,Oakland,CA,
300 FRANK H OGAWA PLZ,Oakland,CA,
1800 96TH AV,Oakland,CA,
50TH AV & SAN LEANDRO ST,Oakland,CA,
800 51ST AV,Oakland,CA,
2100 RANSOM AV,Oakland,CA,
3500 72ND AV,Oakland,CA,
5800 HARMON AV,Oakland,CA,
2000 E 26TH ST,Oakland,CA,
2600 63RD AV,Oakland,CA,
16TH ST & TELEGRAPH AV,Oakland,CA,
2500 BARTLETT ST,Oakland,CA,
800 LISBON AV,Oakland,CA,
1100 CHESTER ST,Oakland,CA,
9300 MACARTHUR BLVD,Oakland,CA,
7TH ST & FRONTAGE RD,Oakland,CA,
4700 REDDING ST,Oakland,CA,
1500 98TH AV,Oakland,CA,
9100 THERMAL ST,Oakland,CA,
12TH ST & CLAY ST,Oakland,CA,
3300 WEBSTER ST,Oakland,CA,
600 MARIPOSA AV,Oakland,CA,
2100 E 12TH ST,Oakland,CA,
1300 FRUITVALE AV,Oakland,CA,
1000 10TH ST,Oakland,CA,
600 E 12TH ST,Oakland,CA,
HAVENSCOURT BLVD & INTERNATIONAL BLVD,Oakland,CA,
6100 HARMON AV,Oakland,CA,
23RD ST & NORTHGATE AV,Oakland,CA,
1300 E 28TH ST,Oakland,CA,
500 DOUGLAS AV,Oakland,CA,
4900 SHATTUCK AV,Oakland,CA,
94TH AV & PEACH ST,Oakland,CA,
34TH ST & HOLLIS ST,Oakland,CA,
2100 92ND AV,Oakland,CA,
1100 107TH AV,Oakland,CA,
2100 MONTANA ST,Oakland,CA,
600 98TH AV,Oakland,CA,
5400 CLAREMONT AV,Oakland,CA,
2300 94TH AV,Oakland,CA,
DERBY AV & GLASCOCK ST,Oakland,CA,
7300 WELD ST,Oakland,CA,
8900 BANCROFT AV,Oakland,CA,
2700 78TH AV,Oakland,CA,
2200 HARRINGTON AV,Oakland,CA,
3500 MIDVALE AV,Oakland,CA,
DOOLITTLE DR & HEGENBERGER RD,Oakland,CA,
73RD AV & HAMILTON ST,Oakland,CA,
1500 8TH ST,Oakland,CA,
5400 HOLLAND ST,Oakland,CA,
59TH ST & SHATTUCK AV,Oakland,CA,
2100 VICKSBURG AV,Oakland,CA,
5200 YGNACIO AV,Oakland,CA,
1900 7TH AV,Oakland,CA,
1600 47TH AV,Oakland,CA,
1600 96TH AV,Oakland,CA,
600 VERNON ST,Oakland,CA,
1900 UNION ST,Oakland,CA,
8TH ST & WASHINGTON ST,Oakland,CA,
10400 SHAW ST,Oakland,CA,
5300 YGNACIO AV,Oakland,CA,
67TH AV & INTERNATIONAL BLVD,Oakland,CA,
MARKET ST & MEAD AV,Oakland,CA,
5400 WENTWORTH AV,Oakland,CA,
9600 C ST,Oakland,CA,
3000 22ND AV,Oakland,CA,
2300 25TH AV,Oakland,CA,
3500 MEADOW ST,Oakland,CA,
HIGH ST & REDDING ST,Oakland,CA,
900 107TH AV,Oakland,CA,
1300 54TH AV,Oakland,CA,
E 9TH ST & FRUITVALE AV,Oakland,CA,
9100 SAN LEANDRO ST,Oakland,CA,
700 26TH ST,Oakland,CA,
81ST AV & RUDSDALE ST,Oakland,CA,
1300 87TH AV,Oakland,CA,
1000 E 33RD ST,Oakland,CA,
78TH AV & MACARTHUR BLVD,Oakland,CA,
1700 E 21ST ST,Oakland,CA,
2700 22ND AV,Oakland,CA,
E 18TH ST & 4TH AV,Oakland,CA,
9900 VOLTAIRE AV,Oakland,CA,
6100 OCEAN VIEW DR,Oakland,CA,
3000 ELMWOOD AV,Oakland,CA,
1700 10TH ST,Oakland,CA,
1200 93RD AV,Oakland,CA,
8TH ST & CENTER ST,Oakland,CA,
6800 BANCROFT AV,Oakland,CA,
4300 LINCOLN AV,Oakland,CA,
8800 DOWLING ST,Oakland,CA,
9800 STEARNS AV,Oakland,CA,
3000 SUMMIT ST,Oakland,CA,
12TH ST & PINE ST,Oakland,CA,
S COLISEUM WY & HEGENBERGER RD,Oakland,CA,
45TH ST & MARTIN LUTHER KING JR WY,Oakland,CA,
10TH ST & JEFFERSON ST,Oakland,CA,
8TH ST & HARRISON ST,Oakland,CA,
9800 A ST,Oakland,CA,
42ND AV & FOOTHILL BLVD,Oakland,CA,
9300 HOLLY ST,Oakland,CA,
3100 BROOKDALE AV,Oakland,CA,
69TH AV & SAN LEANDRO ST,Oakland,CA,
1400 96TH AV,Oakland,CA,
900 32ND ST,Oakland,CA,
BELLEVUE AV & PERKINS ST,Oakland,CA,
900 62ND ST,Oakland,CA,
HEGENBERGER RD & PARDEE DR,Oakland,CA,
2000 69TH AV,Oakland,CA,
1800 74TH AV,Oakland,CA,
2700 77TH AV,Oakland,CA,
3200 DAVIS ST,Oakland,CA,
2500 75TH AV,Oakland,CA,
2300 109TH AV,Oakland,CA,
500 EMBARCADERO WEST,Oakland,CA,
200 INTERNATIONAL BLVD,Oakland,CA,
6000 TELEGRAPH AV,Oakland,CA,
5TH AV & FOOTHILL BLVD,Oakland,CA,
3200 TELEGRAPH AV,Oakland,CA,
3400 MACARTHUR BLVD,Oakland,CA,
1500 FOOTHILL BLVD,Oakland,CA,
E 34TH ST & PARK BLVD,Oakland,CA,
11TH ST & FRANKLIN ST,Oakland,CA,
1900 E 26TH ST,Oakland,CA,
900 83RD AV,Oakland,CA,
2000 10TH AV,Oakland,CA,
2400 68TH AV,Oakland,CA,
1200 18TH ST,Oakland,CA,
800 77TH AV,Oakland,CA,
COLLEGE AV & MILES AV,Oakland,CA,
1100 POPLAR ST,Oakland,CA,
1900 62ND AV,Oakland,CA,
2500 TELEGRAPH AV,Oakland,CA,
6TH ST & BROADWAY,Oakland,CA,
6100 LA SALLE AV,Oakland,CA,
4000 QUIGLEY ST,Oakland,CA,
GLEN AV & PIEDMONT AV,Oakland,CA,
1600 74TH AV,Oakland,CA,
E 12TH ST & 5TH AV,Oakland,CA,
700 55TH ST,Oakland,CA,
E 18TH ST & 8TH AV,Oakland,CA,
3500 ALLENDALE AV,Oakland,CA,
79TH AV & LOCUST ST,Oakland,CA,
7TH AV & INTERNATIONAL BLVD,Oakland,CA,
2700 E 12TH ST,Oakland,CA,
1700 24TH AV,Oakland,CA,
700 E 12TH ST,Oakland,CA,
9300 HILLSIDE ST,Oakland,CA,
6000 COLLEGE AV,Oakland,CA,
200 LESTER AV,Oakland,CA,
3500 65TH AV,Oakland,CA,
2400 MONTICELLO AV,Oakland,CA,
1100 PERALTA ST,Oakland,CA,
39TH AV & MACARTHUR BLVD,Oakland,CA,
1400 23RD AV,Oakland,CA,
3200 MORCOM AV,Oakland,CA,
100 HEGENBERGER LOOP,Oakland,CA,
2000 55TH AV,Oakland,CA,
1500 33RD AV,Oakland,CA,
1500 48TH AV,Oakland,CA,
0 TUNNEL RD,Oakland,CA,
2200 RANSOM AV,Oakland,CA,
1100 89TH AV,Oakland,CA,
9200 EMPIRE RD,Oakland,CA,
W GRAND AV & MARITIME ST,Oakland,CA,
1700 6TH AV,Oakland,CA,
4000 SUTER ST,Oakland,CA,
2800 WEST ST,Oakland,CA,
1400 22ND AV,Oakland,CA,
10900 MACARTHUR BLVD,Oakland,CA,
1200 102ND AV,Oakland,CA,
3200 MARTIN LUTHER KING JR WY,Oakland,CA,
MARKET ST & SAN PABLO AV,Oakland,CA,
800 29TH ST,Oakland,CA,
2900 E 7TH ST,Oakland,CA,
5000 WOODMINSTER LN,Oakland,CA,
11TH ST & HARRISON ST,Oakland,CA,
4400 MASTERSON ST,Oakland,CA,
2500 E 11TH ST,Oakland,CA,
7500 WELD ST,Oakland,CA,
2800 SCHOOL ST,Oakland,CA,
12TH ST & HARRISON ST,Oakland,CA,
1000 77TH AV,Oakland,CA,
8600 SENECA ST,Oakland,CA,
700 KINGSTON AV,Oakland,CA,
1700 13TH ST,Oakland,CA,
400 VERNON ST,Oakland,CA,
800 58TH ST,Oakland,CA,
600 OAKLAND AV,Oakland,CA,
5200 COLE ST,Oakland,CA,
3300 HIGH ST,Oakland,CA,
500 VALLE VISTA AV,Oakland,CA,
1500 14TH AV,Oakland,CA,
700 AILEEN ST,Oakland,CA,
GRAND AV & MANDANA BLVD,Oakland,CA,
3500 LINCOLN AV,Oakland,CA,
DAVIS ST & FRUITVALE AV,Oakland,CA,
BAY PL & GRAND AV,Oakland,CA,
FRUITVALE AV & GALINDO ST,Oakland,CA,
82ND AV & DOWLING ST,Oakland,CA,
300 PENDLETON WY,Oakland,CA,
7800 WELD ST,Oakland,CA,
2600 OCTAVIA ST,Oakland,CA,
MACARTHUR BLVD & PARKER AV,Oakland,CA,
7800 CREST AV,Oakland,CA,
1600 22ND AV,Oakland,CA,
500 66TH ST,Oakland,CA,
1100 FOOTHILL BLVD,Oakland,CA,
8000 NEY AV,Oakland,CA,
8TH AV & FOOTHILL BLVD,Oakland,CA,
2700 35TH AV,Oakland,CA,
3200 DELAWARE ST,Oakland,CA,
900 88TH AV,Oakland,CA,
2400 94TH AV,Oakland,CA,
3100 MARKET ST,Oakland,CA,
5300 MARKET ST,Oakland,CA,
1400 76TH AV,Oakland,CA,
1900 10TH AV,Oakland,CA,
14TH AV & E 31ST ST,Oakland,CA,
300 SANTA CLARA AV,Oakland,CA,
73RD AV & KRAUSE AV,Oakland,CA,
9800 EDES AV,Oakland,CA,
1300 50TH AV,Oakland,CA,
200 9TH ST,Oakland,CA,
1000 84TH AV,Oakland,CA,
2000 13TH AV,Oakland,CA,
700 MANDELA PKWY,Oakland,CA,
1700 33RD AV,Oakland,CA,
1600 11TH ST,Oakland,CA,
43RD ST & MARKET ST,Oakland,CA,
900 WEBSTER ST,Oakland,CA,
PIEDMONT AV & PLEASANT VALLEY AV,Oakland,CA,
600 JEAN ST,Oakland,CA,
105TH AV & E ST,Oakland,CA,
2900 BONA ST,Oakland,CA,
800 AILEEN ST,Oakland,CA,
AVENAL AV & SEMINARY AV,Oakland,CA,
1800 70TH AV,Oakland,CA,
24TH ST & MARKET ST,Oakland,CA,
38TH ST & TELEGRAPH AV,Oakland,CA,
9200 BIRCH ST,Oakland,CA,
29TH ST & WEST ST,Oakland,CA,
300 22ND ST,Oakland,CA,
1900 HARRINGTON AV,Oakland,CA,
6000 FOOTHILL BLVD,Oakland,CA,
3800 FOOTHILL BLVD,Oakland,CA,
900 ADELINE ST,Oakland,CA,
1300 61ST AV,Oakland,CA,
12TH ST & CAMPBELL ST,Oakland,CA,
2400 106TH AV,Oakland,CA,
12500 CAMPUS DR,Oakland,CA,
2ND ST & BROADWAY,Oakland,CA,
6300 MACARTHUR BLVD,Oakland,CA,
6800 INTERNATIONAL BLVD,Oakland,CA,
2100 E 15TH ST,Oakland,CA,
3000 60TH AV,Oakland,CA,
1700 86TH AV,Oakland,CA,
1800 103RD AV,Oakland,CA,
7600 HOLLY ST,Oakland,CA,
10900 BANCROFT AV,Oakland,CA,
5800 KINGSLEY CIR,Oakland,CA,
1900 35TH AV,Oakland,CA,
22ND ST & BROADWAY,Oakland,CA,
2400 RENWICK ST,Oakland,CA,
1300 E 31ST ST,Oakland,CA,
1300 93RD AV,Oakland,CA,
0 ANAIR WY,Oakland,CA,
61ST AV & INTERNATIONAL BLVD,Oakland,CA,
CLAREMONT AV & HUDSON ST,Oakland,CA,
500 29TH ST,Oakland,CA,
300 43RD ST,Oakland,CA,
5300 SHAFTER AV,Oakland,CA,
BROADWAY & COLLEGE AV,Oakland,CA,
1200 107TH AV,Oakland,CA,
88TH AV & HILLSIDE ST,Oakland,CA,
10TH ST & CENTER ST,Oakland,CA,
3500 BROADWAY,Oakland,CA,
400 61ST ST,Oakland,CA,
1300 91ST AV,Oakland,CA,
HILLER DR & TUNNEL RD,Oakland,CA,
E 12TH ST & 23RD AV,Oakland,CA,
0 TOWN SQUARE PL,Oakland,CA,
18TH ST & ADELINE ST,Oakland,CA,
2400 77TH AV,Oakland,CA,
400 HUDSON ST,Oakland,CA,
3500 PIERSON ST,Oakland,CA,
0 YOSEMITE AV,Oakland,CA,
1800 33RD AV,Oakland,CA,
1900 47TH AV,Oakland,CA,
400 MCAULEY ST,Oakland,CA,
47TH ST & SHATTUCK AV,Oakland,CA,
1900 92ND AV,Oakland,CA,
2400 BROADWAY,Oakland,CA,
10000 BERNHARDT DR,Oakland,CA,
2100 103RD AV,Oakland,CA,
NORTHGATE AV & SYCAMORE ST,Oakland,CA,
10TH ST & WASHINGTON ST,Oakland,CA,
40TH AV & FOOTHILL BLVD,Oakland,CA,
1600 19TH AV,Oakland,CA,
ISABELLA ST & SAN PABLO AV,Oakland,CA,
96TH AV & MACARTHUR BLVD,Oakland,CA,
1600 89TH AV,Oakland,CA,
1300 60TH AV,Oakland,CA,
E 17TH ST & FRUITVALE AV,Oakland,CA,
1900 107TH AV,Oakland,CA,
1400 102ND AV,Oakland,CA,
800 E 28TH ST,Oakland,CA,
1900 98TH AV,Oakland,CA,
2100 MYRTLE ST,Oakland,CA,
1800 ALICE ST,Oakland,CA,
2300 108TH AV,Oakland,CA,
600 61ST ST,Oakland,CA,
2300 LAKESHORE AV,Oakland,CA,
2300 IVY DR,Oakland,CA,
8300 IRIS ST,Oakland,CA,
600 53RD ST,Oakland,CA,
700 FILBERT ST,Oakland,CA,
1200 100TH AV,Oakland,CA,
1500 ADELINE ST,Oakland,CA,
500 EL EMBARCADERO,Oakland,CA,
4500 THOMPSON ST,Oakland,CA,
900 45TH ST,Oakland,CA,
700 36TH ST,Oakland,CA,
300 LEE ST,Oakland,CA,
2ND ST & WEBSTER ST,Oakland,CA,
SAN LEANDRO ST & SEMINARY AV,Oakland,CA,
9700 MOUNTAIN BLVD,Oakland,CA,
600 SANTA RAY AV,Oakland,CA,
2000 94TH AV,Oakland,CA,
0 DEERING CT,Oakland,CA,
2500 38TH AV,Oakland,CA,
2000 40TH AV,Oakland,CA,
2000 23RD AV,Oakland,CA,
E 21ST ST & 23RD AV,Oakland,CA,
700 60TH ST,Oakland,CA,
21ST ST & SAN PABLO AV,Oakland,CA,
1700 96TH AV,Oakland,CA,
81ST AV & SAN LEANDRO ST,Oakland,CA,
1900 E 17TH ST,Oakland,CA,
1400 E 33RD ST,Oakland,CA,
7000 ARTHUR ST,Oakland,CA,
7700 GARFIELD AV,Oakland,CA,
BROADWAY & EMBARCADERO WEST,Oakland,CA,
4800 GORDON ST,Oakland,CA,
1400 12TH ST,Oakland,CA,
1300 MACARTHUR BLVD,Oakland,CA,
1000 2ND AV,Oakland,CA,
9600 MACARTHUR BLVD,Oakland,CA,
300 19TH ST,Oakland,CA,
3000 E 16TH ST,Oakland,CA,
2300 E 27TH ST,Oakland,CA,
1500 32ND ST,Oakland,CA,
5800 CANNING ST,Oakland,CA,
2600 64TH AV,Oakland,CA,
3800 35TH AV,Oakland,CA,
300 OAK ST,Oakland,CA,
2500 TRUMAN AV,Oakland,CA,
COLLEGE AV & MANILA AV,Oakland,CA,
9900 D ST,Oakland,CA,
7TH ST & WASHINGTON ST,Oakland,CA,
100 PEARL ST,Oakland,CA,
1100 32ND ST,Oakland,CA,
3300 PARK BLVD,Oakland,CA,
3700 13TH AV,Oakland,CA,
300 PALM AV,Oakland,CA,
0 PEARL ST,Oakland,CA,
4400 MOUNTAIN BLVD,Oakland,CA,
55TH ST & GASKILL ST,Oakland,CA,
100 LOUVAINE AV,Oakland,CA,
2100 24TH AV,Oakland,CA,
600 33RD ST,Oakland,CA,
9500 BANCROFT AV,Oakland,CA,
8500 MACARTHUR BLVD,Oakland,CA,
4100 WEBSTER ST,Oakland,CA,
900 WASHINGTON ST,Oakland,CA,
CONGRESS AV & COURTLAND AV,Oakland,CA,
4000 WHITTLE AV,Oakland,CA,
90TH AV & BIRCH ST,Oakland,CA,
5300 MANILA AV,Oakland,CA,
26TH ST & BROADWAY,Oakland,CA,
98TH AV & B ST,Oakland,CA,
1400 103RD AV,Oakland,CA,
8000 OLIVE ST,Oakland,CA,
8400 GOLF LINKS RD,Oakland,CA,
600 E 19TH ST,Oakland,CA,
3600 MACARTHUR BLVD,Oakland,CA,
3500 66TH AV,Oakland,CA,
900 87TH AV,Oakland,CA,
1400 9TH AV,Oakland,CA,
17TH ST & CLAY ST,Oakland,CA,
700 30TH ST,Oakland,CA,
30TH ST & BROADWAY,Oakland,CA,
MARKET ST & STANFORD AV,Oakland,CA,
2400 88TH AV,Oakland,CA,
4300 BOND ST,Oakland,CA,
3600 MAPLE AV,Oakland,CA,
1000 83RD AV,Oakland,CA,
21ST AV & FOOTHILL BLVD,Oakland,CA,
18TH ST & MANDELA PKWY,Oakland,CA,
55TH ST & MARKET ST,Oakland,CA,
5800 TRASK ST,Oakland,CA,
700 85TH AV,Oakland,CA,
1900 16TH AV,Oakland,CA,
5700 MARTIN LUTHER KING JR WY,Oakland,CA,
1100 92ND AV,Oakland,CA,
2900 E 22ND ST,Oakland,CA,
52ND ST & WEST ST,Oakland,CA,
2400 99TH AV,Oakland,CA,
300 JAYNE AV,Oakland,CA,
E 12TH ST & 37TH AV,Oakland,CA,
