Address,City,State,Zip
GREENRIDGE DR & KELLER AV,Oakland,CA,
BELLEVUE AV & PALM AV,Oakland,CA,
72ND AV & OUTLOOK AV,Oakland,CA,
0 SAMARIA LN,Oakland,CA,
1600 LEIMERT BLVD,Oakland,CA,
98TH AV & ARMSTRONG DR,Oakland,CA,
MILES AV & PATTON ST,Oakland,CA,
100 HERMOSA AV,Oakland,CA,
FOOTHILL BLVD & WB I580,Oakland,CA,
6200 CONTRA COSTA RD,Oakland,CA,
1800 MYRTLE ST,Oakland,CA,
3000 ASHBROOK CT,Oakland,CA,
5800 MORAGA AV,Oakland,CA,
800 42ND AV,Oakland,CA,
COOLIDGE AV & DEERING ST,Oakland,CA,
62ND AV & FORTUNE WY,Oakland,CA,
10500 BYRON AV,Oakland,CA,
TAC 3,Oakland,CA,
1200 10TH ST,Oakland,CA,
600 E 21ST ST,Oakland,CA,
800 E 17TH ST,Oakland,CA,
1300 HIGH ST,Oakland,CA,
16TH AV & E 21ST ST,Oakland,CA,
3400 CRANE WY,Oakland,CA,
500 MARTIN ST,Oakland,CA,
1000 ELBERT ST,Oakland,CA,
HARRISON ST & EB I580,Oakland,CA,
600 FLORENCE AV,Oakland,CA,
38TH AV & QUIGLEY ST,Oakland,CA,
2200 TUNNEL RD,Oakland,CA,
10700 BANCROFT AV,Oakland,CA,
400 HEGENBERGER LOOP,Oakland,CA,
EMBARCADERO WEST & JEFFERSON ST,Oakland,CA,
4800 MCDONELL AV,Oakland,CA,
76TH AV & RUDSDALE ST,Oakland,CA,
9100 CASTLEWOOD ST,Oakland,CA,
2000 MANDELA PKWY,Oakland,CA,
4400 HARBOR VIEW AV,Oakland,CA,
7500 SUNKIST DR,Oakland,CA,
JOAQUIN MILLER RD & SB S13,Oakland,CA,
1700 47TH AV,Oakland,CA,
14TH AV & BEAUMONT AV,Oakland,CA,
10TH AV & E 11TH ST,Oakland,CA,
6100 E 16TH ST,Oakland,CA,
2300 TIFFIN RD,Oakland,CA,
4100 KUHNLE AV,Oakland,CA,
3900 MALCOLM AV,Oakland,CA,
6200 WESTWOOD WY,Oakland,CA,
6400 SWAINLAND RD,Oakland,CA,
4200 MAYBELLE AV,Oakland,CA,
62ND AV & EASTLAWN ST,Oakland,CA,
5900 PINEWOOD RD,Oakland,CA,
6900 CHARING CROSS RD,Oakland,CA,
FLEMING AV & MONTICELLO AV,Oakland,CA,
4300 SHORT HILL RD,Oakland,CA,
FLEMING AV & SEMINARY AV,Oakland,CA,
38TH AV & AGUA VISTA ST,Oakland,CA,
10700 MARK ST,Oakland,CA,
10900 NOVELDA DR,Oakland,CA,
51ST AV & VICKSBURG AV,Oakland,CA,
FRUITVALE AV & INTERNATIONAL BLV,Oakland,CA,
900 PARK LN,Oakland,CA,
6200 CROWN AV,Oakland,CA,
1100 GRAND VIEW DR,Oakland,CA,
5300 YUBA AV,Oakland,CA,
4300 REINHARDT DR,Oakland,CA,
3400 PENNIMAN AV,Oakland,CA,
2500 CHESTNUT ST,Oakland,CA,
FERNHOFF RD & SKYLINE BLVD,Oakland,CA,
7100 BANCROFT AV,Oakland,CA,
4000 E 12TH ST,Oakland,CA,
900 E 23RD ST,Oakland,CA,
1400 E 26TH STREET WY,Oakland,CA,
900 LEO WY,Oakland,CA,
BALDWIN ST & MC CLARY AV,Oakland,CA,
GASPAR DR & SNAKE RD,Oakland,CA,
ALICIA ST & MARKET ST,Oakland,CA,
3500 RUBIN DR,Oakland,CA,
4100 OAKMORE RD,Oakland,CA,
47TH AV & SAN CARLOS AV,Oakland,CA,
5000 CAMDEN ST,Oakland,CA,
E 17TH ST & 18TH AV,Oakland,CA,
63RD AV & CAMDEN ST,Oakland,CA,
4TH ST & CASTRO ST,Oakland,CA,
BERGEDO DR & NOVELDA DR,Oakland,CA,
21ST ST & UNION ST,Oakland,CA,
3100 CARLSEN ST,Oakland,CA,
6500 FARALLON WY,Oakland,CA,
E 20TH ST & 5TH AV,Oakland,CA,
E 15TH ST & 31ST AV,Oakland,CA,
BROWN AV & CALIFORNIA ST,Oakland,CA,
200 BRUSH ST,Oakland,CA,
4100 FONTAINE CT,Oakland,CA,
1300 CASTRO ST,Oakland,CA,
LENOX AV & VAN BUREN AV,Oakland,CA,
900 CASTRO ST,Oakland,CA,
2400 ALIDA ST,Oakland,CA,
66TH AV & NB COLISEUM ONRP WY,Oakland,CA,
800 MOUNTAIN BLVD,Oakland,CA,
1200 ALVARADO RD,Oakland,CA,
DUNBAR DR & TUBMAN DR,Oakland,CA,
HUDSON ST & LOCKSLEY AV,Oakland,CA,
0 CLARA CT,Oakland,CA,
E 34TH ST & STUART ST,Oakland,CA,
6TH ST & HARRISON ST,Oakland,CA,
FOOTHILL BLVD & IRVING AV,Oakland,CA,
1100 HEGENBERGER RD,Oakland,CA,
1200 JACKSON ST,Oakland,CA,
5TH AV & NB I880,Oakland,CA,
1700 TRESTLE GLEN RD,Oakland,CA,
6400 MOKELUMNE AV,Oakland,CA,
6400 AVENAL AV,Oakland,CA,
34TH ST & MAGNOLIA ST,Oakland,CA,
3500 BRUNELL DR,Oakland,CA,
BROADWAY TER & CARLTON ST,Oakland,CA,
7200 SNAKE RD,Oakland,CA,
61ST ST & CANNING ST,Oakland,CA,
6400 HILLMONT DR,Oakland,CA,
7200 HOMEWOOD DR,Oakland,CA,
46TH AV & YGNACIO AV,Oakland,CA,
1500 MUNSON WY,Oakland,CA,
1900 MARIN WY,Oakland,CA,
78TH AV & PLYMOUTH ST,Oakland,CA,
5900 AVOCA AV,Oakland,CA,
2200 E 30TH ST,Oakland,CA,
3400 VICTOR AV,Oakland,CA,
ESTATES DR & PARK BLVD,Oakland,CA,
800 KIRKHAM CT,Oakland,CA,
17TH AV & SONOMA WY,Oakland,CA,
57TH AV & MACARTHUR BLVD,Oakland,CA,
500 NORTH ST,Oakland,CA,
10400 PEARMAIN ST,Oakland,CA,
DEERING ST & HUMBOLDT AV,Oakland,CA,
WEST OAKLAND BART,Oakland,CA,
200 98TH AV,Oakland,CA,
2000 ARROWHEAD DR,Oakland,CA,
9600 GOLF LINKS RD,Oakland,CA,
1500 20TH AV,Oakland,CA,
NB S13 & EB S24,Oakland,CA,
8100 1&2 IDLEWOOD ST,Oakland,CA,
GLASCOCK ST & PETERSON ST,Oakland,CA,
0 FIELDBROOK PL,Oakland,CA,
82ND AV & UTAH ST,Oakland,CA,
2200 E 33RD ST,Oakland,CA,
12TH ST & WEST ST,Oakland,CA,
E 10TH ST & 23RD AV,Oakland,CA,
KELLER AV & SURREY LN,Oakland,CA,
BEAT 19,Oakland,CA,
HIGH ST & TOMPKINS AV,Oakland,CA,
15TH AV & INDEPENDENCE WY,Oakland,CA,
5900 MILES AV,Oakland,CA,
LEONA ST & RUSTING AV,Oakland,CA,
7000 EXETER DR,Oakland,CA,
98TH AV & BLAKE DR,Oakland,CA,
ERIE ST & MANDANA BLVD,Oakland,CA,
1400 WOOD ST,Oakland,CA,
3600 LINCOLN AV,Oakland,CA,
4300 DUNSMUIR AV,Oakland,CA,
1700 78TH AV,Oakland,CA,
5500 MORSE DR,Oakland,CA,
7400 WOODROW DR,Oakland,CA,
CAIRO RD & CORAL RD,Oakland,CA,
MOUNTAIN BLVD & TWITTER LN,Oakland,CA,
3900 ARCHMONT PL,Oakland,CA,
9TH ST & CASTRO ST,Oakland,CA,
105TH AV & CREEKSIDE CIR,Oakland,CA,
E 8TH ST & FRUITVALE AV,Oakland,CA,
5600 BACON RD,Oakland,CA,
6600 ARTHUR ST,Oakland,CA,
17TH ST & WEST ST,Oakland,CA,
1300 42ND AV,Oakland,CA,
3300 LINDEN ST,Oakland,CA,
3100 22ND AV,Oakland,CA,
2100 MANZANITA DR,Oakland,CA,
E 10TH ST & 50TH AV,Oakland,CA,
1800 9TH ST,Oakland,CA,
6600 BROADWAY,Oakland,CA,
6500 PINEHAVEN RD,Oakland,CA,
10900 ELVESSA ST,Oakland,CA,
BANCROFT AV & WARNER AV,Oakland,CA,
2200 BRUSH ST,Oakland,CA,
0 JOAQUIN MILLER CT,Oakland,CA,
3900 EDWARDS AV,Oakland,CA,
BANCROFT WY & INTERNATIONAL BLVD,Oakland,CA,
60TH ST & ADELINE ST,Oakland,CA,
500 ZEPHYR DR,Oakland,CA,
5900 OUTLOOK AV,Oakland,CA,
1100 UNION ST,Oakland,CA,
42ND ST & RICH ST,Oakland,CA,
10300 WALNUT ST,Oakland,CA,
2700 DARNBY DR,Oakland,CA,
3200 PALMER AV,Oakland,CA,
5100 7TH ST,Oakland,CA,
6200 VALLEY VIEW RD,Oakland,CA,
5200 REDONDO AV,Oakland,CA,
6500 SWAINLAND RD,Oakland,CA,
GREENLY DR & LAMP ST,Oakland,CA,
3300 BURDECK DR,Oakland,CA,
6100 SKYLINE BLVD,Oakland,CA,
5700 AMY DR,Oakland,CA,
E 22ND ST & AUSTIN ST,Oakland,CA,
1300 38TH AV,Oakland,CA,
4800 CLAREWOOD DR,Oakland,CA,
87TH AV & B ST,Oakland,CA,
61ST ST & OCCIDENTAL ST,Oakland,CA,
DAISY ST & FAIR AV,Oakland,CA,
SEMINARY AV & TRASK ST,Oakland,CA,
3000 FRYE ST,Oakland,CA,
PALM AV & STATEN AV,Oakland,CA,
4600 MOUNTAIN BLVD,Oakland,CA,
6000 MONROE AV,Oakland,CA,
RIDGEWAY AV & TERRACE ST,Oakland,CA,
E 20TH ST & 7TH AV,Oakland,CA,
DIRECTED PATROL DIST 2,Oakland,CA,
AILEEN ST & DOVER ST,Oakland,CA,
6200 RACINE ST,Oakland,CA,
3300 RICHMOND BLVD,Oakland,CA,
500 E 10TH ST,Oakland,CA,
E 25TH ST & HIGHLAND AV,Oakland,CA,
1900 MANZANITA DR,Oakland,CA,
500 40 ST,Oakland,CA,
6600 MOKELUMNE AV,Oakland,CA,
FRUITVALE AV & WHITTLE AV,Oakland,CA,
8900 OLIVE ST,Oakland,CA,
3400 HENRIETTA ST,Oakland,CA,
10TH ST & KIRKHAM WY,Oakland,CA,
600 MANDELA PKWY,Oakland,CA,
1500 GRAND VIEW DR,Oakland,CA,
27TH ST & ALICIA ST,Oakland,CA,
ABBEY ST & ALLENDALE AV,Oakland,CA,
98TH AV & CARY CT,Oakland,CA,
7100 SUNKIST DR,Oakland,CA,
13TH ST & MARKET ST,Oakland,CA,
49TH ST & LAWTON AV,Oakland,CA,
700 OAK ST,Oakland,CA,
GILBERT ST & RIDGEWAY AV,Oakland,CA,
101ST AV & SUNNYSIDE ST,Oakland,CA,
1700 20TH ST,Oakland,CA,
FOREST HILL AV & TIFFIN RD,Oakland,CA,
500 DWIGHT PL,Oakland,CA,
4100 CULVER CT,Oakland,CA,
6900 LION WAY,Oakland,CA,
MACARTHUR BLVD & SAVANNAH CT,Oakland,CA,
1500 85TH AV,Oakland,CA,
1000 SANTA MARIA CT,Oakland,CA,
BROOKDALE AV & EASTMAN AV,Oakland,CA,
PEARMAIN ST & STONE ST,Oakland,CA,
46TH AV & MELROSE AV,Oakland,CA,
NB HIGH ONRP ST & NB I880,Oakland,CA,
FLORENCE TER & MOUNTAIN BLVD,Oakland,CA,
7100 HEMLOCK ST,Oakland,CA,
0 DANBURY ST,Oakland,CA,
GROSVENOR PL & TRESTLE GLEN RD,Oakland,CA,
2600 90TH AV,Oakland,CA,
100 STARVIEW CT,Oakland,CA,
5600 LOWELL ST,Oakland,CA,
3500 ALAMEDA AV,Oakland,CA,
9900 MADDUX DR,Oakland,CA,
7100 SARONI DR,Oakland,CA,
24TH ST & WILLOW ST,Oakland,CA,
GREEN ACRE RD & MACARTHUR BLVD,Oakland,CA,
6TH ST & CASTRO ST,Oakland,CA,
6600 AVENAL AV,Oakland,CA,
5000 SHATTUCK AV,Oakland,CA,
60TH AV & EASTLAWN ST,Oakland,CA,
10900 GLEN ARTNEY ST,Oakland,CA,
104TH AV & ROYAL ANN ST,Oakland,CA,
0 BURMA RD,Oakland,CA,
0 CAMISA CIR,Oakland,CA,
10200 PLYMOUTH ST,Oakland,CA,
3700 LAGUNA AV,Oakland,CA,
91ST AV & D ST,Oakland,CA,
3800 COLUMBIAN DR,Oakland,CA,
BAYVIEW DR & LEONA DR,Oakland,CA,
MADELINE ST & MAPLE AV,Oakland,CA,
2200 MASTLANDS DR,Oakland,CA,
6100 BULLARD DR,Oakland,CA,
500 WICKSON AV,Oakland,CA,
CALAVARAS AV & DAISY ST,Oakland,CA,
1200 62ND ST,Oakland,CA,
6500 HILLMONT DR,Oakland,CA,
1900 INDEPENDENCE WY,Oakland,CA,
13300 SKYLINE BLVD,Oakland,CA,
39TH AV & CARRINGTON ST,Oakland,CA,
1100 NORWOOD AV,Oakland,CA,
NEY AV & PARTRIDGE AV,Oakland,CA,
2000 TAMPA AV,Oakland,CA,
1400 GRAND VIEW DR,Oakland,CA,
9000 SKYLINE BLVD,Oakland,CA,
0 CATHY LN,Oakland,CA,
94TH AV & BURR ST,Oakland,CA,
ASCOT DR & SKYLINE BLVD,Oakland,CA,
0 BAY FOREST CT,Oakland,CA,
800 FRUITVALE AV,Oakland,CA,
8TH ST & FALLON ST,Oakland,CA,
300 BRUSH ST,Oakland,CA,
5800 BALBOA DR,Oakland,CA,
2400 E 26TH ST,Oakland,CA,
4100 WILSHIRE BLVD,Oakland,CA,
1400 WESTVIEW DR,Oakland,CA,
5900 MORSE DR,Oakland,CA,
10400 ROYAL ANN ST,Oakland,CA,
13TH ST & MANDELA PKWY,Oakland,CA,
16TH ST & UNION ST,Oakland,CA,
7200 BUCKINGHAM BLVD,Oakland,CA,
2400 INYO AV,Oakland,CA,
4300 ST CLOUD CT,Oakland,CA,
2700 10TH AV,Oakland,CA,
2100 COMMERCE WY,Oakland,CA,
4200 E 12TH ST,Oakland,CA,
10000 STANLEY AV,Oakland,CA,
6800 PASO ROBLES DR,Oakland,CA,
1100 LONGRIDGE RD,Oakland,CA,
0 DOROTHY PL,Oakland,CA,
5500 BALBOA DR,Oakland,CA,
5600 MACARTHUR BLVD,Oakland,CA,
1200 57TH AV,Oakland,CA,
9200 CASTLEWOOD ST,Oakland,CA,
4600 BELFAST AV,Oakland,CA,
2200 E 28TH ST,Oakland,CA,
3100 MADELINE ST,Oakland,CA,
0 CRESTMONT DR,Oakland,CA,
MERA ST & ROSEDALE AV,Oakland,CA,
3600 BUTTERS DR,Oakland,CA,
E 21ST ST & MITCHELL ST,Oakland,CA,
BANCROFT AV & FORTUNE WY,Oakland,CA,
10TH ST & CHESTNUT ST,Oakland,CA,
1600 18TH ST,Oakland,CA,
8TH AV & E 8TH ST,Oakland,CA,
WB I580 & SAN PABLO AV,Oakland,CA,
4500 REDDING ST,Oakland,CA,
2000 GLEASON WY,Oakland,CA,
4300 FAIR AV,Oakland,CA,
20TH ST & CAMPBELL ST,Oakland,CA,
1100 CLARENDON CRES,Oakland,CA,
1500 WEST ST,Oakland,CA,
102ND AV & BANCROFT AV,Oakland,CA,
37TH AV & E 8TH ST,Oakland,CA,
100 MOSS WY,Oakland,CA,
9300 GRANADA AV,Oakland,CA,
4300 ADELAIDE ST,Oakland,CA,
6000 OCCIDENTAL ST,Oakland,CA,
1000 ALVARADO RD,Oakland,CA,
2500 E 22ND ST,Oakland,CA,
1300 45TH AV,Oakland,CA,
60TH AV & AVENAL AV,Oakland,CA,
CLIFTON ST & MILES AV,Oakland,CA,
11000 CLIFFLAND AV,Oakland,CA,
10900 FOOTHILL BLVD,Oakland,CA,
GOSS ST & PINE ST,Oakland,CA,
4200 FRUITVALE AV,Oakland,CA,
2600 HICKORY ST,Oakland,CA,
7000 MARLBOROUGH TER,Oakland,CA,
45TH AV & MELROSE AV,Oakland,CA,
16TH AV & GLEASON WY,Oakland,CA,
10TH AV & E 21ST ST,Oakland,CA,
6300 ASCOT DR,Oakland,CA,
BROADWAY & PATTON ST,Oakland,CA,
700 ROSAL AV,Oakland,CA,
E 22ND ST & 7TH AV,Oakland,CA,
85TH AV & BLAINE ST,Oakland,CA,
FLEMING AV & RAWSON ST,Oakland,CA,
1800 MANZANITA DR,Oakland,CA,
3RD ST & LINDEN ST,Oakland,CA,
HORTON ST & MANDELA PKWY,Oakland,CA,
SB S13 CONN & TUNNEL RD,Oakland,CA,
FAIRMOUNT AV & MONTE VISTA AV,Oakland,CA,
0 98TH AV,Oakland,CA,
1100 E 11TH ST,Oakland,CA,
4100 RANDOLPH AV,Oakland,CA,
4400 NORTON AV,Oakland,CA,
3200 STUART ST,Oakland,CA,
37TH ST & LINDEN ST,Oakland,CA,
JAYNE AV & LEE ST,Oakland,CA,
3800 KANSAS ST,Oakland,CA,
EDES AV & TYLER ST,Oakland,CA,
19TH AV & E 28TH ST,Oakland,CA,
LEIGHTON ST & W MACARTHUR BLVD,Oakland,CA,
4300 HARBORD DR,Oakland,CA,
3200 E 12TH ST,Oakland,CA,
600 LA PRENDA DR,Oakland,CA,
5400 GOLDEN GATE AV,Oakland,CA,
56TH ST & GENOA ST,Oakland,CA,
19TH AV & E 20TH ST,Oakland,CA,
10800 JULIUS ST,Oakland,CA,
4500 MANILA AV,Oakland,CA,
92ND AV & E ST,Oakland,CA,
6400 SHELTERWOOD DR,Oakland,CA,
6100 CASTLE DR,Oakland,CA,
2800 106TH AV,Oakland,CA,
1500 COMMERCE WY,Oakland,CA,
PINEHAVEN RD & THORNHILL DR,Oakland,CA,
25TH ST & WEST ST,Oakland,CA,
1700 45TH AV,Oakland,CA,
900 23RD AV,Oakland,CA,
ADAMS ST & EUCLID AV,Oakland,CA,
3400 ELMWOOD AV,Oakland,CA,
3700 MOUNTAIN BLVD,Oakland,CA,
PIEDMONT AV,Oakland,CA,
DELMONT AV & SUNNYMERE AV,Oakland,CA,
24TH ST & MANDELA PKWY,Oakland,CA,
E 17TH ST & 20TH AV,Oakland,CA,
BANCROFT AV & FREMONT WY,Oakland,CA,
108TH AV & VOLTAIRE AV,Oakland,CA,
98TH AV & LYNDHURST ST,Oakland,CA,
ALCATRAZ AV & SALEM ST,Oakland,CA,
0 COVENT LN,Oakland,CA,
109TH AV & BANCROFT AV,Oakland,CA,
3RD ST & CHESTER ST,Oakland,CA,
3500 MIRASOL AV,Oakland,CA,
MARTIN LUTHER KING JR WY & WB S24 CONN,Oakland,CA,
9900 GOULD ST,Oakland,CA,
ALMA AV & MCKINLEY AV,Oakland,CA,
SANTA ROSA AV & VERNON ST,Oakland,CA,
7000 BUCKINGHAM BLVD,Oakland,CA,
W MACARTHUR BLVD & MARTIN LUTHER,Oakland,CA,
2700 E 11TH ST,Oakland,CA,
109TH AV & MCINTYRE ST,Oakland,CA,
E 11TH ST & 7TH AV,Oakland,CA,
3100 82ND AV,Oakland,CA,
12TH ST & UNION ST,Oakland,CA,
2400 NORTHGATE AV,Oakland,CA,
107TH AV & PERALTA OAKS DR,Oakland,CA,
SPEC ASSN,Oakland,CA,
1300 BARROWS RD,Oakland,CA,
0 VICTORY CT,Oakland,CA,
68TH AV & ARTHUR ST,Oakland,CA,
6600 BANNING DR,Oakland,CA,
1300 DERBY AV,Oakland,CA,
62ND ST & CANNING ST,Oakland,CA,
GHORMLEY AV & MADDUX DR,Oakland,CA,
58TH ST & DOVER ST,Oakland,CA,
700 PANORAMIC WY,Oakland,CA,
HILLSBOROUGH ST & WESLEY AV,Oakland,CA,
3000 BUTTERS DR,Oakland,CA,
0 ASCOT PL,Oakland,CA,
MADRONE AV & MASTERSON ST,Oakland,CA,
6400 MYSTIC ST,Oakland,CA,
10600 MARK ST,Oakland,CA,
4100 HUNTINGTON ST,Oakland,CA,
2100 E 26TH ST,Oakland,CA,
5200 COCHRANE AV,Oakland,CA,
4300 TERRABELLA WY,Oakland,CA,
E 10TH ST & 25TH AV,Oakland,CA,
1200 PINE ST,Oakland,CA,
7500 CLAREMONT AV,Oakland,CA,
9300 BURR ST,Oakland,CA,
3600 E 9TH ST,Oakland,CA,
1200 10TH AV,Oakland,CA,
CROXTON AV & PIEDMONT AV,Oakland,CA,
15TH ST & WOOD ST,Oakland,CA,
BEACH ST & WOOD ST,Oakland,CA,
11000 LOCHARD ST,Oakland,CA,
40TH ST & SAN PABLO AV,Oakland,CA,
BROOKLYN AV & PARK BLVD,Oakland,CA,
DOUGLAS AV & HALE AV,Oakland,CA,
MORCOM AV & WYMAN ST,Oakland,CA,
6000 LEONA ST,Oakland,CA,
24TH AV & E 24TH ST,Oakland,CA,
5800 HOWELL ST,Oakland,CA,
3300 SEMINARY AV,Oakland,CA,
35TH AV & WB I580,Oakland,CA,
1200 36TH AV,Oakland,CA,
14100 SKYLINE BLVD,Oakland,CA,
BROOKDALE AV & SHORT ST,Oakland,CA,
5500 S PICARDY DR,Oakland,CA,
41ST AV & SAN LEANDRO ST,Oakland,CA,
LAUREL AV & SUTER ST,Oakland,CA,
0 WOODCREST CIR,Oakland,CA,
3800 VALE AV,Oakland,CA,
9900 BURR ST,Oakland,CA,
CULVER ST & EASTMAN AV,Oakland,CA,
300 RISHELL DR,Oakland,CA,
57TH AV & HILTON ST,Oakland,CA,
80TH AV & IDLEWOOD ST,Oakland,CA,
KNOWLAND AV & VIRGINIA AV,Oakland,CA,
108TH AV & FOOTHILL BLVD,Oakland,CA,
1000 SEMINARY AV,Oakland,CA,
4800 TOMPKINS AV,Oakland,CA,
ALVARADO RD & CLAREMONT AV,Oakland,CA,
PIEDMONT AV & RAMONA AV,Oakland,CA,
6600 ESTATES DR,Oakland,CA,
6300 BULLARD DR,Oakland,CA,
9000 MCGURRIN RD,Oakland,CA,
700 ZEPHYR DR,Oakland,CA,
MANZANITA DR & SKYLINE BLVD,Oakland,CA,
107TH AV & MYERS ST,Oakland,CA,
FRUITVALE AV & NB I880,Oakland,CA,
5900 LEONA ST,Oakland,CA,
500 5TH AV,Oakland,CA,
5900 BANCROFT AV,Oakland,CA,
8000 OAKPORT ST,Oakland,CA,
59TH ST & DOVER ST,Oakland,CA,
6300 BUENA VENTURA AV,Oakland,CA,
124A MOSS AV,Oakland,CA,
MANDELA PKWY & PERALTA ST,Oakland,CA,
7800 CLAREMONT AV,Oakland,CA,
53RD ST & GASKILL ST,Oakland,CA,
5800 NOTTINGHAM DR,Oakland,CA,
55TH AV & RUTH AV,Oakland,CA,
3100 CALIFORNIA ST,Oakland,CA,
83RD AV & IRIS ST,Oakland,CA,
7700 SKYLINE BLVD,Oakland,CA,
5300 REDWOOD RD,Oakland,CA,
CLEVELAND AV & MONTCLAIR AV,Oakland,CA,
0 41ST ST,Oakland,CA,
21ST AV & COMMERCE WY,Oakland,CA,
3700 EMERSON ST,Oakland,CA,
REDWOOD RD & SB S13,Oakland,CA,
E 17TH ST & 64TH AV,Oakland,CA,
5400 LEONA ST,Oakland,CA,
7100 SAN LEANDRO ST,Oakland,CA,
2700 11TH AV,Oakland,CA,
EDES AV & MADDUX DR,Oakland,CA,
DAVENPORT AV & KAPHAN AV,Oakland,CA,
4000 BROWN AV,Oakland,CA,
57TH AV & BRANN ST,Oakland,CA,
FREDERICK ST & KING ST,Oakland,CA,
5800 SKYLINE BLVD,Oakland,CA,
KING ST & STANFORD AV,Oakland,CA,
MARTIN LUTHER KING JR WY & THOMAS L. BERKLEY WY,Oakland,CA,
9300 MURILLO AV,Oakland,CA,
10000 SAN LEANDRO ST,Oakland,CA,
107TH AV & PONTIAC ST X,Oakland,CA,
1400 GLENFIELD AV,Oakland,CA,
E 24TH ST & 7TH AV,Oakland,CA,
3500 LOMA VISTA AV,Oakland,CA,
600 VIA RIALTO,Oakland,CA,
34TH AV & ORCHID ST,Oakland,CA,
1500 EVERETT AV,Oakland,CA,
13TH AV & E 38TH ST,Oakland,CA,
1700 105TH AV,Oakland,CA,
0 GLENWOOD GLADE,Oakland,CA,
21ST AV & SAN ANTONIO WY,Oakland,CA,
MACARTHUR BLVD & WOODRUFF AV,Oakland,CA,
LESSER ST & OAKPORT ST,Oakland,CA,
400 1&2 48TH ST,Oakland,CA,
ARDLEY AV & EXCELSIOR AV,Oakland,CA,
6900 EXETER DR,Oakland,CA,
1300 E 23RD ST,Oakland,CA,
400 7TH ST.,Oakland,CA,
CALIFORNIA ST & PATTERSON AV,Oakland,CA,
GORDON ST & HIGH ST,Oakland,CA,
90TH AV & PALMERA CT,Oakland,CA,
8400 OLIVE ST,Oakland,CA,
GRIZZLY PEAK BLVD & SKYLINE BLVD,Oakland,CA,
66TH ST & SHATTUCK AV,Oakland,CA,
EXCELSIOR AV & MACARTHUR BLVD,Oakland,CA,
0 EASTWOOD CT,Oakland,CA,
2200 27TH AV,Oakland,CA,
BROADWAY TER & SKYLINE BLVD,Oakland,CA,
900 ROSEMOUNT RD,Oakland,CA,
2300 ARROWHEAD DR,Oakland,CA,
E 17TH ST & 40TH AV,Oakland,CA,
6500 PINE NEEDLE DR,Oakland,CA,
2500 ALIDA ST,Oakland,CA,
4300 KANSAS ST,Oakland,CA,
KANSAS ST & LOMA VISTA AV,Oakland,CA,
2000 HARRISON ST,Oakland,CA,
4400 BOND ST,Oakland,CA,
6600 CHARING CROSS RD,Oakland,CA,
4400 ZIEGLER AV,Oakland,CA,
67TH AV & BRANN ST,Oakland,CA,
3200 HERRIOTT AV,Oakland,CA,
1300 47TH AV,Oakland,CA,
39TH AV & MERA ST,Oakland,CA,
6900 SPENCER ST,Oakland,CA,
9400 SKYLINE BLVD,Oakland,CA,
2600 LILAC ST,Oakland,CA,
4400 FAIR AV,Oakland,CA,
100 AGNES ST,Oakland,CA,
2400 VALDEZ ST,Oakland,CA,
27TH ST & VALDEZ ST,Oakland,CA,
0 EUCALYPTUS RD,Oakland,CA,
18TH ST & KIRKHAM ST,Oakland,CA,
9400 CASTLEWOOD ST,Oakland,CA,
10200 STANLEY AV,Oakland,CA,
2400 LEIMERT BLVD,Oakland,CA,
E 17TH ST & 19TH AV,Oakland,CA,
ANTIOCH CT & ANTIOCH ST,Oakland,CA,
900 22ND AV,Oakland,CA,
1100 MACARTHUR BLVD,Oakland,CA,
6700 SOBRANTE RD,Oakland,CA,
1700 7TH ST,Oakland,CA,
2700 LAS AROMAS,Oakland,CA,
9300 SKYLINE BLVD,Oakland,CA,
0 FERNHOFF CT,Oakland,CA,
6200 BUENA VISTA AV,Oakland,CA,
200 MADISON ST,Oakland,CA,
63RD ST & DOVER ST,Oakland,CA,
7700 ARTHUR ST,Oakland,CA,
NEVADA ST & RAILROAD AV,Oakland,CA,
SANTA CLARA AV & VALLE VISTA AV,Oakland,CA,
1000 ROSE AV,Oakland,CA,
2900 REVERE AV,Oakland,CA,
13TH AV & BELLA VISTA AV,Oakland,CA,
3900 KELLER AV,Oakland,CA,
CLAREMONT AV & MARTIN ST,Oakland,CA,
JOHN ST & PIEDMONT AV,Oakland,CA,
900 52ND AV,Oakland,CA,
10000 BIRCH ST,Oakland,CA,
2600 CHESTNUT ST,Oakland,CA,
6300 GIRVIN DR,Oakland,CA,
3900 ELSTON AV,Oakland,CA,
4200 KELLER AV,Oakland,CA,
BROADWAY & CLIFTON ST,Oakland,CA,
2700 CARMEL ST,Oakland,CA,
0 WEYBRIDGE CT,Oakland,CA,
9400 MURILLO AV,Oakland,CA,
7900 ALDER ST,Oakland,CA,
4300 TURNER AV,Oakland,CA,
4000 LINWOOD AV,Oakland,CA,
28TH ST & SUMMIT ST,Oakland,CA,
0 KIMBERLIN HEIGHTS DR,Oakland,CA,
6600 ELVERTON DR,Oakland,CA,
6700 MOORE DR,Oakland,CA,
HASSLER WY & OAKPORT ST,Oakland,CA,
3RD AV & PARK BLVD,Oakland,CA,
45TH ST & SHATTUCK AV,Oakland,CA,
4500 BROADWAY,Oakland,CA,
27TH ST & MARTIN LUTHER KING J,Oakland,CA,
3500 KINGSLAND AV,Oakland,CA,
6200 ASPINWALL RD,Oakland,CA,
NEVADA ST & WALTER AV,Oakland,CA,
1500 81ST AV,Oakland,CA,
HOLLYWOOD AV & PARK BLVD,Oakland,CA,
4600 FLEMING AV,Oakland,CA,
REDWOOD RD & SERENO CIR,Oakland,CA,
6300 WESTOVER DR,Oakland,CA,
1200 MANDELA PKWY,Oakland,CA,
2600 108TH AV,Oakland,CA,
3900 SEQUOYAH RD,Oakland,CA,
0 THOUSAND OAKS,Oakland,CA,
36TH ST & PERALTA ST,Oakland,CA,
CONGRESS AV & YGNACIO AV,Oakland,CA,
10900 GOLF LINKS RD,Oakland,CA,
CAPP ST & SCHYLER ST,Oakland,CA,
200 DUNCAN WY,Oakland,CA,
AIRPORT DR & RON COWAN PKWY,Oakland,CA,
18TH AV & E 20TH ST,Oakland,CA,
5500 CARLTON ST,Oakland,CA,
INTERNATIONAL,Oakland,CA,
79TH AV & ASH ST,Oakland,CA,
3100 WEBSTER ST,Oakland,CA,
EXCELSIOR AV & LINWOOD AV,Oakland,CA,
4100 KELLER AV,Oakland,CA,
0 BOWLING DR,Oakland,CA,
FOREST ST & OAK GROVE AV,Oakland,CA,
6200 MERCED AV,Oakland,CA,
19TH ST & LAKESIDE DR,Oakland,CA,
BRANN ST & MILLSBRAE AV,Oakland,CA,
15TH ST & BRUSH ST,Oakland,CA,
2100 FREDERICK ST,Oakland,CA,
6000 THORNHILL DR,Oakland,CA,
E 10TH ST & 6TH AV,Oakland,CA,
1000 6TH AV,Oakland,CA,
400 105TH AVE,Oakland,CA,
100 MADISON ST,Oakland,CA,
0 WOODMONT WY,Oakland,CA,
2300 47TH AV,Oakland,CA,
52ND AV & SAN LEANDRO ST,Oakland,CA,
59TH ST & HERZOG ST,Oakland,CA,
6600 ASCOT DR,Oakland,CA,
0 HERMOSA AV,Oakland,CA,
0 FOSTER CT,Oakland,CA,
6200 SKYLINE BLVD,Oakland,CA,
3200 BRUNELL DR,Oakland,CA,
10600 PEARMAIN ST,Oakland,CA,
1700 E 38TH ST,Oakland,CA,
49TH AV & SAN LEANDRO ST,Oakland,CA,
5000 FLEMING AV,Oakland,CA,
AIRPORT ACCESS RD & HEGENBERGER RD,Oakland,CA,
2100 LEIMERT BLVD,Oakland,CA,
61ST ST & HERZOG ST,Oakland,CA,
3300 ARIZONA ST,Oakland,CA,
ALTAMONT AV & SUNNYMERE AV,Oakland,CA,
84TH AV & G ST,Oakland,CA,
1600 MIAMI CT,Oakland,CA,
0 LINCOLNSHIRE DR,Oakland,CA,
CHENEY AV & RAND AV,Oakland,CA,
5900 MAZUELA DR,Oakland,CA,
48TH ST & CLARKE ST,Oakland,CA,
1700 DURANT AV,Oakland,CA,
VICKSBURG AV & YGNACIO AV,Oakland,CA,
2100 SONOMA WY,Oakland,CA,
0 BARNER PL,Oakland,CA,
PALM AV & PERKINS ST,Oakland,CA,
2400 POTOMAC ST,Oakland,CA,
BERKELEY NORTH,Oakland,CA,
WB I580 & EB I980 CONN,Oakland,CA,
7100 SNAKE RD,Oakland,CA,
6900 BALSAM WY,Oakland,CA,
0 VISTA DEL MAR CT,Oakland,CA,
1800 CASTERLINE RD,Oakland,CA,
8600 SKYLINE BLVD,Oakland,CA,
5300 JAMES AV,Oakland,CA,
EMBARCADERO & DENNISON ST,Oakland,CA,
200 6TH ST,Oakland,CA,
3300 DELAWARE ST,Oakland,CA,
6200 SUNNYMERE AV,Oakland,CA,
15000 BROADWAY TER,Oakland,CA,
LOS ANGELES ST & STANFORD AV,Oakland,CA,
2900 MAXWELL AV,Oakland,CA,
4500 REINHARDT DR,Oakland,CA,
EB MLK JR OFFRP WY & EB S24,Oakland,CA,
4400 HOWE ST,Oakland,CA,
CLEVELAND AV & WESLEY AV,Oakland,CA,
3000 FORD ST,Oakland,CA,
3000 PARK BLVD,Oakland,CA,
BIRDSALL AV & REDDING ST,Oakland,CA,
17TH AV & E 22ND ST,Oakland,CA,
100 ZEPHYR DR,Oakland,CA,
1900 CLEMENS RD,Oakland,CA,
5800 ASCOT DR,Oakland,CA,
0 CHATSWORTH CT,Oakland,CA,
ATHOL AV & BROOKLYN AV,Oakland,CA,
100 MOUNTAIN VALLEY,Oakland,CA,
5000 SHAFTER AV,Oakland,CA,
FAIRMOUNT AV & GARLAND AV,Oakland,CA,
15TH ST & CAMPBELL ST,Oakland,CA,
CLARA ST & RAILROAD AV,Oakland,CA,
1000 ANNERLY RD,Oakland,CA,
8000 MOUNTAIN BLVD,Oakland,CA,
1200 E 23RD ST,Oakland,CA,
4700 PARK BLVD,Oakland,CA,
2200 VALLEY ST,Oakland,CA,
6200 MARSHALL ST,Oakland,CA,
5800 SCARBOROUGH DR,Oakland,CA,
1000 40TH ST,Oakland,CA,
100 VERNON TER,Oakland,CA,
1200 69TH AV,Oakland,CA,
1400 HOLMAN RD,Oakland,CA,
1500 HOLMAN RD,Oakland,CA,
3500 DWIGHT WY,Oakland,CA,
6100 DONCASTER PL,Oakland,CA,
2000 TUNNEL RD,Oakland,CA,
2200 MANZANITA DR,Oakland,CA,
4400 MELROSE AV,Oakland,CA,
E 13TH ST & FRUITVALE AV,Oakland,CA,
200 24TH ST,Oakland,CA,
2900 JOAQUIN MILLER RD,Oakland,CA,
2600 SUNSET AV,Oakland,CA,
800 69TH AVE,Oakland,CA,
1600 34TH ST,Oakland,CA,
9800 GOLF LINKS RD,Oakland,CA,
KEMPTON WY & W MACARTHUR BLVD,Oakland,CA,
E 10TH ST & 8TH AV,Oakland,CA,
22ND AV & E 29TH ST,Oakland,CA,
NICOL AV & PLEITNER AV,Oakland,CA,
8700 SAN LEANDRO ST,Oakland,CA,
KANSAS ST & MIDVALE AV,Oakland,CA,
51ST ST & WEST ST,Oakland,CA,
9700 SAN LEANDRO ST,Oakland,CA,
KANSAS ST & PATTERSON AV,Oakland,CA,
ADAMS POINT,Oakland,CA,
MORCOM AV & NORMANDIE AV,Oakland,CA,
3300 ORCHID ST,Oakland,CA,
2800 FRYE ST,Oakland,CA,
6800 MOORE DR,Oakland,CA,
3200 BURDECK DR,Oakland,CA,
6700 WILTON DR,Oakland,CA,
1500 45TH AV,Oakland,CA,
10700 FOOTHILL BLVD,Oakland,CA,
6300 FOOTHILL BLVD,Oakland,CA,
30TH ST & RICHMOND BLVD,Oakland,CA,
E 12TH ST & 54TH AV,Oakland,CA,
55TH AV & EL CAMILE AV,Oakland,CA,
E 38TH ST & WOODRUFF AV,Oakland,CA,
NAIROBI PL & OAKDALE AV,Oakland,CA,
MACARTHUR BLVD & SANTA CLARA AV,Oakland,CA,
6000 DOVER ST,Oakland,CA,
2ND ST & CASTRO ST,Oakland,CA,
10200 GRAFFIAN ST,Oakland,CA,
100 MARKET ST,Oakland,CA,
6300 MARSHALL ST,Oakland,CA,
AUSEON AV & PLYMOUTH ST,Oakland,CA,
6900 COLTON BLVD,Oakland,CA,
5600 KALES AV,Oakland,CA,
1500 74TH AV,Oakland,CA,
AILEEN ST & GENOA ST,Oakland,CA,
4900 SHAFTER AV,Oakland,CA,
5400 TAFT AV,Oakland,CA,
42ND AV & SAN LEANDRO ST,Oakland,CA,
BROADWAY & GARNET ST,Oakland,CA,
6700 MOKELUMNE AV,Oakland,CA,
800 MARITIME ST,Oakland,CA,
BARTLETT ST & DEERING ST,Oakland,CA,
ARIZONA ST & MAPLE AV,Oakland,CA,
5800 IVANHOE RD,Oakland,CA,
34TH AV & E 8TH ST,Oakland,CA,
6100 FREMONT ST,Oakland,CA,
10800 SNOWDOWN AV,Oakland,CA,
8TH AV & IVY DR,Oakland,CA,
7400 GREENLY DR,Oakland,CA,
5TH ST & CENTER ST,Oakland,CA,
1200 HAMPEL ST,Oakland,CA,
4600 MANILA AV,Oakland,CA,
MACARTHUR BLVD & TRUMAN AV,Oakland,CA,
8600 D ST,Oakland,CA,
CIRCLE HILL DR & GREENLY DR,Oakland,CA,
2200 BYWOOD DR,Oakland,CA,
61ST AV & AVENAL AV,Oakland,CA,
0 KROHN LN,Oakland,CA,
600 MARITIME ST,Oakland,CA,
7000 ORRAL ST,Oakland,CA,
107TH AV & SUNNYSIDE ST,Oakland,CA,
100 MONTWOOD WY,Oakland,CA,
68TH AV & CHURCH ST,Oakland,CA,
5500 ROBERTS AV,Oakland,CA,
1600 EMBARCADERO,Oakland,CA,
5600 AMY DR,Oakland,CA,
1800 85TH AV,Oakland,CA,
GRAND VIEW DR & HILLER DR,Oakland,CA,
FOOTHILL BLVD & MILLER AV,Oakland,CA,
3400 MANDELA PKWY,Oakland,CA,
63RD ST & VALLEJO ST,Oakland,CA,
1000 9TH AV,Oakland,CA,
5100 PROCTOR AV,Oakland,CA,
86TH AV & B ST,Oakland,CA,
E 11TH ST & 4TH AV,Oakland,CA,
39TH AV & ALISO AV,Oakland,CA,
4600 MACARTHUR BLVD,Oakland,CA,
6100 ADELINE ST,Oakland,CA,
6900 BROADWAY,Oakland,CA,
6800 HILLMONT DR,Oakland,CA,
CALIFORNIA ST & MAPLE AV,Oakland,CA,
2100 98TH AV,Oakland,CA,
100 PERSHING DR,Oakland,CA,
16TH ST & WILLOW ST,Oakland,CA,
1500 E 38TH ST,Oakland,CA,
JEAN ST & SANTA CLARA AV,Oakland,CA,
1800 BRANDON ST,Oakland,CA,
1500 84TH AV,Oakland,CA,
6100 ASCOT DR,Oakland,CA,
6500 CHABOT RD,Oakland,CA,
3800 FAIRWAY AV,Oakland,CA,
3600 EMERSON ST,Oakland,CA,
11500 SUN VALLEY DR,Oakland,CA,
BANCROFT AV & TRASK ST,Oakland,CA,
5600 FERNHOFF RD,Oakland,CA,
53RD ST & GENOA ST,Oakland,CA,
700 BERGEDO DR,Oakland,CA,
13TH AV & E 23RD ST,Oakland,CA,
5700 FLORENCE TER,Oakland,CA,
12100 TARTAN WY,Oakland,CA,
400 CAPRICORN AV,Oakland,CA,
59TH ST & STANFORD AV,Oakland,CA,
92ND AV & F ST,Oakland,CA,
CREST AV & STERLING DR,Oakland,CA,
6TH AV & E 8TH ST,Oakland,CA,
19TH AV & GLEASON WY,Oakland,CA,
3100 E 10TH ST,Oakland,CA,
7300 GARFIELD AV,Oakland,CA,
E 22ND ST & 26TH AV,Oakland,CA,
5900 GLENARMS DR,Oakland,CA,
4100 RHODA AV,Oakland,CA,
7300 CLAREMONT AV,Oakland,CA,
60TH ST & GENOA ST,Oakland,CA,
5800 FLORENCE TER,Oakland,CA,
E 10TH ST & DERBY AV,Oakland,CA,
400 LESTER AV,Oakland,CA,
2900 MONTEREY BLVD,Oakland,CA,
3000 EL MONTE AV,Oakland,CA,
21ST ST & LAKESIDE DR,Oakland,CA,
2100 MIDDLE HARBOR RD,Oakland,CA,
1100 W GRAND AV,Oakland,CA,
8TH AV & EMBARCADERO,Oakland,CA,
73RD AV & HERBERT GUICE WY,Oakland,CA,
2400 EMBARCADERO,Oakland,CA,
5800 TEVIS ST,Oakland,CA,
7100 OAKPORT ST,Oakland,CA,
1200 GRAND VIEW DR,Oakland,CA,
12TH AV & E 20TH ST,Oakland,CA,
71ST AV & ORRAL ST,Oakland,CA,
3300 DAVIS ST,Oakland,CA,
8700 BANCROFT AV,Oakland,CA,
10500 STELLA ST,Oakland,CA,
9500 BURR ST,Oakland,CA,
7000 BALSAM WY,Oakland,CA,
10800 BREED AV,Oakland,CA,
FAIRFAX AV & FRANCES ST,Oakland,CA,
2800 BEST AV,Oakland,CA,
6100 N ROCKRIDGE BLVD,Oakland,CA,
2200 DAMUTH ST,Oakland,CA,
DALE PL & MINNA AV,Oakland,CA,
AYALA AV & MARTIN ST,Oakland,CA,
ALCATRAZ AV & RACINE ST,Oakland,CA,
22ND AV & GLEASON WY,Oakland,CA,
64TH AV & BUENA VENTURA AV,Oakland,CA,
4200 MOUNTAIN VIEW AV,Oakland,CA,
3600 LAGUNA AV,Oakland,CA,
WB I580 CONN & NB S13,Oakland,CA,
4000 WEST ST,Oakland,CA,
4100 E 18TH ST,Oakland,CA,
BRANN ST & HAVENSCOURT BLVD,Oakland,CA,
400 HILLER DR,Oakland,CA,
55TH AV & TRASK ST,Oakland,CA,
3600 JOAQUIN MILLER RD,Oakland,CA,
CHABOT RD & PRESLEY WY,Oakland,CA,
1500 HAMPEL ST,Oakland,CA,
MARIPOSA AV & OAKLAND AV,Oakland,CA,
55TH AV & ROBERTS AV,Oakland,CA,
3800 MONTEREY BLVD,Oakland,CA,
KINGSTON AV & MONTE CRESTA AV,Oakland,CA,
1300 GRAND VIEW DR,Oakland,CA,
5300 SAN PABLO AV,Oakland,CA,
4100 FAIRWAY AV,Oakland,CA,
E 23RD ST & 27TH AV,Oakland,CA,
63RD ST & CANNING ST,Oakland,CA,
2800 WEBSTER ST,Oakland,CA,
E 34TH ST & MACARTHUR BLVD,Oakland,CA,
HUMBOLDT AV & SCHOOL ST,Oakland,CA,
CHAPMAN ST & LANCASTER ST,Oakland,CA,
REDWOOD RD & TERRABELLA WY,Oakland,CA,
2000 MELVIN RD,Oakland,CA,
1400 LEIMERT BLVD,Oakland,CA,
6900 THORNHILL DR,Oakland,CA,
4500 FAIR AV,Oakland,CA,
4000 ELSTON AV,Oakland,CA,
E 22ND ST & 5TH AV,Oakland,CA,
600 DERBY AV,Oakland,CA,
15TH AV & E 18TH ST,Oakland,CA,
55TH AV & HOLWAY ST,Oakland,CA,
8500 NEY AV,Oakland,CA,
1800 SOLANO WY,Oakland,CA,
4300 GREGORY ST,Oakland,CA,
PARKRIDGE DR & SKYLINE BLVD,Oakland,CA,
1300 HAMPEL ST,Oakland,CA,
MANDANA BLVD & WALKER AV,Oakland,CA,
BROADWAY & GOLDEN GATE AV,Oakland,CA,
7TH AV & BOOKER ST,Oakland,CA,
5300 LEONA ST,Oakland,CA,
1300 W GRAND AV,Oakland,CA,
LINCOLN AV & TIFFIN RD,Oakland,CA,
E 32ND ST & ARDLEY AV,Oakland,CA,
5600 MANILA AV,Oakland,CA,
400 AVON ST,Oakland,CA,
CHURCH ST & FLORA ST,Oakland,CA,
3900 MAPLE AV,Oakland,CA,
13TH AV & EXCELSIOR AV,Oakland,CA,
3800 GLEN PARK RD,Oakland,CA,
1300 21ST AV,Oakland,CA,
3RD ST & LEWIS ST,Oakland,CA,
BIRDSALL AV & MAXWELL AV,Oakland,CA,
2600 MOUNTAIN BLVD,Oakland,CA,
5800 LEONA ST,Oakland,CA,
BANCROFT AV & WENTWORTH AV,Oakland,CA,
SHONE AV & STERLING DR,Oakland,CA,
3060A E 9TH ST,Oakland,CA,
5600 N PICARDY DR,Oakland,CA,
100 E 15TH ST,Oakland,CA,
98TH AV & LAS VEGAS AV,Oakland,CA,
HUDSON ST & MANILA AV,Oakland,CA,
45TH ST & LAWTON AV,Oakland,CA,
9300 SAN LEANDRO ST,Oakland,CA,
GOLF COURSE DR & GRIZZLY PEAK BLVD,Oakland,CA,
3800 LINWOOD AV,Oakland,CA,
6400 HERZOG ST,Oakland,CA,
3400 WEBSTER ST,Oakland,CA,
BEAT 2,Oakland,CA,
7000 HOLLY ST,Oakland,CA,
DEERING CT & DEERING ST,Oakland,CA,
1400 FERNWOOD DR,Oakland,CA,
500 15TH ST,Oakland,CA,
STAR AV & SUTER ST,Oakland,CA,
1300 WILLOW ST,Oakland,CA,
DASHWOOD AV & DEERWOOD AV,Oakland,CA,
2600 MONTANA ST,Oakland,CA,
3600 CARRINGTON ST,Oakland,CA,
12400 SKYLINE BLVD,Oakland,CA,
5300 LOWELL ST,Oakland,CA,
54TH AV & WADEAN PL,Oakland,CA,
1300 19TH AV,Oakland,CA,
100 10TH AV,Oakland,CA,
DURANT AV & FOOTHILL BLVD,Oakland,CA,
6400 VALLEY VIEW RD,Oakland,CA,
0 VILLANOVA LN,Oakland,CA,
BROADWAY TER & NB S13,Oakland,CA,
2300 10TH AV,Oakland,CA,
5700 S PICARDY DR,Oakland,CA,
3800 BEAUMONT AV,Oakland,CA,
W GRAND AV & MARTIN LUTHER KING,Oakland,CA,
600 1&2 37TH ST,Oakland,CA,
14TH ST & FRANK H OGAWA PLZ,Oakland,CA,
3200 WOOD ST,Oakland,CA,
C ST & ELMHURST AV,Oakland,CA,
600 PROSPECT AV,Oakland,CA,
2900 CALIFORNIA ST,Oakland,CA,
9800 SAN LEANDRO ST,Oakland,CA,
3RD ST & MIDDLE HARBOR RD,Oakland,CA,
CARMEL ST & RHODA AV,Oakland,CA,
0 MARLIN COVE,Oakland,CA,
63RD ST & RACINE ST,Oakland,CA,
CAVOUR ST & SHAFTER AV,Oakland,CA,
3800 SILVERWOOD AV,Oakland,CA,
1000 EVERETT AV,Oakland,CA,
1300 46TH AV,Oakland,CA,
1300 26TH AV,Oakland,CA,
60TH ST & CANNING ST,Oakland,CA,
7700 CLAREMONT AV,Oakland,CA,
10TH ST & POPLAR ST,Oakland,CA,
5100 SAN LEANDRO ST,Oakland,CA,
HUDSON ST & LAWTON AV,Oakland,CA,
1500 FERNWOOD DR,Oakland,CA,
800 E 22ND ST,Oakland,CA,
ELVERTON DR & SKYLINE BLVD,Oakland,CA,
BROOKDALE AV & LILAC ST,Oakland,CA,
1800 WOOD ST,Oakland,CA,
13TH ST & BRUSH ST,Oakland,CA,
300 28TH ST,Oakland,CA,
0 CHADBOURNE WY,Oakland,CA,
MADELINE ST & RHODA AV,Oakland,CA,
MIDVALE AV & WISCONSIN ST,Oakland,CA,
45TH AV & YGNACIO AV,Oakland,CA,
CHABOT RD & CLAREMONT AV,Oakland,CA,
DUNSMUIR AV & MONTEREY BLVD,Oakland,CA,
5100 FAIRHILL CT,Oakland,CA,
MACARTHUR BLVD & MONTANA ST,Oakland,CA,
FOOTHILL BLVD & MASON ST,Oakland,CA,
40TH AV & SAN JUAN ST,Oakland,CA,
30TH ST & MARKET ST,Oakland,CA,
500 60TH ST,Oakland,CA,
ARROWHEAD DR & SHEPHERD CANYON RD,Oakland,CA,
9800 GOULD ST,Oakland,CA,
LATIMER PL & W MACARTHUR BLVD,Oakland,CA,
6000 JOHNSTON DR,Oakland,CA,
BRIGHTON AV & PARK BLVD,Oakland,CA,
10400 SUNNYSIDE ST,Oakland,CA,
E 12TH ST & 15TH AV,Oakland,CA,
3300 KIWANIS ST,Oakland,CA,
3600 FIELD ST,Oakland,CA,
0 ALIDA CT,Oakland,CA,
22ND AV & 23RD AV,Oakland,CA,
1000 66 AV,Oakland,CA,
8600 DOWLING ST,Oakland,CA,
6800 SAN LEANDRO ST,Oakland,CA,
9200 G ST,Oakland,CA,
6400 HARWOOD AV,Oakland,CA,
E 20TH ST & IRVING AV,Oakland,CA,
3800 SEQUOYAH RD,Oakland,CA,
CROSBY AV & HARPER ST,Oakland,CA,
4700 LINCOLN AVE,Oakland,CA,
1700 KIRKHAM ST,Oakland,CA,
5600 ROBERTS AV,Oakland,CA,
GRAND AV & WILDWOOD AV,Oakland,CA,
DIMOND AV & MONTANA ST,Oakland,CA,
4600 FIELDBROOK RD,Oakland,CA,
57TH AV & HARVEY AV,Oakland,CA,
60TH ST & STANFORD AV,Oakland,CA,
1000 33RD AV,Oakland,CA,
ALTA BATES,Oakland,CA,
3400 WOOD ST,Oakland,CA,
CLARA ST & WALTER AV,Oakland,CA,
25TH AV & E 29TH ST,Oakland,CA,
6000 SNAKE RD,Oakland,CA,
1700 NORTHWOOD CT,Oakland,CA,
ARKANSAS ST & LAUREL AV,Oakland,CA,
2700 RENWICK ST,Oakland,CA,
1600 WELLINGTON ST,Oakland,CA,
BRANN ST & MORCOM AV,Oakland,CA,
14TH AV & GLEASON WY,Oakland,CA,
900 WAWONA AV,Oakland,CA,
BEST AV & FLEMING AV,Oakland,CA,
6400 COLTON BLVD,Oakland,CA,
ROSEDALE AV & SANTA RITA ST,Oakland,CA,
CUNNINGHAM ST & REINHARDT DR,Oakland,CA,
COLOMA ST & FRUITVALE AV,Oakland,CA,
3900 WATTLING ST,Oakland,CA,
12100 SKYLINE BLVD,Oakland,CA,
3100 STUART ST,Oakland,CA,
1700 CAMPBELL ST,Oakland,CA,
6300 RACINE ST,Oakland,CA,
40TH AV & CARRINGTON ST,Oakland,CA,
700 GLENDOME CIR,Oakland,CA,
0 SWAN WY,Oakland,CA,
CALIFORNIA ST & LAUREL AV,Oakland,CA,
5700 SAN PABLO AV,Oakland,CA,
E 22ND ST & CARROLL ST,Oakland,CA,
600 JEFFERSON ST,Oakland,CA,
COOLIDGE AV & GEORGIA ST,Oakland,CA,
3200 HOOD ST,Oakland,CA,
2600 56TH AV,Oakland,CA,
1100 26TH ST,Oakland,CA,
800 VILLAGE CIR,Oakland,CA,
CUTHBERT AV & SCHOOL ST,Oakland,CA,
2800 BURTON DR,Oakland,CA,
4100 E 12TH ST,Oakland,CA,
2600 PARK BLVD,Oakland,CA,
700 14TH ST,Oakland,CA,
200 PALISADE,Oakland,CA,
35TH AV & DEERING ST,Oakland,CA,
0 WILDING LN,Oakland,CA,
CUTHBERT AV & NICOL AV,Oakland,CA,
105TH AV & JUNE CT,Oakland,CA,
6100 JOHNSTON DR,Oakland,CA,
E 31ST ST & VALLECITO PL,Oakland,CA,
CLOVER DR & MILES AV,Oakland,CA,
6900 SHEPHERD CANYON RD,Oakland,CA,
200 INVERNESS CT,Oakland,CA,
23RD AV & 29TH AV,Oakland,CA,
INTERNATIONAL BLVD & SUNSHINE CT,Oakland,CA,
HANSOM DR & PINECREST DR,Oakland,CA,
MCDONELL AV & MOUNTAIN BLVD,Oakland,CA,
6200 MORAGA AV,Oakland,CA,
9300 F ST,Oakland,CA,
APRICOT ST & MOORPARK AV,Oakland,CA,
HARRISON ST & WEBSTER ST,Oakland,CA,
4600 COMMONWEALTH DR,Oakland,CA,
AUSEON AV & OLIVE ST,Oakland,CA,
CLIFTON ST & COLLEGE AV,Oakland,CA,
7300 WOODROW DR,Oakland,CA,
BROOKDALE AV & MAXWELL AV,Oakland,CA,
500 PRINCE ST,Oakland,CA,
FRUITVALE AV & HICKORY ST,Oakland,CA,
3600 E 8TH ST,Oakland,CA,
GREEN ACRE RD & MASTERSON ST,Oakland,CA,
41ST ST & TERRACE ST,Oakland,CA,
CALANDRIA AV & CREST AV,Oakland,CA,
51ST AV & YGNACIO AV,Oakland,CA,
6500 LIGGETT DR,Oakland,CA,
CHABOT RD & PATTON ST,Oakland,CA,
KINGSLAND AV & REDDING ST,Oakland,CA,
JEAN ST & SUNNYSLOPE AV,Oakland,CA,
1600 BRUSH ST,Oakland,CA,
400 FAIRBANKS AV,Oakland,CA,
JOAQUIN MILLER RD & MOUNTAIN BLVD,Oakland,CA,
2300 MANDELA PKWY,Oakland,CA,
0 STARK KNOLL PL,Oakland,CA,
4300 EVANS AV,Oakland,CA,
6600 DOVER ST,Oakland,CA,
70TH AV & WELD ST,Oakland,CA,
5100 MOUNTAIN BLVD,Oakland,CA,
2400 7TH AV,Oakland,CA,
HILLSIDE ST & SIESTA LN,Oakland,CA,
300 CHANNEL WY,Oakland,CA,
EMPIRE RD & SEXTUS RD,Oakland,CA,
SB PARK OFFRP BL & TRAFALGAR PL,Oakland,CA,
11100 ELVESSA ST,Oakland,CA,
300 FOREST ST,Oakland,CA,
6900 SUNKIST DR,Oakland,CA,
0 LARRY LN,Oakland,CA,
GIBRALTAR RD & HESKET RD,Oakland,CA,
6200 HARWOOD AV,Oakland,CA,
72ND AV & NEY AV,Oakland,CA,
6100 SNAKE RD,Oakland,CA,
CASTLEWOOD ST & ENCINA WY,Oakland,CA,
LAKESHORE AV & PRINCE ST,Oakland,CA,
800 E 11TH ST,Oakland,CA,
1200 12TH AV,Oakland,CA,
3300 61ST AV,Oakland,CA,
AYALA AV & HERMANN ST,Oakland,CA,
45TH ST & MANILA AV,Oakland,CA,
9500 CASTLEWOOD ST,Oakland,CA,
6200 FORTUNE WY,Oakland,CA,
800 WAWONA AV,Oakland,CA,
10900 ETTRICK ST,Oakland,CA,
16TH AV & COMMERCE WY,Oakland,CA,
5TH AV & E 7TH ST,Oakland,CA,
ACTON PL & LESTER AV,Oakland,CA,
10TH ST & MAGNOLIA ST,Oakland,CA,
PICARDY DR & SEMINARY AV,Oakland,CA,
9300 EDES AV,Oakland,CA,
23RD AV & E 30TH ST,Oakland,CA,
7400 HAMILTON ST,Oakland,CA,
16TH AV & NB I880,Oakland,CA,
0 ENTRADA AV,Oakland,CA,
RETTIG AV & WISCONSIN ST,Oakland,CA,
900 E 19TH ST,Oakland,CA,
1500 MARIN WY,Oakland,CA,
KRAUSE AV & MAYWOOD AV,Oakland,CA,
62ND ST & DOVER ST,Oakland,CA,
2900 BIRDSALL AV,Oakland,CA,
LUNDHOLM AV & OAKDALE AV,Oakland,CA,
6600 WHITNEY ST,Oakland,CA,
8TH ST & KIRKHAM CT,Oakland,CA,
10000 SUNNYSIDE ST,Oakland,CA,
FAIRMOUNT AV & MOSS AV,Oakland,CA,
5900 THORNHILL DR,Oakland,CA,
2500 POPLAR ST,Oakland,CA,
4300 COOLIDGE AV,Oakland,CA,
5TH ST & ALICE ST,Oakland,CA,
79TH AV & LOCKWOOD ST,Oakland,CA,
1200 16TH ST,Oakland,CA,
BELMONT ST & PERKINS ST,Oakland,CA,
42ND ST & OPAL ST,Oakland,CA,
COLE ST & TRASK ST,Oakland,CA,
41ST ST & GLEN AV,Oakland,CA,
4300 MASTERSON ST,Oakland,CA,
CHETWOOD ST & SANTA ROSA AV,Oakland,CA,
3300 ELMWOOD AV,Oakland,CA,
9100 HOLLY ST,Oakland,CA,
59TH ST & FREMONT ST,Oakland,CA,
5800 BAGSHOTTE DR,Oakland,CA,
PIEDMONT AV & RANDWICK AV,Oakland,CA,
8500 AMELIA ST,Oakland,CA,
MOUNTAIN BLVD & SCOUT RD,Oakland,CA,
61ST ST & IDAHO ST,Oakland,CA,
4300 FOOTHILL BLVD,Oakland,CA,
39TH AV & SANTA RITA ST,Oakland,CA,
6600 SOBRANTE RD,Oakland,CA,
3600 KANSAS ST,Oakland,CA,
FOOTHILL BLVD & LAVERNE AV,Oakland,CA,
ALLENDALE AV & SHORT ST,Oakland,CA,
1700 SONOMA WY,Oakland,CA,
9100 HILLSIDE ST,Oakland,CA,
3300 KINGSLAND AV,Oakland,CA,
0 LODGE CT,Oakland,CA,
6800 BALSAM WY,Oakland,CA,
13TH AV & E 26TH ST,Oakland,CA,
104TH AV & LINK ST,Oakland,CA,
8600 PLYMOUTH ST,Oakland,CA,
2300 SAN PABLO AVE,Oakland,CA,
6200 SWAINLAND RD,Oakland,CA,
2400 WALLACE ST,Oakland,CA,
ASHTON AV & JONES AV,Oakland,CA,
55TH AV & WADEAN PL,Oakland,CA,
20TH AV & INDEPENDENCE WY,Oakland,CA,
7700 LOCKWOOD ST,Oakland,CA,
400 VALLE VISTA AV,Oakland,CA,
BOSTON AV & PLEASANT ST,Oakland,CA,
90TH AV & G ST,Oakland,CA,
2300 VALDEZ ST,Oakland,CA,
1600 83RD AVE,Oakland,CA,
BLANDON RD & GOLF LINKS RD,Oakland,CA,
DURANT AV & SUNNYSIDE ST,Oakland,CA,
6600 GIRVIN DR,Oakland,CA,
SANTA CLARA AV & VERNON ST,Oakland,CA,
2700 WOOD ST,Oakland,CA,
FALLON ST & VICTORY CT,Oakland,CA,
MARSHALL ST & OCEAN AV,Oakland,CA,
6TH ST & BRUSH ST,Oakland,CA,
45TH AV & ELLEN ST,Oakland,CA,
E 12TH ST & 42ND AV,Oakland,CA,
1000 MOUNTAIN BLVD,Oakland,CA,
4200 WHITTLE AV,Oakland,CA,
300 CASTRO ST,Oakland,CA,
E 9TH ST & LISBON AV,Oakland,CA,
BEAT 8,Oakland,CA,
1000 SANTA YNEZ CT,Oakland,CA,
8700 BIRCH ST,Oakland,CA,
51ST ST & MILES AV,Oakland,CA,
COLLEGE AV & WB S24,Oakland,CA,
5900 ALHAMBRA AV,Oakland,CA,
1700 JEFFERSON ST,Oakland,CA,
11100 GOLF LINKS RD,Oakland,CA,
2900 7TH ST,Oakland,CA,
JORDAN AV & RETTIG AV,Oakland,CA,
6600 DAWES ST,Oakland,CA,
FV CORRIDOR,Oakland,CA,
3700 KANSAS ST,Oakland,CA,
HEGENBERGER PL & HEGENBERGER RD,Oakland,CA,
300 44TH ST,Oakland,CA,
LEONA CREEK DR & LION WY,Oakland,CA,
E 10TH ST & 26TH AV,Oakland,CA,
AILEEN ST & CARBERRY AV,Oakland,CA,
5600 CABOT DR,Oakland,CA,
E 24TH ST & WALLACE ST,Oakland,CA,
8TH ST & MYRTLE ST,Oakland,CA,
1800 GOULDIN RD,Oakland,CA,
4300 SEQUOYAH RD,Oakland,CA,
7TH ST & KIRKHAM ST,Oakland,CA,
3000 SYLVAN AV,Oakland,CA,
5TH ST & CHESTNUT ST,Oakland,CA,
4400 VIEW ST,Oakland,CA,
DIRECTED PATROL DIST 3,Oakland,CA,
SPEC ASSIGNMENT,Oakland,CA,
3200 HAMLINE AV,Oakland,CA,
6800 EXETER DR,Oakland,CA,
3500 COOLIDGE AV,Oakland,CA,
47TH AV & ELLEN ST,Oakland,CA,
5100 GRIZZLY PEAK BLVD,Oakland,CA,
1000 HEGENBERGER RD,Oakland,CA,
MELDON AV & STORER AV,Oakland,CA,
10400 GRAFFIAN ST,Oakland,CA,
FAIRFAX AV & WENTWORTH AV,Oakland,CA,
29TH AV & CHAPMAN ST,Oakland,CA,
INTERNATIONAL BLVD,Oakland,CA,
15TH AV & MARIN WY,Oakland,CA,
ELMWOOD AV & LANCASTER ST,Oakland,CA,
1800 MARKET ST,Oakland,CA,
6300 DOVER ST,Oakland,CA,
78TH AV & ALDER ST,Oakland,CA,
2100 MANDELA PKWY,Oakland,CA,
6500 THORNHILL DR,Oakland,CA,
2100 LAKE SHORE AV,Oakland,CA,
BUENA VENTURA AV & LUNDHOLM AV,Oakland,CA,
5600 COLBOURN PL,Oakland,CA,
DUNKIRK AV & GOLF LINKS RD,Oakland,CA,
2000 ROSECREST DR,Oakland,CA,
MICHIGAN AV & SUNKIST DR,Oakland,CA,
6000 BROADWAY TER,Oakland,CA,
1300 6TH AV,Oakland,CA,
E 24TH ST & GRANDE VISTA AV,Oakland,CA,
BROOKDALE AV & FRANCES ST,Oakland,CA,
6100 TAFT AV,Oakland,CA,
63RD AV & FORTUNE WY,Oakland,CA,
64TH AV & MONADNOCK WY,Oakland,CA,
62ND ST & CLAREMONT AV,Oakland,CA,
COLUMBIAN DR & VALENTINE ST,Oakland,CA,
CHABOT RD & GOLDEN GATE AV,Oakland,CA,
EMPIRE RD & FITZPATRICK RD,Oakland,CA,
1500 EMBARCADERO,Oakland,CA,
5600 S PICARDY DR,Oakland,CA,
94TH AV & E ST,Oakland,CA,
2600 CARMEL ST,Oakland,CA,
4500 MOUNTAIN VIEW AV,Oakland,CA,
AREA 4,Oakland,CA,
7100 THORNDALE DR,Oakland,CA,
COOLIDGE AV & LAGUNA WY,Oakland,CA,
EUCLID AV & PALM AV,Oakland,CA,
9000 CASTLEWOOD ST,Oakland,CA,
1200 84TH AVE,Oakland,CA,
CLIFTON ST & LAWTON AV,Oakland,CA,
5700 COUNTRY CLUB DR,Oakland,CA,
42ND ST & MANILA AV,Oakland,CA,
BROOKDALE AV & COLE ST,Oakland,CA,
0 MAGGIORA CT,Oakland,CA,
4000 MAGEE AV,Oakland,CA,
900 LARKSPUR RD,Oakland,CA,
ESCHER DR & SHEPHERD CANYON RD,Oakland,CA,
98TH AV & ELMAR AV,Oakland,CA,
HARRISON ST & OAKLAND AV,Oakland,CA,
700 PINE ST,Oakland,CA,
5900 MARIE WY,Oakland,CA,
5500 MACARTHUR BLVD,Oakland,CA,
6100 WESTOVER DR,Oakland,CA,
8400 OUTLOOK AV,Oakland,CA,
2100 51ST AVE,Oakland,CA,
JOAQUIN MILLER RD & ROBINSON DR,Oakland,CA,
60TH ST & HOWELL ST,Oakland,CA,
3300 ROBINSON DR,Oakland,CA,
66TH ST & RAYMOND ST,Oakland,CA,
3400 NOYO ST,Oakland,CA,
3400 HARLAN ST,Oakland,CA,
2000 ADELINE ST,Oakland,CA,
0 COLGETT DR,Oakland,CA,
47TH AV & TYRRELL ST,Oakland,CA,
E 16TH ST & FOOTHILL BLVD,Oakland,CA,
CLARA ST & OSCAR AV,Oakland,CA,
300 FRUITVALE AV,Oakland,CA,
1400 20TH ST,Oakland,CA,
41ST AV & SANTA RITA ST,Oakland,CA,
LOMA VISTA AV & WISCONSIN ST,Oakland,CA,
6100 MARSHALL ST,Oakland,CA,
2400 STOCKBRIDGE DR,Oakland,CA,
1500 65TH AV,Oakland,CA,
32ND ST & HOLLIS ST,Oakland,CA,
4300 EVERETT AV,Oakland,CA,
EUCLID AV & JAYNE AV,Oakland,CA,
4100 SHONE AV,Oakland,CA,
4200 REINHARDT DR,Oakland,CA,
BANCROFT AV & HILTON ST,Oakland,CA,
2800 99TH AV,Oakland,CA,
700 FAIRVIEW ST,Oakland,CA,
CAMDEN ST & MORCOM AV,Oakland,CA,
0 BELL WAVER WY,Oakland,CA,
CLAREMONT AV & HILLEGASS AV,Oakland,CA,
13400 SKYLINE BLVD,Oakland,CA,
11700 CRANFORD WY,Oakland,CA,
3200 REVERE AV,Oakland,CA,
45TH ST & SHAFTER AV,Oakland,CA,
5800 ROSS ST,Oakland,CA,
BOYD AV & HUDSON ST,Oakland,CA,
E 27TH ST & WAKEFIELD AV,Oakland,CA,
8000 HILLMONT DR,Oakland,CA,
FRONTAGE RD & GRAND AV,Oakland,CA,
0 AMBLER LN,Oakland,CA,
1700 68TH AVE,Oakland,CA,
CHATHAM RD & KINGSLEY ST,Oakland,CA,
E 23RD ST & IVY DR,Oakland,CA,
2900 E 12TH ST,Oakland,CA,
103RD AV & E ST,Oakland,CA,
58TH ST & ADELINE ST,Oakland,CA,
E 31ST ST & ARDLEY AV,Oakland,CA,
5800 MCANDREW DR,Oakland,CA,
4300 ARDEN PL,Oakland,CA,
1500 70TH AV,Oakland,CA,
DURANT AV & PACKARD ST,Oakland,CA,
25TH AV & E 28TH ST,Oakland,CA,
6000 AUBURN AV,Oakland,CA,
24TH ST & WAVERLY ST,Oakland,CA,
APPLE ST & PEARMAIN ST,Oakland,CA,
7000 COLTON BLVD,Oakland,CA,
PRINCETON ST & VICKSBURG AV,Oakland,CA,
10400 BIRCH ST,Oakland,CA,
62ND ST & RACINE ST,Oakland,CA,
3800 NAIROBI PL,Oakland,CA,
3RD ST & MAGNOLIA ST,Oakland,CA,
107TH AV & GRAFFIAN ST,Oakland,CA,
6600 EVERGREEN AV,Oakland,CA,
3307A 35TH AV,Oakland,CA,
4TH ST & MADISON ST,Oakland,CA,
MOSS AV & VERNON ST,Oakland,CA,
APGAR ST & W MACARTHUR BLVD,Oakland,CA,
108TH AV & MCINTYRE ST,Oakland,CA,
4500 TOYON PL,Oakland,CA,
5000 HARBORD DR,Oakland,CA,
CHURCH ST & KRAUSE AV,Oakland,CA,
HAVENSCOURT BLVD & INTERNATIONAL,Oakland,CA,
MOUNTAIN BLVD & WOODMINSTER LN,Oakland,CA,
KEITH AV & PRESLEY WY,Oakland,CA,
6200 ESTATES DR,Oakland,CA,
SB I880 & JACKSON ST,Oakland,CA,
0 OVERLAKE CT,Oakland,CA,
LAUREL AV & WISCONSIN ST,Oakland,CA,
2700 MONTANA ST,Oakland,CA,
3600 WOODRUFF AV,Oakland,CA,
5900 CANNING ST,Oakland,CA,
2500 LINDEN ST,Oakland,CA,
7400 GARFIELD AV,Oakland,CA,
55TH AV & N PICARDY DR,Oakland,CA,
5100 CLAREWOOD DR,Oakland,CA,
8100 WINTHROPE ST,Oakland,CA,
700 BEATIE ST,Oakland,CA,
NB I880 & OAK ST,Oakland,CA,
LILAC ST & WALNUT ST,Oakland,CA,
900 51ST AV,Oakland,CA,
19TH ST & ADELINE ST,Oakland,CA,
W GRAND AV & SB I880 CONN,Oakland,CA,
6700 OAKPORT ST,Oakland,CA,
6100 ANTIOCH ST,Oakland,CA,
6500 AITKEN DR,Oakland,CA,
MADRONE AV & TULIP AV,Oakland,CA,
12800 SKYLINE BLVD,Oakland,CA,
600 2ND ST,Oakland,CA,
700 ARIMO AV,Oakland,CA,
GROSVENOR PL & PARK BLVD,Oakland,CA,
39TH ST & LUSK ST,Oakland,CA,
6400 SALEM ST,Oakland,CA,
BAYO ST & HIGH ST,Oakland,CA,
10900 SAN LEANDRO ST,Oakland,CA,
0 CHAMBERS LN,Oakland,CA,
2100 SAN ANTONIO WY,Oakland,CA,
10700 SHELDON ST,Oakland,CA,
2600 76TH AVE,Oakland,CA,
6900 HERBERT GUICE WY,Oakland,CA,
CAPITAL ST & MERRITT AV,Oakland,CA,
1200 3RD AV,Oakland,CA,
EDES AV & WORTH ST,Oakland,CA,
ALBERT ST & HUNTINGTON ST,Oakland,CA,
FAIRMOUNT AV & STANLEY PL,Oakland,CA,
2100 COLOMA ST,Oakland,CA,
53RD AV & E 8TH ST,Oakland,CA,
300 29TH ST,Oakland,CA,
4900 DESMOND ST,Oakland,CA,
66TH ST & DEAKIN ST,Oakland,CA,
64TH AV & HAYES ST,Oakland,CA,
HARRINGTON AV & MEADOW ST,Oakland,CA,
3600 SHONE AV,Oakland,CA,
3900 SUTER ST,Oakland,CA,
CLAREMONT AV & VICENTE WY,Oakland,CA,
15TH AV & GLEASON WY,Oakland,CA,
5700 CASTLE DR,Oakland,CA,
FOOTHILL BLVD & TALBOT AV,Oakland,CA,
1700 EMBARCADERO COVE,Oakland,CA,
1100 ALVARADO RD,Oakland,CA,
7000 CHABOT RD,Oakland,CA,
7200 FOOTHILL BLVD,Oakland,CA,
99TH AV & THERMAL ST,Oakland,CA,
900 MARITIME ST,Oakland,CA,
CLAREMONT AV & STONEWALL RD,Oakland,CA,
E 16TH ST & 56TH AV,Oakland,CA,
500 WASHINGTON ST,Oakland,CA,
1200 EMBARCADERO COVE,Oakland,CA,
5800 MORPETH ST,Oakland,CA,
55TH AV & NORMANDIE AV,Oakland,CA,
7200 BANCROFT AVE,Oakland,CA,
6200 MALDON ST,Oakland,CA,
HILLMONT DR & PARTRIDGE AV,Oakland,CA,
8200 CAPWELL DR,Oakland,CA,
500 CLAY ST,Oakland,CA,
6000 HAYES ST,Oakland,CA,
7300 CHABOT RD,Oakland,CA,
MORAGA AV & NB S13,Oakland,CA,
11000 ETTRICK ST,Oakland,CA,
3000 JORDAN RD,Oakland,CA,
FRAZIER AV & STANLEY AV,Oakland,CA,
10500 BEVERLY AV,Oakland,CA,
13TH AV & PARK BLVD,Oakland,CA,
ESCHER DR & WESTOVER DR,Oakland,CA,
7000 SNAKE RD,Oakland,CA,
0 TRUITT LN,Oakland,CA,
600 CHESTER ST,Oakland,CA,
7000 COLISEUM WAY,Oakland,CA,
19TH ST & MADISON ST,Oakland,CA,
LYON AV & RANSOM AV,Oakland,CA,
5900 WESTOVER DR,Oakland,CA,
7000 FAVOR ST,Oakland,CA,
1100 BESITO AV,Oakland,CA,
NB I880 & NB OAK OFFRP ST,Oakland,CA,
12900 SKYLINE BLVD,Oakland,CA,
50TH ST & SHAFTER AV,Oakland,CA,
62ND AV & MALDON ST,Oakland,CA,
MELVILLE DR & SKYLINE BLVD,Oakland,CA,
200 MARITIME ST,Oakland,CA,
6900 PASO ROBLES DR,Oakland,CA,
PINE HILLS DR & SKYLINE BLVD,Oakland,CA,
8700 OLIVE ST,Oakland,CA,
4400 HARBORD DR,Oakland,CA,
51ST ST & DESMOND ST,Oakland,CA,
JOAQUIN MILLER CT & MOUNTAIN BLVD,Oakland,CA,
FRISBIE ST & RICHMOND BLVD,Oakland,CA,
800 OAK ST,Oakland,CA,
MCAULEY ST & TELEGRAPH AV,Oakland,CA,
0 IRONWOOD ST,Oakland,CA,
GILBERT ST & MATHER ST,Oakland,CA,
CALMAR AV & MANDANA BLVD,Oakland,CA,
2700 BUTTERS DR,Oakland,CA,
9400 TANNER WY,Oakland,CA,
E 27TH ST & BARRY PL,Oakland,CA,
10TH AV & E 23RD ST,Oakland,CA,
2000 7TH ST,Oakland,CA,
6100 AVENAL AV,Oakland,CA,
NB S13 & NB TUNNEL CONN RD,Oakland,CA,
E 31ST ST & BEAUMONT AV,Oakland,CA,
800 E 14TH ST,Oakland,CA,
26TH AV & E 9TH ST,Oakland,CA,
6600 GLEN OAKS WY,Oakland,CA,
INTL,Oakland,CA,
HARDY ST & MILES AV,Oakland,CA,
BYWOOD DR & MELVIN RD,Oakland,CA,
1800 GASPAR DR,Oakland,CA,
ECHO AV & PIEDMONT AV,Oakland,CA,
6500 OAKPORT ST,Oakland,CA,
LYNDE ST & SUNSET AV,Oakland,CA,
86TH AV & E ST,Oakland,CA,
5800 KEITH AV,Oakland,CA,
4TH ST & MARKET ST,Oakland,CA,
BAYO VISTA AV & HARRISON ST,Oakland,CA,
3300 CALIFORNIA ST,Oakland,CA,
700 W MARITIME ST,Oakland,CA,
PARK BLVD & NB S13,Oakland,CA,
69TH AV & OUTLOOK AV,Oakland,CA,
2100 MARIN WY,Oakland,CA,
300 CAPRICORN AV,Oakland,CA,
MOORPARK AV & PEARMAIN ST,Oakland,CA,
10400 GREENVIEW DR,Oakland,CA,
1100 JACKSON ST,Oakland,CA,
MADERA AV & WALNUT ST,Oakland,CA,
ACALANES DR & CAPISTRANO DR,Oakland,CA,
JEAN ST & SANTA ROSA AV,Oakland,CA,
E 11TH ST & 25TH AV,Oakland,CA,
4600 ROCKINGHAM CT,Oakland,CA,
5TH ST & HARRISON ST,Oakland,CA,
MARITIME ST & WEST 14TH ST,Oakland,CA,
3100 MANDELA PKWY,Oakland,CA,
2200 96TH AVE,Oakland,CA,
6200 TEVIS ST,Oakland,CA,
SHELTERWOOD DR & SHEPHERD CANYON RD,Oakland,CA,
DOLORES AV & SAN LUIS AV,Oakland,CA,
100TH AV & DANTE AV,Oakland,CA,
19TH ST & UNION ST,Oakland,CA,
2200 5TH AV,Oakland,CA,
400 51 ST,Oakland,CA,
7600 HAWLEY ST,Oakland,CA,
11TH AV & E 20TH ST,Oakland,CA,
2000 MONTANA ST,Oakland,CA,
14TH ST & WB I980,Oakland,CA,
10TH ST & MYRTLE ST,Oakland,CA,
57TH AV & ROBERTS AV,Oakland,CA,
6200 BULLARD DR,Oakland,CA,
8TH ST & KIRKHAM WY,Oakland,CA,
7200 DOOLITTLE DR,Oakland,CA,
62ND ST & LOWELL,Oakland,CA,
0 BUENA VISTA PL,Oakland,CA,
FOOTHILL BLVD & FRAZIER AV,Oakland,CA,
LAKESHORE AV & WALAVISTA AV,Oakland,CA,
600 GRAVATT DR,Oakland,CA,
58TH AV & TEVIS ST,Oakland,CA,
1800 18TH AV,Oakland,CA,
5700 PRESLEY WY,Oakland,CA,
5500 SAN LEANDRO ST,Oakland,CA,
DOWNTOWN OAKLAND,Oakland,CA,
TELEGRAPH AV & WOOLSEY ST,Oakland,CA,
40TH AV & WATTLING ST,Oakland,CA,
3900 WOODRUFF AV,Oakland,CA,
2500 DELMER ST,Oakland,CA,
CASTERLINE RD & OAKMORE RD,Oakland,CA,
PLEITNER AV & SUTER ST,Oakland,CA,
MACARTHUR BLVD & SPRUCE ST,Oakland,CA,
3100 BROADWAY,Oakland,CA,
1700 EVERS AV,Oakland,CA,
700 HEGENBERGER RD,Oakland,CA,
0 WYMAN PL,Oakland,CA,
1400 E 26TH ST,Oakland,CA,
6200 HERZOG ST,Oakland,CA,
4500 MORAGA AV,Oakland,CA,
BURCKHALTER AV & SUNKIST DR,Oakland,CA,
6700 ARTHUR ST,Oakland,CA,
FAIRFAX AV & PRINCETON ST,Oakland,CA,
35TH AV & HARBOR VIEW AV,Oakland,CA,
1600 24TH AV,Oakland,CA,
HANSOM DR & SKYLINE BLVD,Oakland,CA,
0 RAMONA AV,Oakland,CA,
3400 ENCINA WY,Oakland,CA,
3300 FLORIDA ST,Oakland,CA,
E 27TH ST & COOLIDGE AV,Oakland,CA,
6100 GIRVIN DR,Oakland,CA,
1400 E 20TH ST,Oakland,CA,
78TH AV & LOCUST ST,Oakland,CA,
1600 FERNWOOD DR,Oakland,CA,
OVER ST & SUTER ST,Oakland,CA,
6000 HILTON ST,Oakland,CA,
3400 SIMMONS ST,Oakland,CA,
E 28TH ST & BELLA VISTA AV,Oakland,CA,
BERNHARDT DR & GHORMLEY AV,Oakland,CA,
600 PALOMA AV,Oakland,CA,
4000 ALISO AV,Oakland,CA,
FRUITVALE AV & WOODBINE AV,Oakland,CA,
700 E 21ST ST,Oakland,CA,
0 DIAZ PL,Oakland,CA,
600 CASTRO ST,Oakland,CA,
10700 MYERS ST,Oakland,CA,
0 HILLWOOD PL,Oakland,CA,
ADAMS ST & LEE ST,Oakland,CA,
E 7TH ST & EMBARCADERO,Oakland,CA,
2600 82ND AV,Oakland,CA,
2400 CHELSEA DR,Oakland,CA,
44TH ST & SHAFTER AV,Oakland,CA,
HEARST AV & LINCOLN AV,Oakland,CA,
11300 LOCHARD ST,Oakland,CA,
5500 SNAKE RD,Oakland,CA,
4900 MACARTHUR BLVD,Oakland,CA,
0 ABBOTT DR,Oakland,CA,
54TH AV & HOLLAND ST,Oakland,CA,
2200 BANCROFT WY,Oakland,CA,
0 MOTT PL,Oakland,CA,
6000 ESTATES DR,Oakland,CA,
5700 LA SALLE AV,Oakland,CA,
0 ORINDA VISTA DR,Oakland,CA,
0 PEMBROKE CT,Oakland,CA,
6500 SAN LEANDRO ST,Oakland,CA,
6100 MERRIEWOOD DR,Oakland,CA,
66TH AV & OUTLOOK AV,Oakland,CA,
1600 WOODHAVEN WY,Oakland,CA,
1400 18TH ST,Oakland,CA,
5900 MAURITANIA AV,Oakland,CA,
6800 CHAMBERS DR,Oakland,CA,
FILBERT ST & SAN PABLO AV,Oakland,CA,
5700 KEITH AV,Oakland,CA,
6100 WOOD DR,Oakland,CA,
7100 HERBERT GUICE WY,Oakland,CA,
9400 LAWLOR ST,Oakland,CA,
EB I580 & EB S24,Oakland,CA,
4800 MANILA AV,Oakland,CA,
POWELL ST & STANFORD AV,Oakland,CA,
6000 EASTLAWN ST,Oakland,CA,
3200 ROBINSON DR,Oakland,CA,
3900 LAUREL AV,Oakland,CA,
2500 MERCED ST,Oakland,CA,
10900 LOCHARD ST,Oakland,CA,
10600 SHELDON ST,Oakland,CA,
KELLER AV & SIENA DR,Oakland,CA,
AREA 5,Oakland,CA,
2600 PERALTA ST,Oakland,CA,
MILLSBRAE AV & ROBERTS AV,Oakland,CA,
9600 DUNBAR,Oakland,CA,
6400 EASTLAWN ST,Oakland,CA,
ALMANZA DR & CAPISTRANO DR,Oakland,CA,
BREED AV & DURANT AV,Oakland,CA,
700 BRUSH ST,Oakland,CA,
200 CROSS RD,Oakland,CA,
BERGEDO DR & REPOSO DR,Oakland,CA,
7300 SAN LEANDRO ST,Oakland,CA,
7300 SKYLINE BLVD,Oakland,CA,
EDWARDS AV & LEONA DR,Oakland,CA,
5300 MASONIC AV,Oakland,CA,
100 ALVARADO RD,Oakland,CA,
46TH AV & COLISEUM WY,Oakland,CA,
LAGUNA AV & RAMPART ST,Oakland,CA,
1100 CLAY ST,Oakland,CA,
4300 GILBERT ST,Oakland,CA,
106TH AV & DANTE AV,Oakland,CA,
3400 ELM ST,Oakland,CA,
AYALA AV & FOREST ST,Oakland,CA,
26TH ST & PERALTA ST,Oakland,CA,
3300 DWIGHT WY,Oakland,CA,
ELLINGTON WY & TUBMAN DR,Oakland,CA,
CARMEL ST & LAGUNA AV,Oakland,CA,
24TH ST & POPLAR ST,Oakland,CA,
JOAQUIN MILLER RD & SANBORN DR,Oakland,CA,
5100 HARBORD DR,Oakland,CA,
DOMINGO AV & TUNNEL RD,Oakland,CA,
41ST ST & EMERALD ST,Oakland,CA,
22ND AV & E 27TH ST,Oakland,CA,
3800 LA CRESTA AV,Oakland,CA,
2800 BENEDICT,Oakland,CA,
18TH AV & SOLANO WY,Oakland,CA,
2200 11TH AVE,Oakland,CA,
ARCHMONT PL & SUNNYMERE AV,Oakland,CA,
5500 GASKILL ST,Oakland,CA,
10000 PEARMAIN ST,Oakland,CA,
WHITTLE AV & WILBUR ST,Oakland,CA,
101ST AV & BIRCH ST,Oakland,CA,
CHABOT RD & ROSS ST,Oakland,CA,
2400 WILLOW ST,Oakland,CA,
E 27TH ST & SUNSET AV,Oakland,CA,
FLEMING AV & KINGSLAND AV,Oakland,CA,
600 EMBARCADERO WEST,Oakland,CA,
76TH AV & HAWLEY ST,Oakland,CA,
1600 GOULDIN RD,Oakland,CA,
17TH AV & SAN ANTONIO WY,Oakland,CA,
TAC 6,Oakland,CA,
3900 WILDA AV,Oakland,CA,
900 MADISON ST,Oakland,CA,
3100 MACARTHUR BLVD,Oakland,CA,
6400 ASPINWALL RD,Oakland,CA,
BOSTON AV & SCHOOL ST,Oakland,CA,
76TH AV & SAN LEANDRO ST,Oakland,CA,
9300 WALTER AV,Oakland,CA,
E 25TH ST & 26TH AV,Oakland,CA,
7200 ALTURA PL,Oakland,CA,
FONTAINE OVERCROSSING & FONTAINE ST,Oakland,CA,
EXCELSIOR AV & KINGSLEY ST,Oakland,CA,
65TH AV & OUTLOOK AV,Oakland,CA,
4300 VIEW CREST CT,Oakland,CA,
2000 SONOMA WY,Oakland,CA,
7TH ST & SB I880,Oakland,CA,
7100 CHABOT RD,Oakland,CA,
2000 62ND AV,Oakland,CA,
20TH AV & SOLANO WY,Oakland,CA,
10100 E ST,Oakland,CA,
500 FLORENCE AV,Oakland,CA,
BROADWAY TER & LEO WY,Oakland,CA,
E 22ND ST & 27TH AV,Oakland,CA,
E 16TH ST & LAKESHORE AV,Oakland,CA,
9200 CREST AV,Oakland,CA,
5300 MOUNTAIN BLVD,Oakland,CA,
11TH ST & EB I980,Oakland,CA,
89TH AV & E ST,Oakland,CA,
1600 MANDELA PKWY,Oakland,CA,
4400 SHEPHERD ST,Oakland,CA,
13500 CAMPUS DR,Oakland,CA,
57TH ST & CARBERRY AV,Oakland,CA,
2300 MYRTLE ST,Oakland,CA,
100 RIDGEWOOD WY,Oakland,CA,
E 28TH ST & BAYVIEW AV,Oakland,CA,
2400 73RD AV,Oakland,CA,
900 ROSE AV,Oakland,CA,
8900 G ST,Oakland,CA,
2400 HEARST AV,Oakland,CA,
44TH ST & WEBSTER ST,Oakland,CA,
300 ZEPHYR DR,Oakland,CA,
E 20TH ST & 8TH AV,Oakland,CA,
1100 PEABODY LN,Oakland,CA,
4000 BAYO ST,Oakland,CA,
BARRETT ST & SHELDON ST,Oakland,CA,
PRENTISS PL & PRENTISS ST,Oakland,CA,
SPECIAL,Oakland,CA,
98TH AV & ELMVIEW DR,Oakland,CA,
MOORPARK AV & SAN LEANDRO ST,Oakland,CA,
CUNNINGHAM ST & FAIR AV,Oakland,CA,
EMPIRE RD & KOFORD RD,Oakland,CA,
1600 32ND ST,Oakland,CA,
36TH AV & E 8TH ST,Oakland,CA,
DOUGLAS AV & KERWIN AV,Oakland,CA,
GOLF LINKS RD & EB I580,Oakland,CA,
55TH AV & YUBA AV,Oakland,CA,
1500 99TH AV,Oakland,CA,
7100 PINEHAVEN RD,Oakland,CA,
5900 CASTLE DR,Oakland,CA,
6600 LONGWALK DR,Oakland,CA,
6300 IDAHO ST,Oakland,CA,
76TH AV & SUNSHINE CT,Oakland,CA,
8711A MACARTHUR BLVD,Oakland,CA,
LUNDHOLM AV & OUTLOOK AV,Oakland,CA,
LORENZO AV & SUTER ST,Oakland,CA,
200 MANDALAY RD,Oakland,CA,
2200 WEBSTER ST,Oakland,CA,
CLAREMONT AV & EB S24,Oakland,CA,
9400 GRANADA AV,Oakland,CA,
0 BOWLES PL,Oakland,CA,
21ST AV & INDEPENDENCE WY,Oakland,CA,
1500 VISTA ST,Oakland,CA,
COLLEGE AV & FOREST ST,Oakland,CA,
4600 LINCOLN AV,Oakland,CA,
FAIRMOUNT AV & FRISBIE ST,Oakland,CA,
3600 RANDOLPH AV,Oakland,CA,
400 WASHINGTON ST,Oakland,CA,
3400 REVERE AV,Oakland,CA,
700 ALICE ST,Oakland,CA,
BEAT 6,Oakland,CA,
0 TANGLEWOOD RD,Oakland,CA,
98TH AV & SPRINGFIELD ST,Oakland,CA,
CAMDEN ST & COURTLAND AV,Oakland,CA,
E 23RD ST & 24TH AV,Oakland,CA,
200 CATRON DR,Oakland,CA,
BROOKDALE AV & MINNA AV,Oakland,CA,
7000 HEMLOCK ST,Oakland,CA,
ADELINE ST & AILEEN ST,Oakland,CA,
DAKOTA ST & LAUREL AV,Oakland,CA,
7100 MOUNTAIN BLVD,Oakland,CA,
2700 MADERA AV,Oakland,CA,
MANDELA PKWY & YERBA BUENA AV,Oakland,CA,
400 KENNEDY ST,Oakland,CA,
5900 CHABOT RD,Oakland,CA,
LYMAN RD & WATERHOUSE RD,Oakland,CA,
5TH AV & PARK BLVD,Oakland,CA,
5TH ST & SB ADELINE ONRP ST,Oakland,CA,
SB 42ND CONN AV & SB I880,Oakland,CA,
2500 CAMPBELL ST,Oakland,CA,
73RD AV & SIMSON ST,Oakland,CA,
COLORADOS DR & ESTEPA DR,Oakland,CA,
0 CITY LIMITS CIR,Oakland,CA,
1900 GOULDIN RD,Oakland,CA,
100 SWAN WY,Oakland,CA,
500 MONTE VISTA AV,Oakland,CA,
1200 31ST AV,Oakland,CA,
10800 LOCHARD ST,Oakland,CA,
700 WOOD ST,Oakland,CA,
99TH AV & OLIVE ST,Oakland,CA,
7TH AV & E 8TH ST,Oakland,CA,
2100 ARROWHEAD DR,Oakland,CA,
10400 NATTRESS WY,Oakland,CA,
EL DORADO AV & FAIRMOUNT AV,Oakland,CA,
3200 ARIZONA ST,Oakland,CA,
600 66TH AV,Oakland,CA,
400 FOREST ST,Oakland,CA,
LA SALLE AV & LUCAS AV,Oakland,CA,
2100 INDEPENDENCE WY,Oakland,CA,
BROADWAY TER & SHERIDAN RD,Oakland,CA,
100 ECHO AV,Oakland,CA,
58TH AV & ROBERTS AV,Oakland,CA,
CALCOT PL & MILLER PL,Oakland,CA,
ALCATRAZ AV & REGENT ST,Oakland,CA,
JOHN GLENN DR & RON COWAN PKWY,Oakland,CA,
EB I580 & OAKLAND AV,Oakland,CA,
MACARTHUR BLVD & STUART ST,Oakland,CA,
BELMONT ST & STATEN AV,Oakland,CA,
23RD ST & BRUSH ST,Oakland,CA,
DAISY ST & REINHARDT DR,Oakland,CA,
99TH AV & STANLEY AV,Oakland,CA,
6400 ARTHUR ST,Oakland,CA,
6200 ROBIN HOOD WY,Oakland,CA,
FRISBIE ST & HARRISON ST,Oakland,CA,
2700 64TH AVE,Oakland,CA,
4TH AV & PARK BLVD,Oakland,CA,
5800 ROMANY RD,Oakland,CA,
4100 PATTERSON AV,Oakland,CA,
0 DARTMOUTH DR,Oakland,CA,
5TH ST & LEWIS ST,Oakland,CA,
KINGSLAND AV & MORCOM AV,Oakland,CA,
4700 ADELINE ST,Oakland,CA,
0 SLATER LN,Oakland,CA,
LEIMERT BLVD & OAKMORE RD,Oakland,CA,
1200 EL CENTRO AV,Oakland,CA,
109TH AV & MYERS ST,Oakland,CA,
4800 PROCTOR AV,Oakland,CA,
1200 E 8TH ST,Oakland,CA,
60TH ST & MACCALL ST,Oakland,CA,
1100 WEST ST,Oakland,CA,
10500 DANTE AV,Oakland,CA,
5700 MENDOCINO AV,Oakland,CA,
400 MADISON ST,Oakland,CA,
8400 G ST,Oakland,CA,
1800 JEFFERSON ST,Oakland,CA,
GLEN AV & PANAMA CT,Oakland,CA,
28TH ST & MARTIN LUTHER KING J,Oakland,CA,
1500 WOOD ST,Oakland,CA,
2900 LONDON RD,Oakland,CA,
800 WALAVISTA AV,Oakland,CA,
CLIFTON ST & LOCKSLEY AV,Oakland,CA,
4900 BANCROFT AV,Oakland,CA,
18TH ST & MARTIN LUTHER KING J,Oakland,CA,
3100 FOOTHILL BLVD,Oakland,CA,
MAXWELL AV & TRASK ST,Oakland,CA,
HEGENBERGER ONRP & SAN LEANDRO ST,Oakland,CA,
KINGSLAND AV & WALNUT ST,Oakland,CA,
DRAKE DR & SNAKE RD,Oakland,CA,
6400 FARALLON WY,Oakland,CA,
5000 LAWTON AV,Oakland,CA,
5400 GASKILL ST,Oakland,CA,
13200 CAMPUS DR,Oakland,CA,
BAYO ST & PATTERSON AV,Oakland,CA,
26TH ST & WILLOW ST,Oakland,CA,
BUELL ST & DAISY ST,Oakland,CA,
7800 CAPWELL DR,Oakland,CA,
BIRDSALL AV & KNOWLAND AV,Oakland,CA,
1100 GLENCOURT DR,Oakland,CA,
6700 ESTATES DR,Oakland,CA,
400 WATER ST,Oakland,CA,
400 JACKSON ST,Oakland,CA,
GRISBORNE AV & THORNHILL DR,Oakland,CA,
9000 EDES AV,Oakland,CA,
BROADWAY TER & PINE NEEDLE DR,Oakland,CA,
1300 16TH AV,Oakland,CA,
ASCOT DR & CHELTON DR,Oakland,CA,
BEST AV & BROOKDALE AV,Oakland,CA,
BYWOOD DR & CARTER ST,Oakland,CA,
REDDING ST & STORER AV,Oakland,CA,
200 STANTONVILLE DR,Oakland,CA,
DARIEN AV & DENSLOWE AV,Oakland,CA,
1100 MIDDLE HARBOR RD,Oakland,CA,
EB I580 & WEBSTER ST,Oakland,CA,
5400 YUBA AV,Oakland,CA,
OCTAVIA ST & PENNIMAN AV,Oakland,CA,
4200 CARSON ST,Oakland,CA,
BENNETT PL & MONTEREY BLVD,Oakland,CA,
55TH AV & CAMDEN ST,Oakland,CA,
63RD ST & MARSHALL ST,Oakland,CA,
2300 MANZANITA DR,Oakland,CA,
3200 ELMWOOD AV,Oakland,CA,
COLTON BLVD & HEARTWOOD DR,Oakland,CA,
MONTECITO AV & PARK VIEW TER,Oakland,CA,
600 6TH ST,Oakland,CA,
D ST & ELMHURST AV,Oakland,CA,
GREENLY DR & SHONE AV,Oakland,CA,
CAPELL ST & PROSPECT AV,Oakland,CA,
400 CATRON DR,Oakland,CA,
PARK BLVD & PARK BOULEVARD WY,Oakland,CA,
1800 21ST AV,Oakland,CA,
MALCOLM AV & SNOWDOWN AV,Oakland,CA,
17TH AV & E 19TH ST,Oakland,CA,
FULLINGTON ST & MAYBELLE WY,Oakland,CA,
400 E 21ST ST,Oakland,CA,
700 JEFFERSON ST,Oakland,CA,
50TH ST & MANILA AV,Oakland,CA,
16TH AV & SOLANO WY,Oakland,CA,
4500 CAMDEN ST,Oakland,CA,
FORD ST & PETERSON ST,Oakland,CA,
8500 PLYMOUTH ST,Oakland,CA,
21ST ST & KAISER PLZ,Oakland,CA,
1400 64TH AV,Oakland,CA,
EUCLID AV & LAGUNITAS AV,Oakland,CA,
2100 BANCROFT WY,Oakland,CA,
4700 CUNNINGHAM ST,Oakland,CA,
MARITIME ST & PIER ST,Oakland,CA,
FOOTHILL BLVD & STANLEY AV,Oakland,CA,
5900 HOWELL ST,Oakland,CA,
FLAGG AV & HAROLD ST,Oakland,CA,
6800 BRISTOL DR,Oakland,CA,
ALLENDALE AV & LILAC ST,Oakland,CA,
23RD AV & E 28TH ST,Oakland,CA,
7700 MOUNTAIN BLVD,Oakland,CA,
FOOTHILL BLVD & EB I580,Oakland,CA,
2900 68TH AVE,Oakland,CA,
3900 REINHARDT DR,Oakland,CA,
1300 36TH AV,Oakland,CA,
800 37TH AV,Oakland,CA,
2200 SOLANO WY,Oakland,CA,
105TH AV & BREED AV,Oakland,CA,
KELLER AV & SEQUOYAH RD,Oakland,CA,
BUELL ST & TOMPKINS AV,Oakland,CA,
1700 MANZANITA DR,Oakland,CA,
3800 KELLER AV,Oakland,CA,
1400 WELLINGTON ST,Oakland,CA,
27TH ST & EB I980,Oakland,CA,
9300 C ST,Oakland,CA,
13200 SLOPECREST DR,Oakland,CA,
80TH AV & HILLSIDE ST,Oakland,CA,
EDGEWOOD AV & EL CENTRO AV,Oakland,CA,
COLE ST & PRINCETON AV,Oakland,CA,
1300 17TH AV,Oakland,CA,
MAPLE AV & SUTER ST,Oakland,CA,
1100 HUBERT RD,Oakland,CA,
6200 BRANN ST,Oakland,CA,
600 MARTIN LUTHER KING JR WY,Oakland,CA,
2700 EC REEMS,Oakland,CA,
1100 MARTIN LUTHER KING JR WY,Oakland,CA,
5200 E 8TH ST,Oakland,CA,
4000 ASPEN PL,Oakland,CA,
6600 OAKPORT ST,Oakland,CA,
6600 SIMS DR,Oakland,CA,
4000 1&2 BROOKDALE AV,Oakland,CA,
LEONA ST & MOUNTAIN BLVD,Oakland,CA,
2800 PERALTA ST,Oakland,CA,
1500 13TH ST,Oakland,CA,
APRICOT ST & ROYAL ST,Oakland,CA,
ALTURA PL & RIFLE LN,Oakland,CA,
5600 ASCOT DR,Oakland,CA,
99TH AV & BIRCH ST,Oakland,CA,
1400 SEMINARY AVE,Oakland,CA,
6TH AV & EMBARCADERO,Oakland,CA,
7900 EARHART RD,Oakland,CA,
MCKINLEY AV & SPRUCE ST,Oakland,CA,
ASILOMAR CIR & COLTON BLVD,Oakland,CA,
800 29TH AVE,Oakland,CA,
1200 PINE,Oakland,CA,
3400 LAMP ST,Oakland,CA,
3000 REVERE AV,Oakland,CA,
3700 CALIFORNIA ST,Oakland,CA,
CHEROKEE AV & THERMAL ST,Oakland,CA,
BEAT 12,Oakland,CA,
336A 12TH ST,Oakland,CA,
DAISY ST & MCCLELLAND ST,Oakland,CA,
ORANGE ST & PERKINS ST,Oakland,CA,
GOULDIN RD & THORNHILL DR,Oakland,CA,
KIWANIS ST & MIDVALE AV,Oakland,CA,
ARMSTRONG DR & TUBMAN DR,Oakland,CA,
BENNETT PL & JORDAN RD,Oakland,CA,
105TH AV & EAST CT,Oakland,CA,
12TH ST & WB I980,Oakland,CA,
600 HILLER DR,Oakland,CA,
6300 CHELTON DR,Oakland,CA,
1000 34TH AV,Oakland,CA,
3100 13TH AV,Oakland,CA,
ACALANES DR & LA PRENDA DR,Oakland,CA,
100 MANDALAY RD,Oakland,CA,
5700 MERRIEWOOD DR,Oakland,CA,
LOUISIANA ST & WALTER AV,Oakland,CA,
6200 FLORIO ST,Oakland,CA,
105TH AV & LINK ST,Oakland,CA,
BURR ST & TRUMAN AV,Oakland,CA,
1800 INDEPENDENCE WY,Oakland,CA,
900 82ND AV,Oakland,CA,
ACACIA AV & GOLDEN GATE AV,Oakland,CA,
E 38TH ST & ARDLEY AV,Oakland,CA,
4800 BOND ST,Oakland,CA,
SPECIAL ASSIGNMENT DIST 2,Oakland,CA,
51ST ST & CORONADO AV,Oakland,CA,
2900 GALINDO ST,Oakland,CA,
5700 N PICARDY DR,Oakland,CA,
3900 SAN PABLO,Oakland,CA,
HAMPEL ST & WOODRUFF AV,Oakland,CA,
6100 HARBORD DR,Oakland,CA,
103RD AV & LONGFELLOW AV,Oakland,CA,
5200 LEONA ST,Oakland,CA,
6800 SUNKIST DR,Oakland,CA,
12000 CAMPUS DR,Oakland,CA,
2600 ALIDA ST,Oakland,CA,
300 MODOC AV,Oakland,CA,
BROOKPARK RD & SKYLINE BLVD,Oakland,CA,
1800 WELLINGTON ST,Oakland,CA,
4000 BRIGHTON AV,Oakland,CA,
DIST 5,Oakland,CA,
1000 46TH ST,Oakland,CA,
21ST ST & BRUSH ST,Oakland,CA,
DIRECTIVE PATROL DIST 3,Oakland,CA,
BEAUMONT AV & EXCELSIOR AV,Oakland,CA,
LEE ST & MONTECITO AV,Oakland,CA,
5700 BROADWAY TER,Oakland,CA,
1500 12TH ST,Oakland,CA,
4100 WALNUT ST,Oakland,CA,
12000 SKYLINE BLVD,Oakland,CA,
ALCATRAZ AV & DANA ST,Oakland,CA,
300 21ST ST,Oakland,CA,
EL CAMILE AV & KINGSLAND AV,Oakland,CA,
1100 40TH ST,Oakland,CA,
HARRISON ST & ORANGE ST,Oakland,CA,
LOMA VISTA WY & SUTER ST,Oakland,CA,
CHASE ST & WILLOW ST,Oakland,CA,
2000 TRAFALGAR PL,Oakland,CA,
900 EVERETT AV,Oakland,CA,
3800 MARION AV,Oakland,CA,
6400 LONGCROFT DR,Oakland,CA,
109TH AV & BREED AV,Oakland,CA,
OAKWOOD DR & THORNHILL DR,Oakland,CA,
600 PERALTA ST,Oakland,CA,
1500 MANDELA PKWY,Oakland,CA,
29TH AV & SB I880,Oakland,CA,
SEMINARY AV & SEMINARY CT,Oakland,CA,
7300 RUDSDALE,Oakland,CA,
3600 CALIFORNIA ST,Oakland,CA,
3400 MADERA AV,Oakland,CA,
HILLMONT DR & PARKER AV,Oakland,CA,
2200 E 7TH ST,Oakland,CA,
0 CORTEZ CT,Oakland,CA,
14TH AV & MARIN WY,Oakland,CA,
0 MARVIN CT,Oakland,CA,
0 DRURY CT,Oakland,CA,
3900 BARNER AV,Oakland,CA,
2363A SAN PABLO AV,Oakland,CA,
1ST AV & FOOTHILL BLVD,Oakland,CA,
2800 108TH AV,Oakland,CA,
10200 BIRCH ST,Oakland,CA,
0 MONTE CRESTA AV,Oakland,CA,
ALMA PL & PARK BLVD,Oakland,CA,
6200 THORNHILL DR,Oakland,CA,
5000 GOLDEN GATE AV,Oakland,CA,
1000 54TH AV,Oakland,CA,
DIESEL ST & KENNEDY ST,Oakland,CA,
LILY ST & MASTERSON ST,Oakland,CA,
STANLEY AV & TRUMAN AV,Oakland,CA,
BRISTOL BLVD & INTERNATIONAL BLVD,Oakland,CA,
10000 INTERNATIONAL BLVD,Oakland,CA,
42ND AV & WATTLING ST,Oakland,CA,
1800 24TH AV,Oakland,CA,
4500 SAINT ANDREWS RD,Oakland,CA,
6700 OAKWOOD DR,Oakland,CA,
1100 ASHMOUNT AV,Oakland,CA,
PORTER ST & VALE AV,Oakland,CA,
JORDAN RD & REDWOOD RD,Oakland,CA,
ARIZONA ST & MIDVALE AV,Oakland,CA,
3600 BALFOUR AV,Oakland,CA,
KNOLL AV & MOUNTAIN BLVD,Oakland,CA,
4400 MALCOLM AV,Oakland,CA,
26TH ST & LINDEN ST,Oakland,CA,
35TH AV & LYNDE ST,Oakland,CA,
800 E 10TH ST,Oakland,CA,
16TH ST & KIRKHAM ST,Oakland,CA,
KUHNLE AV & MOUNTAIN BLVD,Oakland,CA,
1700 LINDEN ST,Oakland,CA,
1300 MADISON ST,Oakland,CA,
HAROLD ST & LAGUNA WY,Oakland,CA,
61ST AV & MONADNOCK WY,Oakland,CA,
FAIRVIEW ST & SHATTUCK AV,Oakland,CA,
NB I880 & NB MARKET OFFRP ST,Oakland,CA,
7100 SNELL ST,Oakland,CA,
18TH AV & INDEPENDENCE WY,Oakland,CA,
E 16TH ST & 1ST AV,Oakland,CA,
CALIFORNIA ST & LOMA VISTA AV,Oakland,CA,
4600 FAIRBAIRN AV,Oakland,CA,
PARKRIDGE DR & SADDLEBROOK DR,Oakland,CA,
HIGH ST & KANSAS ST,Oakland,CA,
BIRDSALL AV & MODESTO AV,Oakland,CA,
E 25TH ST & PEROLY CT,Oakland,CA,
BIRDSALL AV & MONTICELLO AV,Oakland,CA,
70TH AV & FAVOR ST,Oakland,CA,
BOSTON AV & PALMETTO ST,Oakland,CA,
99TH AV & TOLER AV,Oakland,CA,
6500 DANA ST,Oakland,CA,
MICHIGAN AV & PARTRIDGE AV,Oakland,CA,
OLIVE ST & WARNER AV,Oakland,CA,
1200 66TH ST,Oakland,CA,
BROADWAY TER & PINEHAVEN RD,Oakland,CA,
1600 1&2 12TH ST,Oakland,CA,
800 7TH ST,Oakland,CA,
10400 WALNUT ST,Oakland,CA,
HILLMONT DR & OVERDALE AV,Oakland,CA,
4300 39TH AV,Oakland,CA,
FLEET RD & HOLMAN RD,Oakland,CA,
17TH AV & SOLANO WY,Oakland,CA,
7300 OUTLOOK AV,Oakland,CA,
ASTER AV & EL MONTE AV,Oakland,CA,
0 GLENWOOD AV,Oakland,CA,
HADDON RD & PARK BLVD,Oakland,CA,
16TH ST & MARTIN LUTHER KING J,Oakland,CA,
107TH AV & BREED AV,Oakland,CA,
17TH AV & E 20TH ST,Oakland,CA,
APRICOT ST & BLENHEIM ST,Oakland,CA,
3900 MANILA AV,Oakland,CA,
ORANGE ST & PERRY PL,Oakland,CA,
61ST AV & FORTUNE WY,Oakland,CA,
BAXTER ST & GALINDO ST,Oakland,CA,
0 KINGSLAND PL,Oakland,CA,
3500 ROBINSON DR,Oakland,CA,
6700 ELVERTON DR,Oakland,CA,
1100 HIGH ST,Oakland,CA,
4400 MONTGOMERY ST,Oakland,CA,
2700 ALIDA ST,Oakland,CA,
9300 BANCROFT AVE,Oakland,CA,
20TH ST & CASTRO ST,Oakland,CA,
900 BLAIR AV,Oakland,CA,
99TH AV & DANTE AV,Oakland,CA,
1300 87TH AVE,Oakland,CA,
CHASE ST & MCELROY ST,Oakland,CA,
4100 OAK HILL RD,Oakland,CA,
ASPINWALL RD & THORNHILL DR,Oakland,CA,
108TH AV & SUNNYSIDE ST,Oakland,CA,
3300 OAK KNOLL BLVD,Oakland,CA,
13TH ST & MARTIN LUTHER KING JR WY,Oakland,CA,
0 MANDALAY RD,Oakland,CA,
200 23RD ST,Oakland,CA,
200 FLORENCE AV,Oakland,CA,
WB S24 & WB TUNNEL OFFRP RD,Oakland,CA,
5600 GOLDEN GATE AV,Oakland,CA,
2700 UNION ST,Oakland,CA,
2000 INDEPENDENCE WY,Oakland,CA,
SB I880 & OAK ST,Oakland,CA,
4000 7TH ST,Oakland,CA,
5600 LA SALLE AV,Oakland,CA,
900 KING ST,Oakland,CA,
10TH AV & FOOTHILL BLVD,Oakland,CA,
ALCATRAZ AV & BENVENUE AV,Oakland,CA,
LAUREL AV & MADELINE ST,Oakland,CA,
BIRDSALL AV & CAMDEN ST,Oakland,CA,
EARL ST & KELLER AV,Oakland,CA,
COLLEGE AV & FLORIO ST,Oakland,CA,
100 CALVERT CT,Oakland,CA,
39TH AV & WALNUT ST,Oakland,CA,
55TH AV & HILLEN DR,Oakland,CA,
12TH ST & EB I980,Oakland,CA,
0 LIVE OAK RD,Oakland,CA,
5700 SKYLINE BLVD,Oakland,CA,
FREMONT ST & POWELL ST,Oakland,CA,
FAIRBAIRN AV & HERRIOTT AV,Oakland,CA,
ARTHUR ST & DASHWOOD AV,Oakland,CA,
1800 ARROWHEAD DR,Oakland,CA,
1200 59TH ST,Oakland,CA,
WB HIGH ONRP ST & WB I580,Oakland,CA,
3500 KLAMATH ST,Oakland,CA,
0 PERSHING DR,Oakland,CA,
10900 JULIUS ST,Oakland,CA,
24TH ST & KIRKHAM ST,Oakland,CA,
18TH AV & SONOMA WY,Oakland,CA,
900 3RD ST,Oakland,CA,
2300 SCOUT RD,Oakland,CA,
CARRINGTON ST & RANSOM AV,Oakland,CA,
AIRPORT ACCESS RD & DOOLITTLE DR,Oakland,CA,
EB I580 & EB SEMINARY ONRP AV,Oakland,CA,
7200 WOODROW DR,Oakland,CA,
2600 MADELINE ST,Oakland,CA,
700 5TH ST,Oakland,CA,
HILLGIRT CIR & MACARTHUR BLVD,Oakland,CA,
3000 MARKET ST,Oakland,CA,
8200 IRIS ST,Oakland,CA,
COLUMBIAN DR & SUNKIST DR,Oakland,CA,
1700 14TH AV,Oakland,CA,
CARSON ST & SB S13,Oakland,CA,
5900 WOOD DR,Oakland,CA,
5000 CLARKE ST,Oakland,CA,
100 CHADBOURNE WY,Oakland,CA,
3500 CHESTNUT ST,Oakland,CA,
MADDUX DR & STONEFORD AV,Oakland,CA,
0 DOWNEY PL,Oakland,CA,
FLEMING AV & MAXWELL AV,Oakland,CA,
E 29TH ST & MCKILLOP RD,Oakland,CA,
9800 MAC ARTHUR BLVD,Oakland,CA,
10700 GOLF LINKS RD,Oakland,CA,
11000 GOLF LINKS RD,Oakland,CA,
MALCOLM AV & STELLA ST,Oakland,CA,
1200 79TH AVE,Oakland,CA,
3100 JORDAN RD,Oakland,CA,
4200 SAINT ANDREWS RD,Oakland,CA,
4500 SHAFTER AV,Oakland,CA,
ALCATRAZ AV & RAYMOND ST,Oakland,CA,
6200 ROCKY POINT,Oakland,CA,
4400 CLAREWOOD DR,Oakland,CA,
1700 LEIMERT PL,Oakland,CA,
102ND AV & SUNNYSIDE ST,Oakland,CA,
1200 88TH AVE,Oakland,CA,
4800 PARK BLVD,Oakland,CA,
11400 SUN VALLEY DR,Oakland,CA,
BEST AV & TRASK ST,Oakland,CA,
6800 PINEHAVEN RD,Oakland,CA,
10800 COTTER ST,Oakland,CA,
ADAMS POINT AREA,Oakland,CA,
HAMPEL ST & RANDOLPH AV,Oakland,CA,
3400 EDEN LN,Oakland,CA,
600 VIONA AV,Oakland,CA,
KANSAS ST & LAUREL AV,Oakland,CA,
26TH ST & WOOD ST,Oakland,CA,
6500 ESTATES DR,Oakland,CA,
15800 SKYLINE BLVD,Oakland,CA,
4800 MOUNTAIN BLVD,Oakland,CA,
2900 E 18TH ST,Oakland,CA,
0 HERITAGE ST,Oakland,CA,
NB 29TH OFFRP AV & NB I880,Oakland,CA,
EXCELSIOR AV & PARK BLVD,Oakland,CA,
10700 INTERNATIONAL BLVD,Oakland,CA,
40TH ST & CERRITO AV,Oakland,CA,
0 AVONOAK CT,Oakland,CA,
CLEVELAND AV & RADNOR RD,Oakland,CA,
5300 CAMDEN ST,Oakland,CA,
0 CLIPPER HILL,Oakland,CA,
BARTLETT ST & DAVIS ST,Oakland,CA,
5000 WERNER CT,Oakland,CA,
3500 PERALTA ST,Oakland,CA,
HOLMES AV & WINTHROPE ST,Oakland,CA,
6000 LOWELL,Oakland,CA,
1000 BRUSH ST,Oakland,CA,
11300 GREENBRIER ST,Oakland,CA,
BROADWAY & CALDECOTT LN,Oakland,CA,
CARROLL ST & IVY DR,Oakland,CA,
WB I580 & WB LAKESHORE OFFRP AV,Oakland,CA,
2800 13TH AV,Oakland,CA,
10000 DENNY ST,Oakland,CA,
E 38TH ST & RANDOLPH AV,Oakland,CA,
700 71ST AV,Oakland,CA,
5600 LEONA ST,Oakland,CA,
DRURY RD & STRATHMOOR DR,Oakland,CA,
WAYNE AV & WESLEY AV,Oakland,CA,
ORANGE ST & PEARL ST,Oakland,CA,
4800 STACEY ST,Oakland,CA,
6500 DAWES ST,Oakland,CA,
100 CROSS RD,Oakland,CA,
1100 WESTVIEW DR,Oakland,CA,
MYRTLE ST & VILLAGE CIR,Oakland,CA,
6000 CHABOLYN TER,Oakland,CA,
600 ARIMO AV,Oakland,CA,
NB I880 & JACKSON ST,Oakland,CA,
8300 E ST,Oakland,CA,
6300 AVENAL AV,Oakland,CA,
LEIGHTON CT & MOSS WY,Oakland,CA,
CATRON DR & REPOSO DR,Oakland,CA,
55TH AV & LAVERNE AV,Oakland,CA,
900 CREED RD,Oakland,CA,
40TH AV & SANTA RITA ST,Oakland,CA,
2000 PERALTA ST,Oakland,CA,
CORONADO AV & DESMOND ST,Oakland,CA,
BEAT 14,Oakland,CA,
DOOLITTLE DR & HARBOR BAY PKWY,Oakland,CA,
10500 BANCROFT AV,Oakland,CA,
BERLIN WY & SCHOOL ST,Oakland,CA,
6900 LION,Oakland,CA,
BANNING DR & SHEPHERD CANYON RD,Oakland,CA,
BLENHEIM ST & SAN LEANDRO ST,Oakland,CA,
TELEGRAPH AV,Oakland,CA,
5200 SAN PABLO AV,Oakland,CA,
2100 MELVIN RD,Oakland,CA,
9100 BIRCH ST,Oakland,CA,
6200 COLBY ST,Oakland,CA,
5100 E 8TH ST,Oakland,CA,
900 34 ST,Oakland,CA,
5200 PINECREST DR,Oakland,CA,
3400 ARIZONA ST,Oakland,CA,
BOULEVARD WY & GRAND AV,Oakland,CA,
800 ALICE ST,Oakland,CA,
CHASE ST & PINE ST,Oakland,CA,
EB 17TH OFFRP ST & CASTRO ST,Oakland,CA,
1100 102ND AV,Oakland,CA,
SAN PABLO AV & SYCAMORE ST,Oakland,CA,
1500 73RD AV,Oakland,CA,
ELMAR AV & WARNER AV,Oakland,CA,
4500 PLEASANT VALLEY CT N,Oakland,CA,
MACARTHUR BLVD & VERNON ST,Oakland,CA,
200 5TH ST,Oakland,CA,
2700 78TH AVE,Oakland,CA,
LAKESHORE AV & PARK LN,Oakland,CA,
41ST ST & 42ND ST,Oakland,CA,
2400 TAYLOR AV,Oakland,CA,
0 CHELTON LN,Oakland,CA,
900 29TH AV,Oakland,CA,
RICH ST & WEBSTER ST,Oakland,CA,
1900 E 32ND ST,Oakland,CA,
COLTON BLVD & MENDOZA DR,Oakland,CA,
HUNTINGTON ST & STEELE ST,Oakland,CA,
BROADWAY TER & DUNCAN WY,Oakland,CA,
BERGEDO DR & PUEBLO DR,Oakland,CA,
ADELL CT & MACARTHUR BLVD,Oakland,CA,
2400 E 11TH ST,Oakland,CA,
1200 SEMINARY AVE,Oakland,CA,
1500 SEMINARY AV,Oakland,CA,
4100 E 15TH ST,Oakland,CA,
7200 SARONI DR,Oakland,CA,
BUENA VENTURA AV & DELMONT AV,Oakland,CA,
4700 EDGEWOOD AV,Oakland,CA,
WB KELLER OFFRP AV & MOUNTAIN BLVD,Oakland,CA,
106TH AV & BREED AV,Oakland,CA,
11000 OVERMOOR ST,Oakland,CA,
CREST AV & MCCORMICK AV,Oakland,CA,
1000 27TH AV,Oakland,CA,
14TH AV & VALLECITO PL,Oakland,CA,
99TH AV & CHERRY ST,Oakland,CA,
5900 JOHNSTON DR,Oakland,CA,
9400 WALTER AV,Oakland,CA,
WB I580 & WB S24,Oakland,CA,
6000 N ROCKRIDGE BLVD,Oakland,CA,
2500 BOOKER ST,Oakland,CA,
61ST ST & HILLEGASS AV,Oakland,CA,
DISTRICT 3 DIRECTIVE PATROL,Oakland,CA,
0 OBSERVATION PL,Oakland,CA,
GLEN PARK RD & PARK BLVD,Oakland,CA,
8700 BURR ST,Oakland,CA,
26TH ST & POPLAR ST,Oakland,CA,
GOLF LINKS RD & GRASS VALLEY RD,Oakland,CA,
400 MOUNTAIN BLVD,Oakland,CA,
3RD ST & MYRTLE ST,Oakland,CA,
9100 EMPIRE RD,Oakland,CA,
9000 SAGE RD,Oakland,CA,
900 CARLSTON AV,Oakland,CA,
0 PERTH PL,Oakland,CA,
9100 OLIVE ST,Oakland,CA,
1700 GLEASON WY,Oakland,CA,
4000 ARDLEY AV,Oakland,CA,
27TH AV & LOGAN ST,Oakland,CA,
1300 FOOTHILL PL,Oakland,CA,
2100 BRUSH ST,Oakland,CA,
41ST ST & LUSK ST,Oakland,CA,
0 MOUNTAIN VALLEY,Oakland,CA,
BROWN AV & WISCONSIN ST,Oakland,CA,
CALDECOTT LN & EB S24,Oakland,CA,
AGNES ST & PROCTOR AV,Oakland,CA,
38TH ST & LATIMER PL,Oakland,CA,
7400 SPENCER ST,Oakland,CA,
HUBERT RD & SUNNYHILLS RD,Oakland,CA,
2700 MAGNOLIA ST,Oakland,CA,
GREENWOOD AV & HAMPEL ST,Oakland,CA,
LAGUNA AV & MONTANA ST,Oakland,CA,
400 ELYSIAN FIELDS DR,Oakland,CA,
COOLIDGE AV & MORGAN AV,Oakland,CA,
GRAND AV CORRIDOR,Oakland,CA,
1500 82ND AV,Oakland,CA,
1800 82ND AV,Oakland,CA,
6300 FLORIO ST,Oakland,CA,
HUNTER AV & ST ELMO DR,Oakland,CA,
8100 MCCORMICK AV,Oakland,CA,
1400 WILLOW ST,Oakland,CA,
3700 ARDLEY AV,Oakland,CA,
2000 VALE RD,Oakland,CA,
PARK BLVD & PORTLAND AV,Oakland,CA,
6000 RACINE ST,Oakland,CA,
PATTERSON AV & WISCONSIN ST,Oakland,CA,
EB I980 & SAN PABLO AV,Oakland,CA,
DELMONT AV & OAKDALE AV,Oakland,CA,
ASHTON AV & CLARA ST,Oakland,CA,
FIELDBROOK RD & MOUNTAIN BLVD,Oakland,CA,
6600 FORESTLAND WY,Oakland,CA,
0 ENGINEER RD,Oakland,CA,
HAWLEY ST & HEGENBERGER RD,Oakland,CA,
COLE ST & KINGSLAND AV,Oakland,CA,
5200 MASONIC AV,Oakland,CA,
CLEMENS RD & LEIMERT BLVD,Oakland,CA,
1500 66TH AV,Oakland,CA,
BOOKER ST & IVY DR,Oakland,CA,
GROSVENOR PL & SUNNYHILLS RD,Oakland,CA,
3300 PIERSON ST,Oakland,CA,
ROBINSON DR & RUBIN DR,Oakland,CA,
4300 BENNETT PL,Oakland,CA,
10100 SKYLINE BLVD,Oakland,CA,
HUNTINGTON ST & HYACINTH AV,Oakland,CA,
ALLENDALE AV & MINNA AV,Oakland,CA,
6000 WESTOVER DR,Oakland,CA,
50TH ST & LAWTON AV,Oakland,CA,
8900 MCGURRIN RD,Oakland,CA,
E 17TH ST & 24TH AV,Oakland,CA,
700 100TH AV,Oakland,CA,
10200 SUNNYSIDE ST,Oakland,CA,
KINGWOOD RD & REDWOOD RD,Oakland,CA,
LAWLOR ST & OLIVER AV,Oakland,CA,
9700 NORGREN ST,Oakland,CA,
DAKOTA ST & MIDVALE AV,Oakland,CA,
1000 83RD AVE,Oakland,CA,
BROOKDALE AV & RENWICK ST,Oakland,CA,
800 8TH ST,Oakland,CA,
BEAT 15,Oakland,CA,
EB I580 & LAKE PARK AV,Oakland,CA,
4200 OAKMORE RD,Oakland,CA,
BUELL ST & STEELE ST,Oakland,CA,
9700 WALTER AV,Oakland,CA,
300 GARNET ST,Oakland,CA,
E 20TH ST & 21ST AV,Oakland,CA,
BELGRAVE PL & NAPA ST,Oakland,CA,
COMMONWEALTH DR & GLEN MANOR PL,Oakland,CA,
E 26TH ST & GRANDE VISTA AV,Oakland,CA,
2600 98 AV,Oakland,CA,
60TH ST & MARKET ST,Oakland,CA,
400 27 ST,Oakland,CA,
1500 56TH AV,Oakland,CA,
1300 E 22ND ST,Oakland,CA,
3600 BRUCE ST,Oakland,CA,
14TH AV & E 8TH ST,Oakland,CA,
3200 BROADWAY,Oakland,CA,
5000 LEONA ST,Oakland,CA,
GOLF LINKS RD & SHETLAND AV,Oakland,CA,
FOREST HILL AV & WHITTLE AV,Oakland,CA,
EL MONTE AV & NEY AV,Oakland,CA,
6300 ROCKY POINT,Oakland,CA,
WB 18TH OFFRP ST & WB I980,Oakland,CA,
400 PALISADE,Oakland,CA,
5700 SHEPHERD CANYON RD,Oakland,CA,
0 WESTWOOD CT,Oakland,CA,
FRUITVALE AV & TIFFIN RD,Oakland,CA,
1300 UNION ST,Oakland,CA,
BEAT 22,Oakland,CA,
GARDENIA PL & HILLMONT DR,Oakland,CA,
9700 DOOLITTLE DR,Oakland,CA,
29TH AV & E 8TH ST,Oakland,CA,
BROADWAY TER & FLORENCE AV,Oakland,CA,
FAIR AV & HUNTINGTON ST,Oakland,CA,
1300 E 8TH ST,Oakland,CA,
0 TERALYNN CT,Oakland,CA,
8100 SKYLINE BLVD,Oakland,CA,
7100 GREENLY DR,Oakland,CA,
0 COVINGTON ST,Oakland,CA,
9900 GOLF LINKS RD,Oakland,CA,
300 GRAND AVE,Oakland,CA,
4200 MIDVALE AV,Oakland,CA,
MERRITT AV & WESLEY AV,Oakland,CA,
SB HIGH ONRP ST & SB I880,Oakland,CA,
MANCHESTER DR & OCEAN VIEW DR,Oakland,CA,
300 PALI CT,Oakland,CA,
1300 44TH AV,Oakland,CA,
PENNIMAN AV & PENNIMAN CT,Oakland,CA,
4TH ST & FALLON ST,Oakland,CA,
1300 25TH AV,Oakland,CA,
MORAGA AV & SB S13,Oakland,CA,
6200 ROSS ST,Oakland,CA,
BROOKLYN AV & VAN DYKE AV,Oakland,CA,
55TH ST & MARTIN LUTHER KING J,Oakland,CA,
3700 LUNDHOLM AV,Oakland,CA,
6200 MELVILLE DR,Oakland,CA,
PRINCE ST & VERMONT ST,Oakland,CA,
108TH AV & JULIUS ST,Oakland,CA,
400 E 20TH ST,Oakland,CA,
GHORMLEY AV & ST ELMO DR,Oakland,CA,
0 TIFFANY LN,Oakland,CA,
BURR ST & STEARNS AV,Oakland,CA,
0 SERRAMAR DR,Oakland,CA,
500 BANCROFT AV,Oakland,CA,
SKYLINE BLVD & SKYWAY LN,Oakland,CA,
CARSON ST & MOUNTAIN BLVD,Oakland,CA,
2500 MAVIS ST,Oakland,CA,
CAPELL ST & MCKINLEY AV,Oakland,CA,
61ST PL & BAKER ST,Oakland,CA,
3700 LAUREL AV,Oakland,CA,
EB I580 CONN & W MACARTHUR BLVD,Oakland,CA,
PROSPECT AV & WESLEY AV,Oakland,CA,
18000 BROADWAY TER,Oakland,CA,
600 37TH AV,Oakland,CA,
DWIGHT WY & PANORAMIC WY,Oakland,CA,
CLIFTON ST & JAMES AV,Oakland,CA,
BONA ST & SUNSET AV,Oakland,CA,
1300 8TH AV,Oakland,CA,
3200 JORDAN RD,Oakland,CA,
22ND ST & CURTIS ST,Oakland,CA,
22ND ST & FRANKLIN ST,Oakland,CA,
1300 EVERETT AV,Oakland,CA,
1300 3RD AV,Oakland,CA,
EMERALD ST & GARNET ST,Oakland,CA,
