Address,City,State,Zip
400 INTERNATIONAL BLVD,Oakland,CA,
BROOKDALE AV & COOLIDGE AV,Oakland,CA,
INTERNATIONAL BLVD & MITCHELL ST,Oakland,CA,
300 30TH ST,Oakland,CA,
100 12TH ST,Oakland,CA,
37TH ST & MARKET ST,Oakland,CA,
2500 62ND AV,Oakland,CA,
1400 MITCHELL ST,Oakland,CA,
40TH ST & OPAL ST,Oakland,CA,
1200 85TH AV,Oakland,CA,
9500 B ST,Oakland,CA,
1400 65TH AV,Oakland,CA,
5500 TAFT AV,Oakland,CA,
100 MYRTLE ST,Oakland,CA,
8200 SAN LEANDRO ST,Oakland,CA,
2600 WAKEFIELD AV,Oakland,CA,
94TH AV & MACARTHUR BLVD,Oakland,CA,
900 42ND ST,Oakland,CA,
2800 LINDEN ST,Oakland,CA,
1800 13TH AV,Oakland,CA,
1900 103RD AV,Oakland,CA,
7600 EARHART RD,Oakland,CA,
1200 95TH AV,Oakland,CA,
600 42ND ST,Oakland,CA,
1200 21ST ST,Oakland,CA,
95TH AV & INTERNATIONAL BLVD,Oakland,CA,
31ST ST & TELEGRAPH AV,Oakland,CA,
3100 PLEITNER AV,Oakland,CA,
9600 ARMSTRONG DR,Oakland,CA,
1500 CLAY ST,Oakland,CA,
BROADWAY & W GRAND AV,Oakland,CA,
3800 MACARTHUR BLVD,Oakland,CA,
18TH ST & FILBERT ST,Oakland,CA,
1900 MIDDLE HARBOR RD,Oakland,CA,
5300 MARTIN LUTHER KING JR WY,Oakland,CA,
98TH AV & AIRPORT ACCESS RD,Oakland,CA,
3000 WEST ST,Oakland,CA,
8000 HILLSIDE ST,Oakland,CA,
4100 BAYO ST,Oakland,CA,
1600 71ST AV,Oakland,CA,
4100 MERA ST,Oakland,CA,
9400 SAN LEANDRO ST,Oakland,CA,
2600 PLEASANT ST,Oakland,CA,
5300 BROADWAY,Oakland,CA,
2200 57TH AV,Oakland,CA,
21ST ST & WEBSTER ST,Oakland,CA,
900 106TH AV,Oakland,CA,
5500 COLLEGE AV,Oakland,CA,
2000 SAN PABLO AV,Oakland,CA,
3200 SUTER ST,Oakland,CA,
12TH ST & CASTRO ST,Oakland,CA,
600 22ND ST,Oakland,CA,
3700 BROWN AV,Oakland,CA,
300 FILBERT ST,Oakland,CA,
38TH AV & BROOKDALE AV,Oakland,CA,
5200 COLLEGE AV,Oakland,CA,
35TH ST & WEST ST,Oakland,CA,
300 62ND ST,Oakland,CA,
3400 BIRDSALL AV,Oakland,CA,
2400 KINGSLAND AV,Oakland,CA,
4500 FAIRFAX AV,Oakland,CA,
1300 MANDELA PKWY,Oakland,CA,
75TH AV & INTERNATIONAL BLVD,Oakland,CA,
5800 SAN PABLO AV,Oakland,CA,
7400 ARTHUR ST,Oakland,CA,
4500 BOND ST,Oakland,CA,
300 38TH ST,Oakland,CA,
88TH AV & MACARTHUR BLVD,Oakland,CA,
BROMLEY AV & SEMINARY AV,Oakland,CA,
CONGRESS AV & HIGH ST,Oakland,CA,
800 PERALTA ST,Oakland,CA,
1900 9TH AV,Oakland,CA,
36TH ST & SAN PABLO AV,Oakland,CA,
900 92ND AV,Oakland,CA,
1800 FRANKLIN ST,Oakland,CA,
9100 D ST,Oakland,CA,
100 INTERNATIONAL BLVD,Oakland,CA,
2500 79TH AV,Oakland,CA,
9800 HOLLY ST,Oakland,CA,
3700 BUELL ST,Oakland,CA,
0 ELDRIDGE AV,Oakland,CA,
7600 OUTLOOK AV,Oakland,CA,
500 48TH ST,Oakland,CA,
1000 22ND AV,Oakland,CA,
7TH ST & HENRY ST,Oakland,CA,
19TH ST & WEBSTER ST,Oakland,CA,
4700 YGNACIO AV,Oakland,CA,
74TH AV & INTERNATIONAL BLVD,Oakland,CA,
1000 24TH ST,Oakland,CA,
2500 WALLACE ST,Oakland,CA,
2400 DAMUTH ST,Oakland,CA,
2800 ADELINE ST,Oakland,CA,
1200 52ND AV,Oakland,CA,
100 10TH ST,Oakland,CA,
35TH AV & EB I580,Oakland,CA,
1100 7TH ST,Oakland,CA,
400 ALCATRAZ AV,Oakland,CA,
8TH ST & FILBERT ST,Oakland,CA,
1400 57TH AV,Oakland,CA,
4300 VIRGINIA AV,Oakland,CA,
5100 MANILA AV,Oakland,CA,
600 29TH ST,Oakland,CA,
13TH ST & HARRISON ST,Oakland,CA,
1700 SAN PABLO AV,Oakland,CA,
8100 NEY AV,Oakland,CA,
98TH AV & NB I880,Oakland,CA,
2200 38TH AV,Oakland,CA,
4800 E 12TH ST,Oakland,CA,
2300 EMBARCADERO,Oakland,CA,
1900 25TH AV,Oakland,CA,
7400 INTERNATIONAL BLVD,Oakland,CA,
1400 94TH AV,Oakland,CA,
77TH AV & MACARTHUR BLVD,Oakland,CA,
300 24TH ST,Oakland,CA,
0 8TH ST,Oakland,CA,
500 THOMAS L. BERKLEY WY,Oakland,CA,
1800 PERALTA ST,Oakland,CA,
4200 GILBERT ST,Oakland,CA,
200 JAYNE AV,Oakland,CA,
64TH AV & FOOTHILL BLVD,Oakland,CA,
300 51ST ST,Oakland,CA,
E 16TH ST & 29TH AV,Oakland,CA,
400 RICH ST,Oakland,CA,
7100 LOCKWOOD ST,Oakland,CA,
8400 AMELIA ST,Oakland,CA,
900 CAMPBELL ST,Oakland,CA,
1400 40TH AV,Oakland,CA,
1200 E 12TH ST,Oakland,CA,
1300 JEFFERSON ST,Oakland,CA,
1100 21ST ST,Oakland,CA,
200 11TH ST,Oakland,CA,
66TH ST & TELEGRAPH AV,Oakland,CA,
1500 92ND AV,Oakland,CA,
BEAUMONT AV & MACARTHUR BLVD,Oakland,CA,
6200 AVENAL AV,Oakland,CA,
3500 DAVIS ST,Oakland,CA,
2200 CHURCH ST,Oakland,CA,
4100 ALLENDALE AV,Oakland,CA,
COURTLAND AV & HIGH ST,Oakland,CA,
2700 67TH AV,Oakland,CA,
E 18TH ST & 6TH AV,Oakland,CA,
2400 E 21ST ST,Oakland,CA,
7900 SUNKIST DR,Oakland,CA,
800 100TH AV,Oakland,CA,
4100 FOOTHILL BLVD,Oakland,CA,
9100 CREST AV,Oakland,CA,
6300 SUNNYMERE AV,Oakland,CA,
3800 RANDOLPH AV,Oakland,CA,
6900 INTERNATIONAL BLVD,Oakland,CA,
3400 LAUREL AV,Oakland,CA,
93RD AV & INTERNATIONAL BLVD,Oakland,CA,
MOUNTAIN BLVD & THORNHILL DR,Oakland,CA,
E 16TH ST & 27TH AV,Oakland,CA,
HIGH ST & OAKPORT ST,Oakland,CA,
10900 ACALANES DR,Oakland,CA,
1900 5TH AV,Oakland,CA,
1700 E 20TH ST,Oakland,CA,
1700 10TH AV,Oakland,CA,
9TH ST & HARRISON ST,Oakland,CA,
3300 64TH AV,Oakland,CA,
3200 62ND AV,Oakland,CA,
700 FRANKLIN ST,Oakland,CA,
2000 FOOTHILL BLVD,Oakland,CA,
2900 FILBERT ST,Oakland,CA,
28TH ST & SAN PABLO AV,Oakland,CA,
500 2ND ST,Oakland,CA,
400 59TH ST,Oakland,CA,
17TH ST & MARTIN LUTHER KING JR WY,Oakland,CA,
3800 PATTERSON AV,Oakland,CA,
600 28TH ST,Oakland,CA,
INTL CORRIDOR,Oakland,CA,
12TH ST & WOOD ST,Oakland,CA,
700 36TH AV,Oakland,CA,
1800 66TH AV,Oakland,CA,
9TH ST & CLAY ST,Oakland,CA,
2400 MYRTLE ST,Oakland,CA,
6100 COLISEUM WY,Oakland,CA,
45TH AV & BOND ST,Oakland,CA,
85TH AV & HOLLY ST,Oakland,CA,
900 FOOTHILL BLVD,Oakland,CA,
3000 SEMINARY AV,Oakland,CA,
AVENAL AV & BANCROFT AV,Oakland,CA,
1400 25TH AV,Oakland,CA,
5200 E 12TH ST,Oakland,CA,
1800 14TH AV,Oakland,CA,
800 6TH AV,Oakland,CA,
3900 LYON AV,Oakland,CA,
9800 PLYMOUTH ST,Oakland,CA,
200 TUNIS RD,Oakland,CA,
85TH AV & A ST,Oakland,CA,
700 OAKLAND AV,Oakland,CA,
63RD ST & SAN PABLO AV,Oakland,CA,
35TH AV & SCHOOL ST,Oakland,CA,
200 FALLON ST,Oakland,CA,
17TH ST & JEFFERSON ST,Oakland,CA,
8TH ST & MADISON ST,Oakland,CA,
1400 100TH AV,Oakland,CA,
200 HARRISON ST,Oakland,CA,
800 36TH ST,Oakland,CA,
1800 E 15TH ST,Oakland,CA,
700 37TH ST,Oakland,CA,
1000 BAYVIEW AV,Oakland,CA,
3RD ST & CLAY ST,Oakland,CA,
1500 37TH AV,Oakland,CA,
0 FRANKLIN ST,Oakland,CA,
47TH AV & FOOTHILL BLVD,Oakland,CA,
700 HIGH ST,Oakland,CA,
1500 MYRTLE ST,Oakland,CA,
53RD AV & SAN LEANDRO ST,Oakland,CA,
4800 FOOTHILL BLVD,Oakland,CA,
300 PARK VIEW TER,Oakland,CA,
1600 88TH AV,Oakland,CA,
1600 25TH AV,Oakland,CA,
3100 UNION ST,Oakland,CA,
1800 SAN PABLO AV,Oakland,CA,
9700 D ST,Oakland,CA,
0 WASHINGTON ST,Oakland,CA,
8TH ST & UNION ST,Oakland,CA,
2500 67TH AV,Oakland,CA,
3800 SHAFTER AV,Oakland,CA,
1900 3RD AV,Oakland,CA,
6700 BROADWAY TER,Oakland,CA,
1200 30TH AV,Oakland,CA,
3200 LORENZO AV,Oakland,CA,
BANCROFT AV & FAIRFAX AV,Oakland,CA,
3100 SCHOOL ST,Oakland,CA,
700 CLARA ST,Oakland,CA,
1700 100TH AV,Oakland,CA,
E 12TH ST & 7TH AV,Oakland,CA,
35TH AV & SAN LEANDRO ST,Oakland,CA,
3700 ANGELO AV,Oakland,CA,
2700 E 21ST ST,Oakland,CA,
87TH AV & BANCROFT AV,Oakland,CA,
900 FRUITVALE AV,Oakland,CA,
17TH ST & HARRISON ST,Oakland,CA,
18TH ST & CASTRO ST,Oakland,CA,
300 WEBSTER ST,Oakland,CA,
1000 ELMHURST AV,Oakland,CA,
300 BELLEVUE AV,Oakland,CA,
6TH ST & WASHINGTON ST,Oakland,CA,
3700 HARRISON ST,Oakland,CA,
7800 HILLMONT DR,Oakland,CA,
3100 MONTICELLO AV,Oakland,CA,
4000 SAN LEANDRO ST,Oakland,CA,
1600 67TH AV,Oakland,CA,
53RD AV & INTERNATIONAL BLVD,Oakland,CA,
58TH ST & TELEGRAPH AV,Oakland,CA,
16TH ST & ADELINE ST,Oakland,CA,
5500 SCOVILLE ST,Oakland,CA,
2000 E 30TH ST,Oakland,CA,
2000 14TH AV,Oakland,CA,
2700 CHESTNUT ST,Oakland,CA,
1100 5TH AV,Oakland,CA,
2600 MARKET ST,Oakland,CA,
1400 10TH ST,Oakland,CA,
19TH ST & FRANKLIN ST,Oakland,CA,
8900 THERMAL ST,Oakland,CA,
1700 8TH AV,Oakland,CA,
94TH AV & HOLLY ST,Oakland,CA,
1000 E 23RD ST,Oakland,CA,
60TH ST & DOVER ST,Oakland,CA,
1100 61ST AV,Oakland,CA,
10700 APRICOT ST,Oakland,CA,
1200 ADELINE ST,Oakland,CA,
10900 EDES AV,Oakland,CA,
700 13TH ST,Oakland,CA,
1900 22ND AV,Oakland,CA,
1000 BELLA VISTA AV,Oakland,CA,
300 VAN BUREN AV,Oakland,CA,
10400 EDES AV,Oakland,CA,
23RD AV & E 7TH ST,Oakland,CA,
11000 ROBLEDO DR,Oakland,CA,
1300 HOLMAN RD,Oakland,CA,
3000 23RD AV,Oakland,CA,
500 43RD ST,Oakland,CA,
1400 MIDDLE HARBOR RD,Oakland,CA,
2800 CARMEL ST,Oakland,CA,
COOLIDGE AV & NICOL AV,Oakland,CA,
900 AILEEN ST,Oakland,CA,
4800 LAWTON AV,Oakland,CA,
1300 E 33RD ST,Oakland,CA,
78TH AV & ARTHUR ST,Oakland,CA,
900 39TH ST,Oakland,CA,
7200 EDGEWATER DR,Oakland,CA,
DIST 3,Oakland,CA,
1100 72ND AV,Oakland,CA,
600 FAIRMOUNT AV,Oakland,CA,
4000 LINCOLN AV,Oakland,CA,
600 25TH ST,Oakland,CA,
2700 HAVENSCOURT BLVD,Oakland,CA,
3200 LOUISE ST,Oakland,CA,
35TH AV & PENNIMAN AV,Oakland,CA,
1000 TRESTLE GLEN RD,Oakland,CA,
2300 65TH AV,Oakland,CA,
1700 BRIDGE AV,Oakland,CA,
1500 4TH AV,Oakland,CA,
7TH ST & BRUSH ST,Oakland,CA,
1900 55TH AV,Oakland,CA,
32ND ST & MARTIN LUTHER KING JR WY,Oakland,CA,
400 51ST ST,Oakland,CA,
3300 COOLIDGE AV,Oakland,CA,
1400 7TH AV,Oakland,CA,
1100 88TH AV,Oakland,CA,
5500 TELEGRAPH AV,Oakland,CA,
3300 CHESTNUT ST,Oakland,CA,
1000 OAK ST,Oakland,CA,
500 CHETWOOD ST,Oakland,CA,
EMBARCADERO WEST & MARTIN LUTHER KING JR WY,Oakland,CA,
2500 7TH AV,Oakland,CA,
4400 PIEDMONT AV,Oakland,CA,
75TH AV & SAN LEANDRO ST,Oakland,CA,
57TH AV & FOOTHILL BLVD,Oakland,CA,
1900 14TH AV,Oakland,CA,
9300 OLIVE ST,Oakland,CA,
5100 SHATTUCK AV,Oakland,CA,
1400 MILLER AV,Oakland,CA,
MASTERSON ST & MAYBELLE AV,Oakland,CA,
2700 106TH AV,Oakland,CA,
7400 SAN LEANDRO ST,Oakland,CA,
68TH AV & FOOTHILL BLVD,Oakland,CA,
900 39TH AV,Oakland,CA,
11TH ST & BRUSH ST,Oakland,CA,
10200 INTERNATIONAL BLVD,Oakland,CA,
61ST ST & SAN PABLO AV,Oakland,CA,
700 RAND AV,Oakland,CA,
2900 60TH AV,Oakland,CA,
30TH ST & WEST ST,Oakland,CA,
900 18TH ST,Oakland,CA,
3000 55TH AV,Oakland,CA,
2200 E 12TH ST,Oakland,CA,
1700 MARTIN LUTHER KING JR WY,Oakland,CA,
56TH AV & INTERNATIONAL BLVD,Oakland,CA,
2800 FOOTHILL BLVD,Oakland,CA,
90TH AV & HOLLY ST,Oakland,CA,
7400 HOLLY ST,Oakland,CA,
1100 64TH AV,Oakland,CA,
900 76TH AV,Oakland,CA,
FOOTHILL BLVD & HARRINGTON AV,Oakland,CA,
50TH AV & FOOTHILL BLVD,Oakland,CA,
1600 6TH AV,Oakland,CA,
8500 A ST,Oakland,CA,
300 LENOX AV,Oakland,CA,
73RD AV & FRESNO ST,Oakland,CA,
500 23RD AV,Oakland,CA,
8000 HANSOM DR,Oakland,CA,
2700 COOLIDGE AV,Oakland,CA,
3200 KEMPTON AV,Oakland,CA,
7100 SPENCER ST,Oakland,CA,
20TH AV & FOOTHILL BLVD,Oakland,CA,
1400 52ND AV,Oakland,CA,
1800 40TH AV,Oakland,CA,
3600 HAGEMAN AV,Oakland,CA,
1100 BELLA VISTA AV,Oakland,CA,
9000 A ST,Oakland,CA,
1800 E 21ST ST,Oakland,CA,
2200 42ND AV,Oakland,CA,
3000 MAPLE AV,Oakland,CA,
6100 HAYES ST,Oakland,CA,
48TH ST & SHATTUCK AV,Oakland,CA,
1800 78TH AV,Oakland,CA,
5300 BELVEDERE ST,Oakland,CA,
62ND AV & HAYES ST,Oakland,CA,
3200 CURRAN AV,Oakland,CA,
2500 66TH AV,Oakland,CA,
CLAREMONT AV & TELEGRAPH AV,Oakland,CA,
96TH AV & OLIVE ST,Oakland,CA,
7800 OUTLOOK AV,Oakland,CA,
KELLER AV & MOUNTAIN BLVD,Oakland,CA,
8TH ST & HENRY ST,Oakland,CA,
8900 MACARTHUR BLVD,Oakland,CA,
1200 FRANKLIN ST,Oakland,CA,
GRAND AV & LEE ST,Oakland,CA,
5500 SHATTUCK AV,Oakland,CA,
100 13TH ST,Oakland,CA,
500 MONTCLAIR AV,Oakland,CA,
MORAGA AV & THORNHILL DR,Oakland,CA,
1900 E 25TH ST,Oakland,CA,
1300 76TH AV,Oakland,CA,
72ND AV & INTERNATIONAL BLVD,Oakland,CA,
7600 BANCROFT AV,Oakland,CA,
96TH AV & BIRCH ST,Oakland,CA,
4100 HOWE ST,Oakland,CA,
1700 19TH AV,Oakland,CA,
15TH AV & INTERNATIONAL BLVD,Oakland,CA,
3900 COLUMBIAN DR,Oakland,CA,
1000 44TH AV,Oakland,CA,
51ST ST & MARTIN LUTHER KING JR WY,Oakland,CA,
1600 E 32ND ST,Oakland,CA,
2400 E 24TH ST,Oakland,CA,
2000 45TH AV,Oakland,CA,
600 55TH ST,Oakland,CA,
1100 78TH AV,Oakland,CA,
700 15TH ST,Oakland,CA,
300 ORANGE ST,Oakland,CA,
9900 HOLLY ST,Oakland,CA,
E 16TH ST & SEMINARY AV,Oakland,CA,
98TH AV & WALNUT ST,Oakland,CA,
7600 NEY AV,Oakland,CA,
7200 HAMILTON ST,Oakland,CA,
20TH ST & FRANKLIN ST,Oakland,CA,
CLAY ST & EMBARCADERO WEST,Oakland,CA,
2500 24TH AV,Oakland,CA,
3900 RUBY ST,Oakland,CA,
2500 IVY DR,Oakland,CA,
7200 HALLIDAY AV,Oakland,CA,
45TH ST & WEST ST,Oakland,CA,
2500 KINGSLAND AV,Oakland,CA,
7TH ST & FRANKLIN ST,Oakland,CA,
5600 HARMON AV,Oakland,CA,
2300 E 23RD ST,Oakland,CA,
2000 86TH AV,Oakland,CA,
2800 OCTAVIA ST,Oakland,CA,
3700 PARK BOULEVARD WY,Oakland,CA,
7900 HILLMONT DR,Oakland,CA,
4000 EDWARDS AV,Oakland,CA,
3900 SAN JUAN ST,Oakland,CA,
3500 RICHMOND BLVD,Oakland,CA,
0 LAKESIDE DR,Oakland,CA,
1400 14TH ST,Oakland,CA,
600 APGAR ST,Oakland,CA,
700 CALMAR AV,Oakland,CA,
6300 SAN PABLO AV,Oakland,CA,
SEMINARY AV & SUNNYMERE AV,Oakland,CA,
6200 CLAREMONT AV,Oakland,CA,
19TH ST & HARRISON ST,Oakland,CA,
4100 SHAFTER AV,Oakland,CA,
66TH AV & BANCROFT AV,Oakland,CA,
2500 61ST AV,Oakland,CA,
1900 87TH AV,Oakland,CA,
9900 E ST,Oakland,CA,
E 16TH ST & 62ND AV,Oakland,CA,
2500 68TH AV,Oakland,CA,
4500 SAN CARLOS AV,Oakland,CA,
BODEN WY & LAKESHORE AV,Oakland,CA,
0 7TH ST,Oakland,CA,
9500 HOLLY ST,Oakland,CA,
2900 NICOL AV,Oakland,CA,
12TH ST & MANDELA PKWY,Oakland,CA,
1600 7TH AV,Oakland,CA,
1400 71ST AV,Oakland,CA,
100 MONTE CRESTA AV,Oakland,CA,
400 ATHOL AV,Oakland,CA,
10TH ST & CLAY ST,Oakland,CA,
2000 AUSEON AV,Oakland,CA,
5500 HARBORD DR,Oakland,CA,
E 19TH ST & 8TH AV,Oakland,CA,
2600 MARTIN LUTHER KING JR WY,Oakland,CA,
1000 39TH ST,Oakland,CA,
2400 LINDEN ST,Oakland,CA,
7300 LOCKWOOD ST,Oakland,CA,
2000 FRUITVALE AV,Oakland,CA,
4600 INTERNATIONAL BLVD,Oakland,CA,
1400 98TH AV,Oakland,CA,
2900 MCKILLOP RD,Oakland,CA,
3200 HANNAH ST,Oakland,CA,
700 SANTA RAY AV,Oakland,CA,
54TH ST & MARTIN LUTHER KING JR WY,Oakland,CA,
E 12TH ST & 51ST AV,Oakland,CA,
900 36TH ST,Oakland,CA,
E 12TH ST & HIGH ST,Oakland,CA,
2900 PERALTA OAKS CT,Oakland,CA,
LA SALLE AV & MOUNTAIN BLVD,Oakland,CA,
5300 PRINCETON ST,Oakland,CA,
5700 FLEMING AV,Oakland,CA,
5800 E 17TH ST,Oakland,CA,
2800 LAKESHORE AV,Oakland,CA,
1300 TRESTLE GLEN RD,Oakland,CA,
1600 FILBERT ST,Oakland,CA,
6000 CAMDEN ST,Oakland,CA,
2900 ADELINE ST,Oakland,CA,
3RD ST & WASHINGTON ST,Oakland,CA,
5TH ST & MANDELA PKWY,Oakland,CA,
600 35TH ST,Oakland,CA,
18TH ST & BRUSH ST,Oakland,CA,
41ST ST & SHAFTER AV,Oakland,CA,
3200 E 27TH ST,Oakland,CA,
1900 MYRTLE ST,Oakland,CA,
9700 BANCROFT AV,Oakland,CA,
800 92ND AV,Oakland,CA,
2000 96TH AV,Oakland,CA,
600 WESLEY AV,Oakland,CA,
3000 FLORIDA ST,Oakland,CA,
2300 E 16TH ST,Oakland,CA,
2000 24TH AV,Oakland,CA,
2200 88TH AV,Oakland,CA,
16TH ST & MARKET ST,Oakland,CA,
1200 61ST AV,Oakland,CA,
46TH AV & BANCROFT AV,Oakland,CA,
62ND AV & HILTON ST,Oakland,CA,
4100 CULVER ST,Oakland,CA,
800 75TH AV,Oakland,CA,
10000 EMPIRE RD,Oakland,CA,
800 105TH AV,Oakland,CA,
21ST ST & FRANKLIN ST,Oakland,CA,
2200 7TH AV,Oakland,CA,
1600 98TH AV,Oakland,CA,
20TH ST & HARRISON ST,Oakland,CA,
1400 12TH AV,Oakland,CA,
1000 87TH AV,Oakland,CA,
3000 E 17TH ST,Oakland,CA,
90TH AV & HILLSIDE ST,Oakland,CA,
1200 34TH ST,Oakland,CA,
1700 ADELINE ST,Oakland,CA,
1700 FRUITVALE AV,Oakland,CA,
1500 96TH AV,Oakland,CA,
200 LENOX AV,Oakland,CA,
1000 104TH AV,Oakland,CA,
700 54TH ST,Oakland,CA,
8800 D ST,Oakland,CA,
2500 55TH AV,Oakland,CA,
W GRAND AV & ISABELLA ST,Oakland,CA,
2100 45TH AV,Oakland,CA,
7400 HALLIDAY AV,Oakland,CA,
5400 TRASK ST,Oakland,CA,
MONTE VISTA AV & PIEDMONT AV,Oakland,CA,
98TH AV & A ST,Oakland,CA,
2500 CASTELLO ST,Oakland,CA,
5400 COLE ST,Oakland,CA,
2100 8TH AV,Oakland,CA,
24TH ST & MARTIN LUTHER KING JR WY,Oakland,CA,
400 STOW AV,Oakland,CA,
1700 14TH ST,Oakland,CA,
2200 E 21ST ST,Oakland,CA,
5TH ST & MARKET ST,Oakland,CA,
400 62ND ST,Oakland,CA,
5400 YGNACIO AV,Oakland,CA,
10TH ST & ADELINE ST,Oakland,CA,
900 GROSVENOR PL,Oakland,CA,
25TH ST & BROADWAY,Oakland,CA,
500 KENMORE AV,Oakland,CA,
1900 MARTIN LUTHER KING JR WY,Oakland,CA,
32ND ST & MAGNOLIA ST,Oakland,CA,
2600 25TH AV,Oakland,CA,
2800 82ND AV,Oakland,CA,
1000 E 28TH ST,Oakland,CA,
1100 E 15TH ST,Oakland,CA,
7000 FRESNO ST,Oakland,CA,
28TH ST & BROADWAY,Oakland,CA,
2600 73RD AVE,Oakland,CA,
1200 91ST AV,Oakland,CA,
300 4TH ST,Oakland,CA,
7900 HOLLY ST,Oakland,CA,
800 33RD ST,Oakland,CA,
1900 LAKESHORE AV,Oakland,CA,
4400 MARKET ST,Oakland,CA,
300 41ST ST,Oakland,CA,
2700 E 17TH ST,Oakland,CA,
1600 29TH AV,Oakland,CA,
500 30TH ST,Oakland,CA,
2500 109TH AV,Oakland,CA,
37TH AV & SAN LEANDRO ST,Oakland,CA,
1200 CLAY ST,Oakland,CA,
4000 E 18TH ST,Oakland,CA,
800 54TH ST,Oakland,CA,
500 AILEEN ST,Oakland,CA,
2900 RAWSON ST,Oakland,CA,
800 13TH ST,Oakland,CA,
2300 14TH AV,Oakland,CA,
8700 A ST,Oakland,CA,
1800 9TH AV,Oakland,CA,
E 20TH ST & 26TH AV,Oakland,CA,
1200 EMBARCADERO,Oakland,CA,
57TH ST & TELEGRAPH AV,Oakland,CA,
2100 106TH AV,Oakland,CA,
1000 92ND AV,Oakland,CA,
87TH AV & HOLLY ST,Oakland,CA,
2700 SHORT ST,Oakland,CA,
2800 BIRDSALL AV,Oakland,CA,
1100 87TH AV,Oakland,CA,
HIGH ST & VIRGINIA AV,Oakland,CA,
2100 94TH AV,Oakland,CA,
7600 HANSOM DR,Oakland,CA,
3100 DAVIS ST,Oakland,CA,
400 23RD ST,Oakland,CA,
13TH ST & MADISON ST,Oakland,CA,
2200 ROSEDALE AV,Oakland,CA,
3400 ANDOVER ST,Oakland,CA,
2000 102ND AV,Oakland,CA,
2800 VALLECITO PL,Oakland,CA,
11TH ST & CENTER ST,Oakland,CA,
6500 OUTLOOK AV,Oakland,CA,
600 60TH ST,Oakland,CA,
4700 FLEMING AV,Oakland,CA,
5100 CONGRESS AV,Oakland,CA,
72ND AV & SPENCER ST,Oakland,CA,
800 CAMPBELL ST,Oakland,CA,
1300 E 15TH ST,Oakland,CA,
38TH AV & LYON AV,Oakland,CA,
10TH ST & HARRISON ST,Oakland,CA,
CENTENNIAL DR & GRIZZLY PEAK BLVD,Oakland,CA,
88TH AV & BANCROFT AV,Oakland,CA,
5000 MELROSE AV,Oakland,CA,
7200 OAKPORT ST,Oakland,CA,
1300 E 25TH ST,Oakland,CA,
12TH ST & MARTIN LUTHER KING JR WY,Oakland,CA,
600 LONGRIDGE RD,Oakland,CA,
1600 FOOTHILL BLVD,Oakland,CA,
ISABELLA ST & WEST ST,Oakland,CA,
51ST AV & BANCROFT AV,Oakland,CA,
12TH ST & LINDEN ST,Oakland,CA,
600 8TH ST,Oakland,CA,
5300 NORMANDIE AV,Oakland,CA,
600 MANDANA BLVD,Oakland,CA,
300 7TH ST,Oakland,CA,
4700 MELROSE AV,Oakland,CA,
4100 LUSK ST,Oakland,CA,
MACARTHUR BLVD & MAPLE AV,Oakland,CA,
2700 E 16TH ST,Oakland,CA,
88TH AV & PLYMOUTH ST,Oakland,CA,
1100 76TH AV,Oakland,CA,
800 HARRISON ST,Oakland,CA,
9800 TOLER AV,Oakland,CA,
3900 FOOTHILL BLVD,Oakland,CA,
2100 25TH AV,Oakland,CA,
E 19TH ST & PARK BLVD,Oakland,CA,
900 10TH ST,Oakland,CA,
1100 WILLOW ST,Oakland,CA,
1800 101ST AV,Oakland,CA,
4400 SAN LEANDRO ST,Oakland,CA,
1900 104TH AV,Oakland,CA,
3300 COURTLAND AV,Oakland,CA,
CHURCH ST & FOOTHILL BLVD,Oakland,CA,
9500 STEARNS AV,Oakland,CA,
6400 MORAGA AV,Oakland,CA,
600 59TH ST,Oakland,CA,
ALCATRAZ AV & SAN PABLO AV,Oakland,CA,
7TH ST & ALICE ST,Oakland,CA,
3800 MIDVALE AV,Oakland,CA,
100 ALPINE TER,Oakland,CA,
9600 PLYMOUTH ST,Oakland,CA,
8400 NEY AV,Oakland,CA,
700 105TH AV,Oakland,CA,
5500 INTERNATIONAL BLVD,Oakland,CA,
9300 PEACH ST,Oakland,CA,
85TH AV & EDES AV,Oakland,CA,
5900 HILTON ST,Oakland,CA,
1400 29TH AV,Oakland,CA,
1000 67TH ST,Oakland,CA,
600 E 15TH ST,Oakland,CA,
400 CASWELL AV,Oakland,CA,
26TH ST & WEST ST,Oakland,CA,
2300 SEMINARY AV,Oakland,CA,
200 FOOTHILL BLVD,Oakland,CA,
FRUITVALE AV & HAROLD ST,Oakland,CA,
800 59TH ST,Oakland,CA,
8000 BIRCH ST,Oakland,CA,
1600 39TH AV,Oakland,CA,
3200 CHESTNUT ST,Oakland,CA,
300 63RD ST,Oakland,CA,
1600 65TH AV,Oakland,CA,
600 AILEEN ST,Oakland,CA,
78TH AV & RUDSDALE ST,Oakland,CA,
56TH ST & DOVER ST,Oakland,CA,
3100 SHEFFIELD AV,Oakland,CA,
1900 E 27TH ST,Oakland,CA,
9600 CHERRY ST,Oakland,CA,
19TH AV & E 21ST ST,Oakland,CA,
1100 62ND AV,Oakland,CA,
1400 CLAY ST,Oakland,CA,
4500 STEELE ST,Oakland,CA,
7300 MACARTHUR BLVD,Oakland,CA,
2600 COOLIDGE AV,Oakland,CA,
6600 OUTLOOK AV,Oakland,CA,
1700 70TH AV,Oakland,CA,
2900 35TH AV,Oakland,CA,
24TH ST & ADELINE ST,Oakland,CA,
500 HADDON RD,Oakland,CA,
9600 MADDUX DR,Oakland,CA,
66TH ST & SAN PABLO AV,Oakland,CA,
62ND ST & SAN PABLO AV,Oakland,CA,
1200 101ST AV,Oakland,CA,
10300 E ST,Oakland,CA,
2300 85TH AV,Oakland,CA,
1700 73RD AV,Oakland,CA,
106TH AV & BANCROFT AV,Oakland,CA,
9400 OLIVE ST,Oakland,CA,
2500 PARKER AV,Oakland,CA,
3000 SUTER ST,Oakland,CA,
300 WARWICK AV,Oakland,CA,
9000 MACARTHUR BLVD,Oakland,CA,
3200 LINDEN ST,Oakland,CA,
8500 G ST,Oakland,CA,
2900 SEMINARY AV,Oakland,CA,
500 WESLEY AV,Oakland,CA,
HIGH ST & SANTA RITA ST,Oakland,CA,
3800 HIGH ST,Oakland,CA,
2400 82ND AV,Oakland,CA,
2900 CARMEL ST,Oakland,CA,
2300 73RD AV,Oakland,CA,
0 HUNTER CT,Oakland,CA,
1900 36TH AV,Oakland,CA,
91ST AV & INTERNATIONAL BLVD,Oakland,CA,
2400 23RD AV,Oakland,CA,
700 ALCATRAZ AV,Oakland,CA,
7700 INTERNATIONAL BLVD,Oakland,CA,
1700 88TH AV,Oakland,CA,
1500 5TH ST,Oakland,CA,
6300 SHATTUCK AV,Oakland,CA,
1600 MARTIN LUTHER KING JR WY,Oakland,CA,
3900 COOLIDGE AV,Oakland,CA,
4300 WHITTLE AV,Oakland,CA,
1600 SEMINARY AV,Oakland,CA,
DURANT AV & INTERNATIONAL BLVD,Oakland,CA,
400 10TH ST,Oakland,CA,
8300 CAPWELL DR,Oakland,CA,
PIEDMONT AV & YOSEMITE AV,Oakland,CA,
400 CLIFTON ST,Oakland,CA,
NB HEGENBERGER OFFRP AV & NB I880,Oakland,CA,
9500 OLIVE ST,Oakland,CA,
62ND AV & BANCROFT AV,Oakland,CA,
3400 SAN LEANDRO ST,Oakland,CA,
1400 34TH ST,Oakland,CA,
5800 SHATTUCK AV,Oakland,CA,
800 KIRKHAM WY,Oakland,CA,
4300 MARKET ST,Oakland,CA,
2100 FOOTHILL BLVD,Oakland,CA,
2500 SEMINARY AV,Oakland,CA,
3000 HOLYROOD DR,Oakland,CA,
2000 MITCHELL ST,Oakland,CA,
9200 EDES AV,Oakland,CA,
10TH ST & MARKET ST,Oakland,CA,
700 ALVARADO RD,Oakland,CA,
2700 KINGSLAND AV,Oakland,CA,
6600 TELEGRAPH AV,Oakland,CA,
3700 MCCLELLAND ST,Oakland,CA,
78TH AV & HILLSIDE ST,Oakland,CA,
1400 101ST AV,Oakland,CA,
1500 TUCKER ST,Oakland,CA,
6600 SHATTUCK AV,Oakland,CA,
5500 HARVEY AV,Oakland,CA,
26TH ST & TELEGRAPH AV,Oakland,CA,
700 17TH ST,Oakland,CA,
5800 TELEGRAPH AV,Oakland,CA,
600 12TH ST,Oakland,CA,
4100 PORTER ST,Oakland,CA,
3600 LYON AV,Oakland,CA,
1200 FOOTHILL BLVD,Oakland,CA,
9900 ST ELMO DR,Oakland,CA,
4100 MARTIN LUTHER KING JR WY,Oakland,CA,
2200 23RD AV,Oakland,CA,
42ND ST & MARTIN LUTHER KING JR WY,Oakland,CA,
2200 24TH AV,Oakland,CA,
8100 EDGEWATER DR,Oakland,CA,
900 CENTER ST,Oakland,CA,
800 MACARTHUR BLVD,Oakland,CA,
800 MCELROY ST,Oakland,CA,
24TH ST & VALDEZ ST,Oakland,CA,
200 E 15TH ST,Oakland,CA,
1000 CENTER ST,Oakland,CA,
6900 SIMSON ST,Oakland,CA,
88TH AV & HOLLY ST,Oakland,CA,
E 11TH ST & 23RD AV,Oakland,CA,
1800 CHURCH ST,Oakland,CA,
2200 65TH AV,Oakland,CA,
2300 GRANDE VISTA PL,Oakland,CA,
100 CALDECOTT LN,Oakland,CA,
20TH ST & MARKET ST,Oakland,CA,
2400 E 12TH ST,Oakland,CA,
3900 ANGELO AV,Oakland,CA,
400 48TH ST,Oakland,CA,
2600 39TH AV,Oakland,CA,
3300 MACARTHUR BLVD,Oakland,CA,
3200 BEAUMONT AV,Oakland,CA,
2800 76TH AV,Oakland,CA,
2100 65TH AV,Oakland,CA,
2000 47TH AV,Oakland,CA,
2700 PERALTA ST,Oakland,CA,
E 12TH ST & 52ND AV,Oakland,CA,
4500 FOOTHILL BLVD,Oakland,CA,
69TH AV & MACARTHUR BLVD,Oakland,CA,
7400 FRESNO ST,Oakland,CA,
3000 58TH AV,Oakland,CA,
5700 GENOA ST,Oakland,CA,
9500 BIRCH ST,Oakland,CA,
E 15TH ST & 8TH AV,Oakland,CA,
2500 65TH AV,Oakland,CA,
1500 E 15TH ST,Oakland,CA,
46TH ST & MARKET ST,Oakland,CA,
2000 LAKESHORE AV,Oakland,CA,
SB HEGENBERGER OFFRP AV & SB I880,Oakland,CA,
1600 15TH ST,Oakland,CA,
11000 APRICOT ST,Oakland,CA,
900 KIRKHAM WY,Oakland,CA,
5200 WENTWORTH AV,Oakland,CA,
400 HADDON RD,Oakland,CA,
200 BERGEDO DR,Oakland,CA,
8600 BANCROFT AV,Oakland,CA,
1600 E 21ST ST,Oakland,CA,
18TH ST & LINDEN ST,Oakland,CA,
3300 HARRISON ST,Oakland,CA,
6000 BRANN ST,Oakland,CA,
11100 ROBLEDO DR,Oakland,CA,
6500 SIMSON ST,Oakland,CA,
98TH AV & RAILROAD AV,Oakland,CA,
1000 WEBSTER ST,Oakland,CA,
2000 EMBARCADERO,Oakland,CA,
1100 WOOD ST,Oakland,CA,
5500 EDGERLY ST,Oakland,CA,
16TH ST & CLAY ST,Oakland,CA,
1700 103RD AV,Oakland,CA,
6TH AV & INTERNATIONAL BLVD,Oakland,CA,
47TH AV & SAN LEANDRO ST,Oakland,CA,
2200 11TH AV,Oakland,CA,
2300 21ST AV,Oakland,CA,
3200 COOLIDGE AV,Oakland,CA,
500 57TH ST,Oakland,CA,
3100 CHAMPION ST,Oakland,CA,
7800 HILLSIDE ST,Oakland,CA,
23RD AV & E 27TH ST,Oakland,CA,
KELLER AV & SKYLINE BLVD,Oakland,CA,
FOOTHILL BLVD & VICKSBURG AV,Oakland,CA,
5700 E 16TH ST,Oakland,CA,
HIGH ST & PENNIMAN AV,Oakland,CA,
16TH AV & EMBARCADERO,Oakland,CA,
9600 BIRCH ST,Oakland,CA,
E 22ND ST & FRUITVALE AV,Oakland,CA,
BANCROFT AV & RITCHIE ST,Oakland,CA,
100 3RD ST,Oakland,CA,
600 EL DORADO AV,Oakland,CA,
AILEEN ST & SHATTUCK AV,Oakland,CA,
13TH AV & FOOTHILL BLVD,Oakland,CA,
1000 107TH AV,Oakland,CA,
E 18TH ST & 2ND AV,Oakland,CA,
AVENAL AV & HAVENSCOURT BLVD,Oakland,CA,
1800 69TH AV,Oakland,CA,
3000 BONA ST,Oakland,CA,
5600 CARBERRY AV,Oakland,CA,
1800 104TH AV,Oakland,CA,
12TH ST & ADELINE ST,Oakland,CA,
1700 67TH AV,Oakland,CA,
54TH ST & SHATTUCK AV,Oakland,CA,
1900 PLEASANT VALLEY AV,Oakland,CA,
600 EL PASEO DR,Oakland,CA,
96TH AV & PLYMOUTH ST,Oakland,CA,
100 MARLOW DR,Oakland,CA,
3000 CHAMPION ST,Oakland,CA,
69TH AV & LOCKWOOD ST,Oakland,CA,
300 JACKSON ST,Oakland,CA,
60TH AV & MACARTHUR BLVD,Oakland,CA,
3700 SHAFTER AV,Oakland,CA,
6600 EASTLAWN ST,Oakland,CA,
5000 E 12TH ST,Oakland,CA,
23RD AV & SB I880,Oakland,CA,
MEAD AV & SAN PABLO AV,Oakland,CA,
3000 SAN PABLO AV,Oakland,CA,
59TH ST & SAN PABLO AV,Oakland,CA,
4800 SAN LEANDRO ST,Oakland,CA,
2900 LAKESHORE AV,Oakland,CA,
2500 FILBERT ST,Oakland,CA,
60TH ST & SAN PABLO AV,Oakland,CA,
2200 66TH AV,Oakland,CA,
1400 E 25TH STREET WY,Oakland,CA,
75TH AV & MACARTHUR BLVD,Oakland,CA,
11TH ST & MARTIN LUTHER KING JR WY,Oakland,CA,
0 AIRPORT ACCESS RD,Oakland,CA,
1000 ADELINE ST,Oakland,CA,
2900 75TH AV,Oakland,CA,
14TH AV & E 21ST ST,Oakland,CA,
6800 OUTLOOK AV,Oakland,CA,
1600 E 12TH ST,Oakland,CA,
1900 17TH AV,Oakland,CA,
2900 COOLIDGE AV,Oakland,CA,
3500 SAN LEANDRO ST,Oakland,CA,
1100 LINDEN ST,Oakland,CA,
500 44TH ST,Oakland,CA,
800 28TH ST,Oakland,CA,
5TH ST & BRUSH ST,Oakland,CA,
2300 E 12TH ST,Oakland,CA,
1200 WOOD ST,Oakland,CA,
7TH ST & MADISON ST,Oakland,CA,
1200 89TH AV,Oakland,CA,
1400 19TH AV,Oakland,CA,
11TH ST & JEFFERSON ST,Oakland,CA,
5500 HOLWAY ST,Oakland,CA,
5700 THORNHILL DR,Oakland,CA,
800 WOOD ST,Oakland,CA,
14TH ST & UNION ST,Oakland,CA,
14TH AV & FOOTHILL BLVD,Oakland,CA,
3700 SAN JUAN ST,Oakland,CA,
3100 WEST ST,Oakland,CA,
2300 23RD AV,Oakland,CA,
600 HIGH ST,Oakland,CA,
1300 CHATHAM RD,Oakland,CA,
3800 DALE PL,Oakland,CA,
700 JULIE ANN WY,Oakland,CA,
47TH AV & BANCROFT AV,Oakland,CA,
10400 MACARTHUR BLVD,Oakland,CA,
3800 BROADWAY,Oakland,CA,
2400 E 22ND ST,Oakland,CA,
83RD AV & BANCROFT AV,Oakland,CA,
6400 BRANN ST,Oakland,CA,
73RD AV & SAN LEANDRO ST,Oakland,CA,
1500 TRESTLE GLEN RD,Oakland,CA,
7TH ST & WOOD ST,Oakland,CA,
5TH ST & WASHINGTON ST,Oakland,CA,
8TH ST & PERALTA ST,Oakland,CA,
E 12TH ST & 16TH AV,Oakland,CA,
6700 FOOTHILL BLVD,Oakland,CA,
2800 PARK BLVD,Oakland,CA,
7500 HALLIDAY AV,Oakland,CA,
5900 BROMLEY AV,Oakland,CA,
3900 LYMAN RD,Oakland,CA,
98TH AV & PLYMOUTH ST,Oakland,CA,
3700 HILLVIEW ST,Oakland,CA,
16TH AV & FOOTHILL BLVD,Oakland,CA,
2000 WEBSTER ST,Oakland,CA,
18TH ST & MARTIN LUTHER KING JR WY,Oakland,CA,
1200 11TH AV,Oakland,CA,
9800 STANLEY AV,Oakland,CA,
1500 MAGNOLIA ST,Oakland,CA,
4200 HOWE ST,Oakland,CA,
2800 COOLIDGE AV,Oakland,CA,
38TH AV & ALLENDALE AV,Oakland,CA,
3200 GEORGIA ST,Oakland,CA,
1900 13TH AV,Oakland,CA,
2300 RANSOM AV,Oakland,CA,
8TH ST & PINE ST,Oakland,CA,
8400 SAN LEANDRO ST,Oakland,CA,
2000 39TH AV,Oakland,CA,
1000 102ND AV,Oakland,CA,
W GRAND AV & MYRTLE ST,Oakland,CA,
2100 66TH AV,Oakland,CA,
2100 E 21ST ST,Oakland,CA,
0 MALTA CT,Oakland,CA,
1800 FOOTHILL BLVD,Oakland,CA,
4600 SHATTUCK AV,Oakland,CA,
5200 MARKET ST,Oakland,CA,
54TH ST & SAN PABLO AV,Oakland,CA,
800 ADELINE ST,Oakland,CA,
1800 ADELINE ST,Oakland,CA,
9700 PLYMOUTH ST,Oakland,CA,
1900 96TH AV,Oakland,CA,
3200 FRUITVALE AV,Oakland,CA,
2400 E 16TH ST,Oakland,CA,
3000 COOLIDGE AV,Oakland,CA,
2700 PLEASANT ST,Oakland,CA,
1200 44TH AV,Oakland,CA,
2500 19TH AV,Oakland,CA,
2900 22ND AV,Oakland,CA,
1500 HAVENSCOURT BLVD,Oakland,CA,
700 E 24TH ST,Oakland,CA,
300 42ND ST,Oakland,CA,
500 E 18TH ST,Oakland,CA,
1700 FOOTHILL BLVD,Oakland,CA,
2500 76TH AV,Oakland,CA,
BANCROFT AV & COLE ST,Oakland,CA,
3500 64TH AV,Oakland,CA,
29TH ST & SAN PABLO AV,Oakland,CA,
2000 7TH AV,Oakland,CA,
7500 HILLMONT DR,Oakland,CA,
4400 BROOKDALE AV,Oakland,CA,
BROCKHURST ST & MARKET ST,Oakland,CA,
3000 MARTIN LUTHER KING JR WY,Oakland,CA,
2700 VIOLA ST,Oakland,CA,
1200 30TH ST,Oakland,CA,
400 EMBARCADERO,Oakland,CA,
1700 16TH ST,Oakland,CA,
2900 GEORGIA ST,Oakland,CA,
200 SEXTUS RD,Oakland,CA,
1000 28TH ST,Oakland,CA,
10500 MACARTHUR BLVD,Oakland,CA,
45TH ST & BROADWAY,Oakland,CA,
57TH ST & AYALA AV,Oakland,CA,
500 VERNON ST,Oakland,CA,
1400 24TH AV,Oakland,CA,
0 SHERIDAN RD,Oakland,CA,
6100 OUTLOOK AV,Oakland,CA,
12TH ST & MARKET ST,Oakland,CA,
2700 HUMBOLDT AV,Oakland,CA,
1000 ALCATRAZ AV,Oakland,CA,
500 HENRY ST,Oakland,CA,
1300 100TH AV,Oakland,CA,
800 CAMPBELL VILLAGE CT,Oakland,CA,
BRANN ST & SEMINARY AV,Oakland,CA,
84TH AV & HOLLY ST,Oakland,CA,
700 CAMPBELL ST,Oakland,CA,
2200 100TH AV,Oakland,CA,
4000 FULLINGTON ST,Oakland,CA,
1300 69TH AV,Oakland,CA,
1300 92ND AV,Oakland,CA,
3100 E 27TH ST,Oakland,CA,
98TH AV & HOLLY ST,Oakland,CA,
LAUREL AV & MACARTHUR BLVD,Oakland,CA,
6600 LUCILLE ST,Oakland,CA,
1400 39TH AV,Oakland,CA,
300 BELMONT ST,Oakland,CA,
DOOLITTLE DR & SWAN WY,Oakland,CA,
400 E 15TH ST,Oakland,CA,
1800 102ND AV,Oakland,CA,
1400 BANCROFT WY,Oakland,CA,
1700 MOUNTAIN BLVD,Oakland,CA,
50TH AV & COLISEUM WY,Oakland,CA,
CHATHAM RD & PARK BLVD,Oakland,CA,
1700 FRANKLIN ST,Oakland,CA,
36TH ST & WEST ST,Oakland,CA,
14TH AV & E 15TH ST,Oakland,CA,
5100 OLD REDWOOD RD,Oakland,CA,
600 21ST ST,Oakland,CA,
5700 KINGSLEY CIR,Oakland,CA,
6TH AV & FOOTHILL BLVD,Oakland,CA,
2000 RUTHERFORD ST,Oakland,CA,
2000 DAMUTH ST,Oakland,CA,
4000 PANAMA CT,Oakland,CA,
2500 COURTLAND AV,Oakland,CA,
1800 LINDEN ST,Oakland,CA,
60TH AV & BANCROFT AV,Oakland,CA,
1900 57TH AV,Oakland,CA,
900 73RD AV,Oakland,CA,
60TH AV & INTERNATIONAL BLVD,Oakland,CA,
2500 9TH AV,Oakland,CA,
98TH AV & BIRCH ST,Oakland,CA,
7200 WELD ST,Oakland,CA,
1000 106TH AV,Oakland,CA,
1800 68TH AV,Oakland,CA,
10700 RUSSETT ST,Oakland,CA,
1000 88TH AV,Oakland,CA,
9200 HOLLY ST,Oakland,CA,
78TH AV & LOCKWOOD ST,Oakland,CA,
1600 102ND AV,Oakland,CA,
3700 MAYBELLE AV,Oakland,CA,
4000 SANTA RITA ST,Oakland,CA,
E 12TH ST & 4TH AV,Oakland,CA,
9000 BURR ST,Oakland,CA,
E 15TH ST & 19TH AV,Oakland,CA,
3100 ADELINE ST,Oakland,CA,
COLLEGE AV & KEITH AV,Oakland,CA,
DOUGLAS AV & EDES AV,Oakland,CA,
300 CATRON DR,Oakland,CA,
2400 E 20TH ST,Oakland,CA,
3900 DELMONT AV,Oakland,CA,
1200 53RD AV,Oakland,CA,
5800 BUENA VISTA AV,Oakland,CA,
8TH ST & WILLOW ST,Oakland,CA,
100 KERWIN AV,Oakland,CA,
14TH AV & E 24TH ST,Oakland,CA,
8500 SENECA ST,Oakland,CA,
1200 77TH AV,Oakland,CA,
BELVEDERE ST & YGNACIO AV,Oakland,CA,
65TH ST & SAN PABLO AV,Oakland,CA,
800 98TH AV,Oakland,CA,
3000 35TH AV,Oakland,CA,
7800 OLIVE ST,Oakland,CA,
3300 MARKET ST,Oakland,CA,
1100 66TH AV,Oakland,CA,
38TH ST & BROADWAY,Oakland,CA,
3100 CHESTNUT ST,Oakland,CA,
900 FILBERT ST,Oakland,CA,
600 57TH ST,Oakland,CA,
1500 19TH AV,Oakland,CA,
TELEGRAPH AV & WILLIAM ST,Oakland,CA,
5900 FORTUNE WY,Oakland,CA,
82ND AV & OLIVE ST,Oakland,CA,
4400 YGNACIO AV,Oakland,CA,
7800 HOLLY ST,Oakland,CA,
7100 WELD ST,Oakland,CA,
1000 45TH AV,Oakland,CA,
0 SERENO CIR,Oakland,CA,
4000 LAUREL AV,Oakland,CA,
1900 LINDEN ST,Oakland,CA,
5200 BROADWAY TER,Oakland,CA,
3800 MAGEE AV,Oakland,CA,
1000 46TH AV,Oakland,CA,
7700 PARDEE LN,Oakland,CA,
E 16TH ST & 35TH AV,Oakland,CA,
1700 50TH AV,Oakland,CA,
800 51ST ST,Oakland,CA,
400 OAKLAND AV,Oakland,CA,
500 VAN BUREN AV,Oakland,CA,
3200 BONA ST,Oakland,CA,
E 12TH ST & 13TH AV,Oakland,CA,
4600 MELDON AV,Oakland,CA,
28TH AV & FOOTHILL BLVD,Oakland,CA,
CASTRO ST & SAN PABLO AV,Oakland,CA,
1700 35TH AV,Oakland,CA,
2500 MANDELA PKWY,Oakland,CA,
300 OAKLAND AV,Oakland,CA,
1400 9TH ST,Oakland,CA,
9400 WALNUT ST,Oakland,CA,
1100 65TH ST,Oakland,CA,
2300 62ND AV,Oakland,CA,
10900 REPOSO DR,Oakland,CA,
1800 106TH AV,Oakland,CA,
1000 89TH AV,Oakland,CA,
700 25TH ST,Oakland,CA,
1300 107TH AV,Oakland,CA,
1400 11TH ST,Oakland,CA,
700 46TH ST,Oakland,CA,
9200 CHERRY ST,Oakland,CA,
5600 MARTIN LUTHER KING JR WY,Oakland,CA,
81ST AV & OLIVE ST,Oakland,CA,
22ND ST & WEST ST,Oakland,CA,
4700 DAVENPORT AV,Oakland,CA,
600 41ST ST,Oakland,CA,
E 12TH ST & 6TH AV,Oakland,CA,
2300 COOLIDGE AV,Oakland,CA,
2600 65TH AV,Oakland,CA,
100 GHORMLEY AV,Oakland,CA,
34TH ST & MARKET ST,Oakland,CA,
700 W GRAND AV,Oakland,CA,
2300 MITCHELL ST,Oakland,CA,
2300 COURTLAND AV,Oakland,CA,
1000 LINDEN ST,Oakland,CA,
400 LAGUNITAS AV,Oakland,CA,
GOLF LINKS RD & MOUNTAIN BLVD,Oakland,CA,
3700 MALCOLM AV,Oakland,CA,
8900 DOWLING ST,Oakland,CA,
2500 E 29TH ST,Oakland,CA,
0 LEAMONT CT,Oakland,CA,
8TH ST & ALICE ST,Oakland,CA,
1800 94TH AV,Oakland,CA,
62ND AV & AVENAL AV,Oakland,CA,
0 GLENEDEN AV,Oakland,CA,
HAWTHORNE AV & TELEGRAPH AV,Oakland,CA,
1000 5TH AV,Oakland,CA,
600 62ND ST,Oakland,CA,
3600 GREEN ACRE RD,Oakland,CA,
3500 MONTEREY BLVD,Oakland,CA,
8300 NEY AV,Oakland,CA,
2800 CHAPMAN ST,Oakland,CA,
2900 FOOTHILL BLVD,Oakland,CA,
1200 EXCELSIOR AV,Oakland,CA,
2800 FILBERT ST,Oakland,CA,
400 WAYNE AV,Oakland,CA,
600 58TH ST,Oakland,CA,
35TH AV & ALLENDALE AV,Oakland,CA,
61ST ST & TELEGRAPH AV,Oakland,CA,
6600 CHABOT RD,Oakland,CA,
5500 LAWTON AV,Oakland,CA,
2100 PARK BLVD,Oakland,CA,
FRONTAGE RD & W GRAND AV,Oakland,CA,
7TH ST & CAMPBELL ST,Oakland,CA,
GRAND AV & PARK VIEW TER,Oakland,CA,
3200 BLANDON RD,Oakland,CA,
8700 MOUNTAIN BLVD,Oakland,CA,
6100 BROMLEY AV,Oakland,CA,
200 8TH ST,Oakland,CA,
1900 64TH AV,Oakland,CA,
2700 SEMINARY AV,Oakland,CA,
2000 E 28TH ST,Oakland,CA,
5500 LAVERNE AV,Oakland,CA,
98TH AV & DENSLOWE AV,Oakland,CA,
7100 FAVOR ST,Oakland,CA,
2300 35TH AV,Oakland,CA,
12TH ST & JACKSON ST,Oakland,CA,
2200 VICKSBURG AV,Oakland,CA,
4700 FAIR AV,Oakland,CA,
31ST ST & MARTIN LUTHER KING JR WY,Oakland,CA,
4700 FAIRFAX AV,Oakland,CA,
1400 E 32ND ST,Oakland,CA,
300 BURLWOOD AV,Oakland,CA,
3400 65TH AV,Oakland,CA,
3200 DAKOTA ST,Oakland,CA,
E 18TH ST & FRUITVALE AV,Oakland,CA,
6300 SAN LEANDRO ST,Oakland,CA,
DOWNTOWN,Oakland,CA,
6400 FENHAM ST,Oakland,CA,
106TH AV & INTERNATIONAL BLVD,Oakland,CA,
72ND AV & LACEY AV,Oakland,CA,
800 42ND ST,Oakland,CA,
2100 WEST ST,Oakland,CA,
6000 MARTIN LUTHER KING JR WY,Oakland,CA,
1500 28TH AV,Oakland,CA,
6000 MACARTHUR BLVD,Oakland,CA,
2200 55TH AV,Oakland,CA,
7TH ST & CASTRO ST,Oakland,CA,
2300 100TH AV,Oakland,CA,
3400 WEST ST,Oakland,CA,
2500 OLIVER AV,Oakland,CA,
2300 103RD AV,Oakland,CA,
BELVEDERE ST & FOOTHILL BLVD,Oakland,CA,
10200 DANTE AV,Oakland,CA,
SB HIGH OFFRP ST & SB I880,Oakland,CA,
1400 15TH ST,Oakland,CA,
WALKER AV & WICKSON AV,Oakland,CA,
4200 DETROIT AV,Oakland,CA,
12TH ST & WILLOW ST,Oakland,CA,
7900 MICHIGAN AV,Oakland,CA,
400 VAN DYKE AV,Oakland,CA,
HARMON AV & SEMINARY AV,Oakland,CA,
56TH ST & SHATTUCK AV,Oakland,CA,
3500 TELEGRAPH AV,Oakland,CA,
31ST ST & SAN PABLO AV,Oakland,CA,
5800 FOOTHILL BLVD,Oakland,CA,
2400 HIGHLAND AV,Oakland,CA,
2200 CHESTNUT ST,Oakland,CA,
1600 E 19TH ST,Oakland,CA,
2100 27TH AV,Oakland,CA,
45TH AV & BANCROFT AV,Oakland,CA,
1100 90TH AV,Oakland,CA,
32ND ST & HANNAH ST,Oakland,CA,
3300 66TH AV,Oakland,CA,
46TH AV & FOOTHILL BLVD,Oakland,CA,
8200 FONTAINE ST,Oakland,CA,
10000 DOOLITTLE DR,Oakland,CA,
EDWARDS AV & EB I580,Oakland,CA,
2000 35TH AV,Oakland,CA,
38TH AV & PENNIMAN AV,Oakland,CA,
1000 4TH AV,Oakland,CA,
3800 DELMONT AV,Oakland,CA,
1700 FILBERT ST,Oakland,CA,
9700 OLIVE ST,Oakland,CA,
73RD AV & HILLMONT DR,Oakland,CA,
300 STONEFORD AV,Oakland,CA,
2200 E 31ST ST,Oakland,CA,
700 43RD ST,Oakland,CA,
46TH ST & TELEGRAPH AV,Oakland,CA,
36TH ST & TELEGRAPH AV,Oakland,CA,
300 ELYSIAN FIELDS DR,Oakland,CA,
1500 HARRISON ST,Oakland,CA,
2600 23RD AV,Oakland,CA,
0 SALLY RIDE WY,Oakland,CA,
2100 102ND AV,Oakland,CA,
2200 64TH AV,Oakland,CA,
100 HUNTER AV,Oakland,CA,
3700 35TH AV,Oakland,CA,
7600 OAKPORT ST,Oakland,CA,
1200 14TH ST,Oakland,CA,
1600 MACARTHUR BLVD,Oakland,CA,
6100 BUENA VENTURA AV,Oakland,CA,
5600 GENOA ST,Oakland,CA,
E 15TH ST & 3RD AV,Oakland,CA,
11TH ST & CAMPBELL ST,Oakland,CA,
1700 34TH AV,Oakland,CA,
1100 79TH AV,Oakland,CA,
1100 E 17TH ST,Oakland,CA,
2000 48TH AV,Oakland,CA,
8900 HOLLY ST,Oakland,CA,
2300 E 24TH ST,Oakland,CA,
2900 73RD AV,Oakland,CA,
3300 KEMPTON AV,Oakland,CA,
2ND ST & WASHINGTON ST,Oakland,CA,
2000 VICKSBURG AV,Oakland,CA,
2000 98TH AV,Oakland,CA,
0 MONTELL ST,Oakland,CA,
600 WASHINGTON ST,Oakland,CA,
2800 21ST AV,Oakland,CA,
5400 MARTIN LUTHER KING JR WY,Oakland,CA,
2500 COOLIDGE AV,Oakland,CA,
5500 CLAREMONT AV,Oakland,CA,
92ND AV & BIRCH ST,Oakland,CA,
3500 SIMMONS ST,Oakland,CA,
2200 COURTLAND AV,Oakland,CA,
700 CHESTER ST,Oakland,CA,
0 STARVIEW DR,Oakland,CA,
94TH AV & PLYMOUTH ST,Oakland,CA,
97TH AV & INTERNATIONAL BLVD,Oakland,CA,
7TH AV & FOOTHILL BLVD,Oakland,CA,
3800 BROOKDALE AV,Oakland,CA,
4000 BURCKHALTER AV,Oakland,CA,
300 ALCATRAZ AV,Oakland,CA,
1100 FRANKLIN ST,Oakland,CA,
300 MARITIME ST,Oakland,CA,
500 FAIRBANKS AV,Oakland,CA,
1200 58TH AV,Oakland,CA,
1800 5TH AV,Oakland,CA,
E 16TH ST & BRIDGE AV,Oakland,CA,
1200 W GRAND AV,Oakland,CA,
2000 103RD AV,Oakland,CA,
3100 LYNDE ST,Oakland,CA,
2500 E 27TH ST,Oakland,CA,
1900 99TH AV,Oakland,CA,
HOWE ST & W MACARTHUR BLVD,Oakland,CA,
1200 PERALTA ST,Oakland,CA,
3000 KINGSLAND AV,Oakland,CA,
6300 MORAGA AV,Oakland,CA,
0 SKYWAY LN,Oakland,CA,
3600 ALLENDALE AV,Oakland,CA,
5500 HARMON AV,Oakland,CA,
85TH AV & RAILROAD AV,Oakland,CA,
2100 109TH AV,Oakland,CA,
400 HUNTER AV,Oakland,CA,
LEONA DR & ROCKY POINT CT,Oakland,CA,
10900 ROBLEDO DR,Oakland,CA,
6100 MAJESTIC AV,Oakland,CA,
92ND AV & SUNNYSIDE ST,Oakland,CA,
1200 12TH ST,Oakland,CA,
1500 3RD AV,Oakland,CA,
200 ADAMS ST,Oakland,CA,
1600 MARITIME ST,Oakland,CA,
63RD AV & AVENAL AV,Oakland,CA,
23RD ST & WEBSTER ST,Oakland,CA,
900 8TH ST,Oakland,CA,
3100 NICOL AV,Oakland,CA,
92ND AV & HOLLY ST,Oakland,CA,
10TH ST & WEBSTER ST,Oakland,CA,
900 98TH AV,Oakland,CA,
2900 SAN PABLO AV,Oakland,CA,
MONTEREY BLVD & REDWOOD RD,Oakland,CA,
3100 E 9TH ST,Oakland,CA,
7800 LOCUST ST,Oakland,CA,
2600 SAN PABLO AV,Oakland,CA,
1500 PERALTA ST,Oakland,CA,
5400 MACARTHUR BLVD,Oakland,CA,
1500 CAMPBELL ST,Oakland,CA,
10500 ACALANES DR,Oakland,CA,
2000 BYWOOD DR,Oakland,CA,
98TH AV & MADDUX DR,Oakland,CA,
3900 SHAFTER AV,Oakland,CA,
8TH ST & JACKSON ST,Oakland,CA,
2000 9TH AV,Oakland,CA,
E 15TH ST & 21ST AV,Oakland,CA,
2900 MAGNOLIA ST,Oakland,CA,
5600 MILES AV,Oakland,CA,
7900 HILLSIDE ST,Oakland,CA,
7100 ORRAL ST,Oakland,CA,
5100 YGNACIO AV,Oakland,CA,
600 ALMA AV,Oakland,CA,
1200 106TH AV,Oakland,CA,
2600 BARTLETT ST,Oakland,CA,
6TH ST & JACKSON ST,Oakland,CA,
1400 16TH AV,Oakland,CA,
4400 VIRGINIA AV,Oakland,CA,
4600 MELROSE AV,Oakland,CA,
COLLEGE AV & LAWTON AV,Oakland,CA,
3800 AGUA VISTA ST,Oakland,CA,
2500 60TH AV,Oakland,CA,
9TH ST & CENTER ST,Oakland,CA,
2900 GLASCOCK ST,Oakland,CA,
3200 HELEN ST,Oakland,CA,
500 JEAN ST,Oakland,CA,
10TH AV & E 18TH ST,Oakland,CA,
8600 THERMAL ST,Oakland,CA,
E 27TH ST & GARDEN ST,Oakland,CA,
28TH ST & MAGNOLIA ST,Oakland,CA,
26TH ST & MARKET ST,Oakland,CA,
9300 SUNNYSIDE ST,Oakland,CA,
AILEEN ST & TELEGRAPH AV,Oakland,CA,
27TH ST & MARKET ST,Oakland,CA,
6000 COLTON BLVD,Oakland,CA,
5300 MILES AV,Oakland,CA,
7TH ST & MARTIN LUTHER KING JR WY,Oakland,CA,
9600 ELMVIEW DR,Oakland,CA,
600 POIRIER ST,Oakland,CA,
1700 94TH AV,Oakland,CA,
9300 CHERRY ST,Oakland,CA,
24TH ST & VALLEY ST,Oakland,CA,
39TH ST & MARTIN LUTHER KING JR WY,Oakland,CA,
84TH AV & DOWLING ST,Oakland,CA,
2500 MACARTHUR BLVD,Oakland,CA,
9200 SAN LEANDRO ST,Oakland,CA,
85TH AV & D ST,Oakland,CA,
29TH AV & GLASCOCK ST,Oakland,CA,
200 LOUVAINE AV,Oakland,CA,
58TH ST & SHATTUCK AV,Oakland,CA,
2600 22ND AV,Oakland,CA,
400 3RD ST,Oakland,CA,
100TH AV & BANCROFT AV,Oakland,CA,
1800 34TH AV,Oakland,CA,
67TH ST & SAN PABLO AV,Oakland,CA,
2400 12TH AV,Oakland,CA,
1800 MADISON ST,Oakland,CA,
700 39TH ST,Oakland,CA,
9200 MACARTHUR BLVD,Oakland,CA,
2100 100TH AV,Oakland,CA,
4800 CONGRESS AV,Oakland,CA,
1100 BAYVIEW AV,Oakland,CA,
400 E 19TH ST,Oakland,CA,
2800 DELAWARE ST,Oakland,CA,
300 SOMERSET RD,Oakland,CA,
1800 105TH AV,Oakland,CA,
600 FOOTHILL BLVD,Oakland,CA,
1000 PERALTA ST,Oakland,CA,
1100 CAMPBELL ST,Oakland,CA,
2200 13TH AV,Oakland,CA,
700 INDEPENDENT RD,Oakland,CA,
87TH AV & BIRCH ST,Oakland,CA,
2100 62ND AV,Oakland,CA,
98TH AV & SUNNYSIDE ST,Oakland,CA,
4100 MANILA AV,Oakland,CA,
5600 OAK GROVE AV,Oakland,CA,
4400 TULIP AV,Oakland,CA,
54TH ST & GASKILL ST,Oakland,CA,
2600 CARISBROOK DR,Oakland,CA,
5100 SHAFTER AV,Oakland,CA,
300 CLARA ST,Oakland,CA,
4900 INTERNATIONAL BLVD,Oakland,CA,
5300 COLE ST,Oakland,CA,
2100 19TH AV,Oakland,CA,
3800 LAUREL AV,Oakland,CA,
1600 LINDEN ST,Oakland,CA,
2500 83RD AV,Oakland,CA,
3000 GLASCOCK ST,Oakland,CA,
8200 OLIVE ST,Oakland,CA,
1000 80TH AV,Oakland,CA,
HARRISON ST & PEARL ST,Oakland,CA,
4100 OPAL ST,Oakland,CA,
39TH AV & MASTERSON ST,Oakland,CA,
9800 D ST,Oakland,CA,
3400 SUTER ST,Oakland,CA,
3300 MAYBELLE WY,Oakland,CA,
66TH AV & SB I880,Oakland,CA,
2400 GRANDE VISTA AV,Oakland,CA,
21ST AV & E 21ST ST,Oakland,CA,
2000 101ST AV,Oakland,CA,
31ST ST & WEST ST,Oakland,CA,
1000 39TH AV,Oakland,CA,
58TH AV & INTERNATIONAL BLVD,Oakland,CA,
COLLINS DR & HEGENBERGER RD,Oakland,CA,
900 30TH ST,Oakland,CA,
100 8TH ST,Oakland,CA,
4200 E 17TH ST,Oakland,CA,
1700 101ST AV,Oakland,CA,
6600 SAN LEANDRO ST,Oakland,CA,
90TH AV & PLYMOUTH ST,Oakland,CA,
70TH AV & HAMILTON ST,Oakland,CA,
2100 MOUNTAIN BLVD,Oakland,CA,
5700 AYALA AV,Oakland,CA,
1500 50TH AV,Oakland,CA,
9400 C ST,Oakland,CA,
9000 BIRCH ST,Oakland,CA,
1500 100TH AV,Oakland,CA,
3300 64TH AV PL,Oakland,CA,
2000 E 12TH ST,Oakland,CA,
400 E 11TH ST,Oakland,CA,
200 CALDECOTT LN,Oakland,CA,
4000 CARRINGTON ST,Oakland,CA,
4000 BROOKDALE AV,Oakland,CA,
3400 HAVEN ST,Oakland,CA,
1500 BRIDGE AV,Oakland,CA,
9400 SUNNYSIDE ST,Oakland,CA,
900 CHESTER ST,Oakland,CA,
2700 E 10TH ST,Oakland,CA,
5200 MILES AV,Oakland,CA,
9000 PALMERA CT,Oakland,CA,
W GRAND AV & LINDEN ST,Oakland,CA,
2100 MARKET ST,Oakland,CA,
200 MARLOW DR,Oakland,CA,
10400 LONGFELLOW AV,Oakland,CA,
42ND ST & MARKET ST,Oakland,CA,
600 10TH ST,Oakland,CA,
6400 REGENT ST,Oakland,CA,
1700 4TH AV,Oakland,CA,
1500 67TH AV,Oakland,CA,
HIGH ST & LYON AV,Oakland,CA,
42ND ST & WEST ST,Oakland,CA,
3RD ST & MARKET ST,Oakland,CA,
3RD ST & MARTIN LUTHER KING JR WY,Oakland,CA,
1000 FRUITVALE AV,Oakland,CA,
3100 98TH AV,Oakland,CA,
400 4TH ST,Oakland,CA,
E 15TH ST & 22ND AV,Oakland,CA,
73RD AV & HALLIDAY AV,Oakland,CA,
3700 MADRONE AV,Oakland,CA,
1300 30TH AV,Oakland,CA,
1000 UNION ST,Oakland,CA,
1600 27TH AV,Oakland,CA,
900 BAYVIEW AV,Oakland,CA,
700 LONGRIDGE RD,Oakland,CA,
1000 12TH ST,Oakland,CA,
16TH ST & CAMPBELL ST,Oakland,CA,
1600 37TH AV,Oakland,CA,
3200 HOLLIS ST,Oakland,CA,
8700 D ST,Oakland,CA,
79TH AV & RUDSDALE ST,Oakland,CA,
3300 PERALTA ST,Oakland,CA,
2600 TRUMAN AV,Oakland,CA,
5TH ST & OAK ST,Oakland,CA,
8500 HOLLY ST,Oakland,CA,
800 33RD AV,Oakland,CA,
1400 67TH AV,Oakland,CA,
1800 VICKSBURG AV,Oakland,CA,
3500 HARPER ST,Oakland,CA,
3600 MANDELA PK,Oakland,CA,
12TH ST & CENTER ST,Oakland,CA,
1400 MARITIME ST,Oakland,CA,
600 BEACON ST,Oakland,CA,
4800 FAIRFAX AV,Oakland,CA,
2ND ST & CLAY ST,Oakland,CA,
2100 104TH AV,Oakland,CA,
3700 PENNIMAN AV,Oakland,CA,
1000 KIRKHAM WY,Oakland,CA,
500 42ND ST,Oakland,CA,
1200 CENTER ST,Oakland,CA,
CANON AV & WELLINGTON ST,Oakland,CA,
2900 106TH AV,Oakland,CA,
2700 SCHOOL ST,Oakland,CA,
2400 PERALTA ST,Oakland,CA,
1900 65TH AV,Oakland,CA,
5600 INTERNATIONAL BLVD,Oakland,CA,
18TH ST & MYRTLE ST,Oakland,CA,
23RD ST & VALDEZ ST,Oakland,CA,
2100 E 25TH ST,Oakland,CA,
2400 SAVANNAH CT,Oakland,CA,
0 MAGGIORA DR,Oakland,CA,
3800 REDDING ST,Oakland,CA,
5700 E 17TH ST,Oakland,CA,
0 MARGUERITE DR,Oakland,CA,
300 GRAMERCY PL,Oakland,CA,
3200 SAN LEANDRO ST,Oakland,CA,
6100 OLD QUARRY LOOP,Oakland,CA,
1000 14TH ST,Oakland,CA,
8TH ST & CHESTER ST,Oakland,CA,
1700 7TH AV,Oakland,CA,
50TH AV & MELROSE AV,Oakland,CA,
1200 26TH ST,Oakland,CA,
4900 TIDEWATER AV,Oakland,CA,
14TH ST & BRUSH ST,Oakland,CA,
4000 E 17TH ST,Oakland,CA,
2500 EMBARCADERO,Oakland,CA,
2100 13TH AV,Oakland,CA,
6000 MAZUELA DR,Oakland,CA,
82ND AV & HOLLY ST,Oakland,CA,
1500 54TH AV,Oakland,CA,
8400 DOWLING ST,Oakland,CA,
35TH AV & GALINDO ST,Oakland,CA,
9000 OLIVE ST,Oakland,CA,
900 CLAY ST,Oakland,CA,
10400 PIPPIN ST,Oakland,CA,
1400 17TH ST,Oakland,CA,
2800 22ND AV,Oakland,CA,
ATHENS AV & SAN PABLO AV,Oakland,CA,
COLE ST & FOOTHILL BLVD,Oakland,CA,
1600 CLAY ST,Oakland,CA,
30TH ST & CHESTNUT ST,Oakland,CA,
500 CANYON OAKS DR,Oakland,CA,
3000 BROADMOOR VIEW,Oakland,CA,
GILBERT ST & PLEASANT VALLEY AV,Oakland,CA,
5900 LAIRD AV,Oakland,CA,
23RD AV & NB I880,Oakland,CA,
ELLITA AV & GRAND AV,Oakland,CA,
3800 WHITTLE AV,Oakland,CA,
10TH ST & WOOD ST,Oakland,CA,
72ND AV & MACARTHUR BLVD,Oakland,CA,
800 TRESTLE GLEN RD,Oakland,CA,
2700 TALBOT AV,Oakland,CA,
1000 HUBERT RD,Oakland,CA,
5000 BROADWAY,Oakland,CA,
1500 40TH AV,Oakland,CA,
33RD ST & MARTIN LUTHER KING JR WY,Oakland,CA,
2300 E 26TH ST,Oakland,CA,
2700 13TH AV,Oakland,CA,
3700 PARK BLVD,Oakland,CA,
AUSEON AV & INTERNATIONAL BLVD,Oakland,CA,
3200 PARK BLVD,Oakland,CA,
1500 MOUNTAIN BLVD,Oakland,CA,
8800 HOLLY ST,Oakland,CA,
600 CARY AV,Oakland,CA,
73RD AV & OUTLOOK AV,Oakland,CA,
CAMPBELL ST & W GRAND AV,Oakland,CA,
2400 21ST AV,Oakland,CA,
2000 50TH AV,Oakland,CA,
BROADWAY & NB I880,Oakland,CA,
3500 RHODA AV,Oakland,CA,
9400 ARMSTRONG DR,Oakland,CA,
1400 TUCKER ST,Oakland,CA,
44TH ST & MARKET ST,Oakland,CA,
700 E 20TH ST,Oakland,CA,
3500 LAKESHORE AV,Oakland,CA,
BANCROFT AV & DURANT AV,Oakland,CA,
35TH AV & DAVIS ST,Oakland,CA,
3800 GREENWOOD AV,Oakland,CA,
2200 AUSEON AV,Oakland,CA,
200 SEQUOYAH VIEW DR,Oakland,CA,
1400 HAMPEL ST,Oakland,CA,
2400 ADELINE ST,Oakland,CA,
1400 3RD AV,Oakland,CA,
2900 FORD ST,Oakland,CA,
9800 KITTY LN,Oakland,CA,
NEY AV & PARKER AV,Oakland,CA,
1600 94TH AV,Oakland,CA,
5700 HERMANN ST,Oakland,CA,
9700 ELMVIEW DR,Oakland,CA,
1400 18TH AV,Oakland,CA,
1900 94TH AV,Oakland,CA,
2700 14TH AV,Oakland,CA,
41ST ST & MARKET ST,Oakland,CA,
3100 BONA ST,Oakland,CA,
LOMA VISTA AV & MACARTHUR BLVD,Oakland,CA,
3500 WISCONSIN ST,Oakland,CA,
2100 14TH AV,Oakland,CA,
8100 COACH DR,Oakland,CA,
200 ISLETON AV,Oakland,CA,
900 54TH AV,Oakland,CA,
4000 HOWE ST,Oakland,CA,
2300 19TH AV,Oakland,CA,
8500 BANCROFT AV,Oakland,CA,
HEGENBERGER RD & SAN LEANDRO ST,Oakland,CA,
APGAR ST & MARKET ST,Oakland,CA,
5200 OLD REDWOOD RD,Oakland,CA,
E 15TH ST & MILLER AV,Oakland,CA,
81ST AV & HOLLY ST,Oakland,CA,
5600 HOLWAY ST,Oakland,CA,
800 WARFIELD AV,Oakland,CA,
500 55TH ST,Oakland,CA,
4800 WALNUT ST,Oakland,CA,
89TH AV & BANCROFT AV,Oakland,CA,
8000 STERLING DR,Oakland,CA,
2700 IVY DR,Oakland,CA,
11000 ACALANES DR,Oakland,CA,
63RD ST & COLLEGE AV,Oakland,CA,
17TH ST & JACKSON ST,Oakland,CA,
E 18TH ST & 7TH AV,Oakland,CA,
6100 MONADNOCK WY,Oakland,CA,
2200 19TH AV,Oakland,CA,
1900 E 24TH ST,Oakland,CA,
2500 13TH AV,Oakland,CA,
4700 ALLENDALE AV,Oakland,CA,
7TH ST & FALLON ST,Oakland,CA,
32ND ST & WEST ST,Oakland,CA,
13TH ST & WILLOW ST,Oakland,CA,
64TH AV & CAMDEN ST,Oakland,CA,
5400 SAN LEANDRO ST,Oakland,CA,
2000 ROSEDALE AV,Oakland,CA,
3900 MIDVALE AV,Oakland,CA,
2700 75TH AV,Oakland,CA,
12TH AV & E 12TH ST,Oakland,CA,
9400 CHERRY ST,Oakland,CA,
2500 WEBSTER ST,Oakland,CA,
8200 MACARTHUR BLVD,Oakland,CA,
CAMDEN ST & SEMINARY AV,Oakland,CA,
10500 RUSSETT ST,Oakland,CA,
2200 PARK BLVD,Oakland,CA,
1400 21ST AV,Oakland,CA,
4800 MELROSE AV,Oakland,CA,
2300 66TH AV,Oakland,CA,
4100 EMERALD ST,Oakland,CA,
1800 E 19TH ST,Oakland,CA,
7200 LOCKWOOD ST,Oakland,CA,
4TH ST & WEBSTER ST,Oakland,CA,
89TH AV & OLIVE ST,Oakland,CA,
33RD AV & FOOTHILL BLVD,Oakland,CA,
15TH ST & JACKSON ST,Oakland,CA,
SYCAMORE ST & TELEGRAPH AV,Oakland,CA,
200 27TH ST,Oakland,CA,
300 50TH ST,Oakland,CA,
1100 E 20TH ST,Oakland,CA,
5800 BROADWAY TER,Oakland,CA,
5300 BOYD AV,Oakland,CA,
500 INDEPENDENT RD,Oakland,CA,
500 E 11TH ST,Oakland,CA,
10700 ACALANES DR,Oakland,CA,
1900 E 20TH ST,Oakland,CA,
1700 E 22ND ST,Oakland,CA,
9TH ST & MADISON ST,Oakland,CA,
1000 91ST AV,Oakland,CA,
900 CAMPBELL VILLAGE CT,Oakland,CA,
2600 106TH AV,Oakland,CA,
1600 CASTRO ST,Oakland,CA,
3700 NEVIL ST,Oakland,CA,
1500 22ND AV,Oakland,CA,
9800 EMPIRE RD,Oakland,CA,
5500 BANCROFT AV,Oakland,CA,
34TH AV & SAN LEANDRO ST,Oakland,CA,
7500 BANCROFT AV,Oakland,CA,
80TH AV & RUDSDALE ST,Oakland,CA,
400 GHORMLEY AV,Oakland,CA,
CLAREMONT AV & GRIZZLY PEAK BLVD,Oakland,CA,
11TH ST & MADISON ST,Oakland,CA,
1900 23RD AV,Oakland,CA,
E 32ND ST & BEAUMONT AV,Oakland,CA,
MILTON ST & SAN PABLO AV,Oakland,CA,
E 16TH ST & 25TH AV,Oakland,CA,
8200 PLYMOUTH ST,Oakland,CA,
9400 BANCROFT AV,Oakland,CA,
8800 HILLSIDE ST,Oakland,CA,
CULVER ST & HIGH ST,Oakland,CA,
4000 OAK HILL RD,Oakland,CA,
3000 MILLSBRAE AV,Oakland,CA,
FILBERT ST & W GRAND AV,Oakland,CA,
3800 FRUITVALE AV,Oakland,CA,
28TH ST & ADELINE ST,Oakland,CA,
5600 E 16TH ST,Oakland,CA,
12TH ST & JEFFERSON ST,Oakland,CA,
2000 E 25TH ST,Oakland,CA,
700 MCKINLEY AV,Oakland,CA,
2700 RAWSON ST,Oakland,CA,
3RD AV & INTERNATIONAL BLVD,Oakland,CA,
32ND ST & CHESTNUT ST,Oakland,CA,
11000 SAN LEANDRO ST,Oakland,CA,
1400 98 AV,Oakland,CA,
8800 A ST,Oakland,CA,
7900 MOUNTAIN BLVD,Oakland,CA,
10100 WALNUT ST,Oakland,CA,
1400 10TH AV,Oakland,CA,
3200 ARKANSAS ST,Oakland,CA,
900 STANFORD AV,Oakland,CA,
9300 E ST,Oakland,CA,
E 16TH ST & 36TH AV,Oakland,CA,
15TH AV & FOOTHILL BLVD,Oakland,CA,
3100 EASTMAN AV,Oakland,CA,
2100 LIVINGSTON ST,Oakland,CA,
500 MIDCREST RD,Oakland,CA,
57TH ST & MARKET ST,Oakland,CA,
300 MARLOW DR,Oakland,CA,
2800 SUNSET AV,Oakland,CA,
3RD ST & JEFFERSON ST,Oakland,CA,
2400 COLE ST,Oakland,CA,
2800 MADERA AV,Oakland,CA,
98TH AV & STEARNS AV,Oakland,CA,
3900 OAKMORE RD,Oakland,CA,
DENNISON ST & EMBARCADERO,Oakland,CA,
1600 8TH AV,Oakland,CA,
6100 LAIRD AV,Oakland,CA,
3RD ST & WEBSTER ST,Oakland,CA,
3500 CALANDRIA AV,Oakland,CA,
1500 21ST AV,Oakland,CA,
4100 CARRINGTON ST,Oakland,CA,
600 CHETWOOD ST,Oakland,CA,
41ST ST & HOWE ST,Oakland,CA,
ARTHUR ST & HAVENSCOURT BLVD,Oakland,CA,
0 DONNA WY,Oakland,CA,
1500 57TH AV,Oakland,CA,
6000 AVENAL AV,Oakland,CA,
2700 MARKET ST,Oakland,CA,
4200 KNOLL AV,Oakland,CA,
700 CANYON OAKS DR,Oakland,CA,
800 STANFORD AV,Oakland,CA,
2200 80TH AV,Oakland,CA,
OAKPORT ST & ZHONE WY,Oakland,CA,
1700 104TH AV,Oakland,CA,
6200 COLLEGE AV,Oakland,CA,
9700 CORAL RD,Oakland,CA,
7800 STERLING DR,Oakland,CA,
6300 OUTLOOK AV,Oakland,CA,
4800 LOWRY RD,Oakland,CA,
2500 GRANDE VISTA AV,Oakland,CA,
2000 41ST AV,Oakland,CA,
86TH AV & BIRCH ST,Oakland,CA,
30TH ST & UNION ST,Oakland,CA,
14TH ST & WOOD ST,Oakland,CA,
200 ELYSIAN FIELDS DR,Oakland,CA,
4100 LYON AV,Oakland,CA,
2000 8TH AV,Oakland,CA,
300 GHORMLEY AV,Oakland,CA,
10100 EDES AV,Oakland,CA,
7200 FAVOR ST,Oakland,CA,
1000 WOOD ST,Oakland,CA,
1200 48TH AV,Oakland,CA,
59TH ST & MARKET ST,Oakland,CA,
8000 ATHERTON ST,Oakland,CA,
4800 WEBSTER ST,Oakland,CA,
BYRON AV & MACARTHUR BLVD,Oakland,CA,
800 LONGRIDGE RD,Oakland,CA,
103RD AV & WALNUT ST,Oakland,CA,
3400 66TH AV,Oakland,CA,
E 12TH ST & LAKE MERRITT BLVD,Oakland,CA,
5100 WEST ST,Oakland,CA,
5000 PIEDMONT AV,Oakland,CA,
1400 CAMPBELL ST,Oakland,CA,
1100 12TH ST,Oakland,CA,
2900 57TH AV,Oakland,CA,
4400 39TH AV,Oakland,CA,
HIGH ST & HOWARD ST,Oakland,CA,
9500 PEACH ST,Oakland,CA,
2300 26TH AV,Oakland,CA,
8100 HANSOM DR,Oakland,CA,
1400 13TH AV,Oakland,CA,
1200 CAMPBELL ST,Oakland,CA,
2600 14TH AV,Oakland,CA,
400 45TH ST,Oakland,CA,
EMBARCADERO WEST & FRANKLIN ST,Oakland,CA,
72ND AV & HAMILTON ST,Oakland,CA,
2000 27TH AV,Oakland,CA,
4100 FRUITVALE AV,Oakland,CA,
200 SANTA CLARA AV,Oakland,CA,
300 E 8TH ST,Oakland,CA,
E 22ND ST & 23RD AV,Oakland,CA,
400 EL PASEO DR,Oakland,CA,
3500 WILSON AV,Oakland,CA,
JOAQUIN MILLER RD & SKYLINE BLVD,Oakland,CA,
8200 DOWLING ST,Oakland,CA,
1900 E 19TH ST,Oakland,CA,
1200 HIGH ST,Oakland,CA,
1500 7TH ST,Oakland,CA,
400 EUCLID AV,Oakland,CA,
5300 BROOKDALE AV,Oakland,CA,
200 RIDGEWAY AV,Oakland,CA,
2700 MANDELA PKWY,Oakland,CA,
22ND ST & MARTIN LUTHER KING JR WY,Oakland,CA,
HIGH ST & EB I580,Oakland,CA,
67TH AV & BANCROFT AV,Oakland,CA,
2900 MYRTLE ST,Oakland,CA,
200 GANNON RD,Oakland,CA,
EB I580 & PARK BLVD,Oakland,CA,
1300 31ST AV,Oakland,CA,
2900 23RD AV,Oakland,CA,
900 35TH AV,Oakland,CA,
14TH ST & OAK ST,Oakland,CA,
4400 WORDEN WY,Oakland,CA,
1500 90TH AV,Oakland,CA,
4300 DETROIT AV,Oakland,CA,
BLOSSOM ST & FRUITVALE AV,Oakland,CA,
3700 GLEN PARK RD,Oakland,CA,
E 7TH ST & KENNEDY ST,Oakland,CA,
6900 BROADWAY TER,Oakland,CA,
400 LANCASTER ST,Oakland,CA,
9TH ST & JACKSON ST,Oakland,CA,
9700 MACARTHUR BLVD,Oakland,CA,
3300 BONA ST,Oakland,CA,
1600 11TH AV,Oakland,CA,
400 23RD AV,Oakland,CA,
700 UNION ST,Oakland,CA,
49TH ST & SHATTUCK AV,Oakland,CA,
5200 SHATTUCK AV,Oakland,CA,
6300 E 17TH ST,Oakland,CA,
3900 MACARTHUR BLVD,Oakland,CA,
1400 68TH AV,Oakland,CA,
1700 E 15TH ST,Oakland,CA,
44TH ST & WEST ST,Oakland,CA,
6500 MOKELUMNE AV,Oakland,CA,
800 PORTWOOD AV,Oakland,CA,
34TH AV & SALISBURY ST,Oakland,CA,
1600 45TH AV,Oakland,CA,
1400 5TH ST,Oakland,CA,
2100 ROSEDALE AV,Oakland,CA,
3600 DORISA AV,Oakland,CA,
4200 TERRACE ST,Oakland,CA,
14TH ST & WILLOW ST,Oakland,CA,
85TH AV & B ST,Oakland,CA,
5900 HARMON AV,Oakland,CA,
86TH AV & HOLLY ST,Oakland,CA,
4000 SAN JUAN ST,Oakland,CA,
300 PERALTA ST,Oakland,CA,
EMBARCADERO WEST & OAK ST,Oakland,CA,
3700 38TH AV,Oakland,CA,
2800 MOUNTAIN BLVD,Oakland,CA,
2000 20TH AV,Oakland,CA,
2900 61ST AV,Oakland,CA,
14TH ST & LAKESIDE DR,Oakland,CA,
68TH AV & BANCROFT AV,Oakland,CA,
700 58TH ST,Oakland,CA,
2700 MACARTHUR BLVD,Oakland,CA,
1800 WEST ST,Oakland,CA,
9700 THERMAL ST,Oakland,CA,
2500 78TH AV,Oakland,CA,
700 61ST ST,Oakland,CA,
1700 GOSS ST,Oakland,CA,
55TH AV & MACARTHUR BLVD,Oakland,CA,
MACARTHUR BLVD & OAKLAND AV,Oakland,CA,
100 5TH ST,Oakland,CA,
1500 MITCHELL ST,Oakland,CA,
3000 LINDEN ST,Oakland,CA,
HANSOM DR & KELLER AV,Oakland,CA,
1600 CAMPBELL ST,Oakland,CA,
6100 ACACIA AV,Oakland,CA,
700 31ST ST,Oakland,CA,
34TH ST & WEBSTER ST,Oakland,CA,
1600 40TH AV,Oakland,CA,
HARRISON ST & MACARTHUR BLVD,Oakland,CA,
2800 23RD AV,Oakland,CA,
3200 RANDOLPH AV,Oakland,CA,
86TH AV & OLIVE ST,Oakland,CA,
3100 73RD AV,Oakland,CA,
3900 OPAL ST,Oakland,CA,
8700 SENECA ST,Oakland,CA,
2700 12TH AV,Oakland,CA,
5200 DESMOND ST,Oakland,CA,
1100 E 23RD ST,Oakland,CA,
2300 FILBERT ST,Oakland,CA,
2300 ADELINE ST,Oakland,CA,
400 FOOTHILL BLVD,Oakland,CA,
7300 HILLSIDE ST,Oakland,CA,
E 15TH ST & 35TH AV,Oakland,CA,
3300 MONTEREY BLVD,Oakland,CA,
2800 UNION ST,Oakland,CA,
4900 SCOTIA AV,Oakland,CA,
200 WISTAR RD,Oakland,CA,
5800 FREMONT ST,Oakland,CA,
55TH AV & FLEMING AV,Oakland,CA,
3300 MORCOM AV,Oakland,CA,
4100 REDDING ST,Oakland,CA,
7200 KRAUSE AV,Oakland,CA,
1600 SAN PABLO AV,Oakland,CA,
600 E 20TH ST,Oakland,CA,
4400 GILBERT ST,Oakland,CA,
1900 12TH AV,Oakland,CA,
9800 HESKET RD,Oakland,CA,
1100 25TH AV,Oakland,CA,
9500 THERMAL ST,Oakland,CA,
65TH ST & TELEGRAPH AV,Oakland,CA,
2600 BROADWAY,Oakland,CA,
1300 HARRISON ST,Oakland,CA,
85TH AV & BANCROFT AV,Oakland,CA,
200 OAK ST,Oakland,CA,
2700 INYO AV,Oakland,CA,
900 JEFFERSON ST,Oakland,CA,
1100 MCKINLEY AV,Oakland,CA,
2900 PARTRIDGE AV,Oakland,CA,
800 VERMONT ST,Oakland,CA,
E 16TH ST & 28TH AV,Oakland,CA,
1000 APGAR ST,Oakland,CA,
5100 PARKRIDGE DR,Oakland,CA,
38TH AV & SANTA RITA ST,Oakland,CA,
1300 FRANKLIN ST,Oakland,CA,
11900 SKYLINE BLVD,Oakland,CA,
9400 DUNBAR DR,Oakland,CA,
2900 ABBEY ST,Oakland,CA,
900 34TH AV,Oakland,CA,
COOLIDGE AV & HYDE ST,Oakland,CA,
HIGH ST & MASTERSON ST,Oakland,CA,
4TH AV & INTERNATIONAL BLVD,Oakland,CA,
2800 73RD AV,Oakland,CA,
9300 WALNUT ST,Oakland,CA,
3900 HUNTINGTON ST,Oakland,CA,
10400 INTERNATIONAL BLVD,Oakland,CA,
37TH ST & WEST ST,Oakland,CA,
600 NEVADA ST,Oakland,CA,
2400 RANSOM AV,Oakland,CA,
2100 MITCHELL ST,Oakland,CA,
2400 55TH AV,Oakland,CA,
1100 62ND ST,Oakland,CA,
47TH ST & TELEGRAPH AV,Oakland,CA,
2900 MINNA AV,Oakland,CA,
3900 PENNIMAN AV,Oakland,CA,
5300 LOCKSLEY AV,Oakland,CA,
400 E 12TH ST,Oakland,CA,
1400 72ND AV,Oakland,CA,
1900 24TH AV,Oakland,CA,
10TH ST & WILLOW ST,Oakland,CA,
1700 21ST AV,Oakland,CA,
200 LAKESIDE DR,Oakland,CA,
2300 E 20TH ST,Oakland,CA,
4000 MERA ST,Oakland,CA,
12TH ST & BRUSH ST,Oakland,CA,
BROCKHURST ST & SAN PABLO AV,Oakland,CA,
52ND ST & GENOA ST,Oakland,CA,
4TH AV & FOOTHILL BLVD,Oakland,CA,
600 CANYON OAKS DR,Oakland,CA,
600 63RD ST,Oakland,CA,
E 17TH ST & 5TH AV,Oakland,CA,
4600 DOLORES AV,Oakland,CA,
7600 SPENCER ST,Oakland,CA,
7400 MACARTHUR BLVD,Oakland,CA,
500 FAIRMOUNT AV,Oakland,CA,
2400 38TH AV,Oakland,CA,
5900 E 17TH ST,Oakland,CA,
GALINDO ST & HARRINGTON AV,Oakland,CA,
13TH AV & MACARTHUR BLVD,Oakland,CA,
3000 GEORGIA ST,Oakland,CA,
0 6TH ST,Oakland,CA,
26TH ST & MYRTLE ST,Oakland,CA,
16TH ST & PERALTA ST,Oakland,CA,
13TH ST & ALICE ST,Oakland,CA,
1000 47TH AV,Oakland,CA,
64TH ST & SAN PABLO AV,Oakland,CA,
1100 E 18TH ST,Oakland,CA,
800 E 15TH ST,Oakland,CA,
14TH AV & E 17TH ST,Oakland,CA,
0 VAN CLEAVE WY,Oakland,CA,
1800 67TH AV,Oakland,CA,
800 E 24TH ST,Oakland,CA,
3000 CALIFORNIA ST,Oakland,CA,
9800 BIRCH ST,Oakland,CA,
HILLSIDE ST & RITCHIE ST,Oakland,CA,
2400 MANDELA PKWY,Oakland,CA,
2900 E 29TH ST,Oakland,CA,
3900 HARRISON ST,Oakland,CA,
4900 CONGRESS AV,Oakland,CA,
500 7TH ST,Oakland,CA,
9800 BERNHARDT DR,Oakland,CA,
1200 21ST AV,Oakland,CA,
6000 CHABOT RD,Oakland,CA,
1600 64TH AV,Oakland,CA,
96TH AV & CHERRY ST,Oakland,CA,
9400 HOLLY ST,Oakland,CA,
100 WEBSTER ST,Oakland,CA,
3600 CALAFIA AV,Oakland,CA,
100 FAIRMOUNT AV,Oakland,CA,
8800 THERMAL ST,Oakland,CA,
5400 MARKET ST,Oakland,CA,
1700 16TH AV,Oakland,CA,
E 20TH ST & 23RD AV,Oakland,CA,
1200 FRUITVALE AV,Oakland,CA,
9500 CHERRY ST,Oakland,CA,
5500 MARSHALL ST,Oakland,CA,
63RD ST & TELEGRAPH AV,Oakland,CA,
5800 MARSHALL ST,Oakland,CA,
3000 GUIDO ST,Oakland,CA,
6500 WHITNEY ST,Oakland,CA,
2600 9TH AV,Oakland,CA,
600 ALCATRAZ AV,Oakland,CA,
7000 OUTLOOK AV,Oakland,CA,
E 15TH ST & 17TH AV,Oakland,CA,
36TH ST & WEBSTER ST,Oakland,CA,
100 11TH ST,Oakland,CA,
CHABOT RD & COLLEGE AV,Oakland,CA,
600 40TH ST,Oakland,CA,
3700 SAN LEANDRO ST,Oakland,CA,
2800 MORGAN AV,Oakland,CA,
7200 SAYRE DR,Oakland,CA,
0 KAISER PLZ,Oakland,CA,
4600 TOMPKINS AV,Oakland,CA,
3600 ALAMEDA AV,Oakland,CA,
5700 AVENAL AV,Oakland,CA,
700 WESLEY WY,Oakland,CA,
1700 13TH AV,Oakland,CA,
2400 FILBERT ST,Oakland,CA,
GRASS VALLEY RD & SKYLINE BLVD,Oakland,CA,
7900 OLIVE ST,Oakland,CA,
2800 ATWELL AV,Oakland,CA,
2400 FRANCES ST,Oakland,CA,
3300 FARNAM ST,Oakland,CA,
600 CLEVELAND AV,Oakland,CA,
3400 QUIGLEY LN,Oakland,CA,
8100 OAKPORT ST,Oakland,CA,
1200 E 19TH ST,Oakland,CA,
APGAR ST & MARTIN LUTHER KING JR WY,Oakland,CA,
22ND ST & WEBSTER ST,Oakland,CA,
1700 39TH AV,Oakland,CA,
9700 EMPIRE RD,Oakland,CA,
2800 MARKET ST,Oakland,CA,
700 4TH ST,Oakland,CA,
300 WAYNE PL,Oakland,CA,
400 DARIEN AV,Oakland,CA,
9800 BIGGE AV,Oakland,CA,
FRUITVALE AV & LYNDE ST,Oakland,CA,
2200 94TH AV,Oakland,CA,
1500 MARITIME ST,Oakland,CA,
4300 SAN LEANDRO ST,Oakland,CA,
38TH AV & CARRINGTON ST,Oakland,CA,
800 53RD AV,Oakland,CA,
500 MARITIME ST,Oakland,CA,
3000 57TH AV,Oakland,CA,
3100 HARRISON ST,Oakland,CA,
62ND ST & TELEGRAPH AV,Oakland,CA,
83RD AV & A ST,Oakland,CA,
3200 MADELINE ST,Oakland,CA,
1900 41ST AV,Oakland,CA,
3100 38TH AV,Oakland,CA,
600 THOMAS L. BERKLEY WY,Oakland,CA,
34TH ST & HAVEN ST,Oakland,CA,
800 E 21ST ST,Oakland,CA,
35TH ST & ADELINE ST,Oakland,CA,
500 E 17TH ST,Oakland,CA,
3300 GUIDO ST,Oakland,CA,
56TH ST & TELEGRAPH AV,Oakland,CA,
2100 107TH AV,Oakland,CA,
3800 HARRISON ST,Oakland,CA,
1400 80TH AV,Oakland,CA,
35TH AV & SALISBURY ST,Oakland,CA,
700 CLEVELAND AV,Oakland,CA,
2300 LEGION AV,Oakland,CA,
2200 E 17TH ST,Oakland,CA,
57TH AV & HARMON AV,Oakland,CA,
3200 KNOWLAND AV,Oakland,CA,
12TH ST & FILBERT ST,Oakland,CA,
1100 3RD ST,Oakland,CA,
700 ROSEMOUNT RD,Oakland,CA,
8900 PLYMOUTH ST,Oakland,CA,
300 ADELINE ST,Oakland,CA,
400 STONEFORD AV,Oakland,CA,
2400 RAWSON ST,Oakland,CA,
1600 TRESTLE GLEN RD,Oakland,CA,
2100 E 20TH ST,Oakland,CA,
4000 NEVIL ST,Oakland,CA,
7500 OUTLOOK AV,Oakland,CA,
5900 FOOTHILL BLVD,Oakland,CA,
8300 BANCROFT AV,Oakland,CA,
5300 E 12TH ST,Oakland,CA,
1700 48TH AV,Oakland,CA,
9400 EMPIRE RD,Oakland,CA,
700 NEVADA ST,Oakland,CA,
21ST ST & HARRISON ST,Oakland,CA,
LAKE PARK AV & WALKER AV,Oakland,CA,
700 56TH ST,Oakland,CA,
1600 50TH AV,Oakland,CA,
1100 E 12TH ST,Oakland,CA,
11TH ST & JACKSON ST,Oakland,CA,
300 HARRISON ST,Oakland,CA,
7TH ST & OAK ST,Oakland,CA,
4400 KELLER AV,Oakland,CA,
2400 76TH AV,Oakland,CA,
1900 50TH AV,Oakland,CA,
6700 LUCILLE ST,Oakland,CA,
E 15TH ST & 16TH AV,Oakland,CA,
1500 E 31ST ST,Oakland,CA,
4300 SHELLMOUND ST,Oakland,CA,
7200 ORRAL ST,Oakland,CA,
47TH ST & WEST ST,Oakland,CA,
5500 MARKET ST,Oakland,CA,
2600 ADELINE ST,Oakland,CA,
1200 41ST AV,Oakland,CA,
1200 23RD AV,Oakland,CA,
800 35TH ST,Oakland,CA,
4600 DAVENPORT AV,Oakland,CA,
2900 DELAWARE ST,Oakland,CA,
1100 EL CENTRO AV,Oakland,CA,
E 12TH ST & 33RD AV,Oakland,CA,
3900 CARRINGTON ST,Oakland,CA,
2200 INYO AV,Oakland,CA,
700 65TH ST,Oakland,CA,
1900 E 29TH ST,Oakland,CA,
1800 BRENTWOOD RD,Oakland,CA,
3600 SUTER ST,Oakland,CA,
1900 ROSECREST DR,Oakland,CA,
0 HEGENBERGER LOOP,Oakland,CA,
3800 HARBOR VIEW AV,Oakland,CA,
2100 64TH AV,Oakland,CA,
300 INTERNATIONAL BLVD,Oakland,CA,
20100 LAKE CHABOT,Oakland,CA,
3100 61ST AV,Oakland,CA,
FLEMING AV & HIGH ST,Oakland,CA,
500 JULIE ANN WY,Oakland,CA,
2200 LINDEN ST,Oakland,CA,
1600 101ST AV,Oakland,CA,
60TH AV & FOOTHILL BLVD,Oakland,CA,
8300 A ST,Oakland,CA,
98TH AV & OLIVE ST,Oakland,CA,
82ND AV & HILLSIDE ST,Oakland,CA,
4600 MARKET ST,Oakland,CA,
900 BLENHEIM ST,Oakland,CA,
6200 MONADNOCK WY,Oakland,CA,
4600 PARK BLVD,Oakland,CA,
2000 89TH AV,Oakland,CA,
1900 34TH AV,Oakland,CA,
1700 40TH AV,Oakland,CA,
1300 EL CENTRO AV,Oakland,CA,
6400 OUTLOOK AV,Oakland,CA,
0 SCHOONER HILL,Oakland,CA,
5200 LOCKSLEY AV,Oakland,CA,
6000 SAN PABLO AV,Oakland,CA,
7300 NEY AV,Oakland,CA,
200 7TH ST,Oakland,CA,
PARK BLVD & WELLINGTON ST,Oakland,CA,
6000 HOLWAY ST,Oakland,CA,
18TH ST & JEFFERSON ST,Oakland,CA,
1000 MANDELA PKWY,Oakland,CA,
6500 FLORA ST,Oakland,CA,
3300 82ND AV,Oakland,CA,
3900 EDGEMOOR PL,Oakland,CA,
10700 HELLMAN ST,Oakland,CA,
300 29TH AV,Oakland,CA,
BRANN ST & CAMDEN ST,Oakland,CA,
1400 32ND ST,Oakland,CA,
E 12TH ST & 8TH AV,Oakland,CA,
0 MONTWOOD WY,Oakland,CA,
4100 GILBERT ST,Oakland,CA,
1000 E 15TH ST,Oakland,CA,
700 TYLER ST,Oakland,CA,
32ND ST & ETTIE ST,Oakland,CA,
RANSOM AV & SANTA RITA ST,Oakland,CA,
WB I580 & LAKESHORE AV,Oakland,CA,
33RD ST & MARKET ST,Oakland,CA,
1600 MARKET ST,Oakland,CA,
74TH AV & MACARTHUR BLVD,Oakland,CA,
7000 SPENCER ST,Oakland,CA,
600 ATHOL AV,Oakland,CA,
1600 52ND AV,Oakland,CA,
3400 PIERSON ST,Oakland,CA,
5900 MACCALL ST,Oakland,CA,
300 HUNTER AV,Oakland,CA,
55TH ST & SAN PABLO AV,Oakland,CA,
61ST ST & SHATTUCK AV,Oakland,CA,
2200 98TH AV,Oakland,CA,
10400 JUNE CT,Oakland,CA,
FONTAINE ST & GOLF LINKS RD,Oakland,CA,
9900 DANTE AV,Oakland,CA,
9800 SPRINGFIELD ST,Oakland,CA,
31ST ST & MARKET ST,Oakland,CA,
500 27TH ST,Oakland,CA,
5000 KEARNEY AV,Oakland,CA,
1000 CHESTER ST,Oakland,CA,
400 VAN BUREN AV,Oakland,CA,
800 PORTAL AV,Oakland,CA,
ENOS AV & MACARTHUR BLVD,Oakland,CA,
4000 MAPLE AV,Oakland,CA,
2300 MAYWOOD AV,Oakland,CA,
2100 CHURCH ST,Oakland,CA,
3800 E 12TH ST,Oakland,CA,
3000 HARRISON ST,Oakland,CA,
1800 55TH AV,Oakland,CA,
3600 MADRONE AV,Oakland,CA,
1500 18TH AV,Oakland,CA,
2600 KINGSLAND AV,Oakland,CA,
1700 PERALTA ST,Oakland,CA,
73RD AV & FAVOR ST,Oakland,CA,
800 MCKINLEY AV,Oakland,CA,
700 APGAR ST,Oakland,CA,
2200 WARNER AV,Oakland,CA,
1200 40TH AV,Oakland,CA,
3800 RHODA AV,Oakland,CA,
9200 OLIVE ST,Oakland,CA,
900 E 24TH ST,Oakland,CA,
900 YERBA BUENA AV,Oakland,CA,
4600 TYRRELL ST,Oakland,CA,
600 56TH ST,Oakland,CA,
94TH AV & BIRCH ST,Oakland,CA,
400 MANDANA BLVD,Oakland,CA,
700 46TH AV,Oakland,CA,
81ST AV & BIRCH ST,Oakland,CA,
400 29TH AV,Oakland,CA,
5600 FLEMING AV,Oakland,CA,
98TH AV & CHERRY ST,Oakland,CA,
17TH ST & BRUSH ST,Oakland,CA,
3000 TEXAS ST,Oakland,CA,
2100 99TH AV,Oakland,CA,
500 BERGEDO DR,Oakland,CA,
73RD AV & NEY AV,Oakland,CA,
28TH ST & UNION ST,Oakland,CA,
2000 88TH AV,Oakland,CA,
1800 64TH AV,Oakland,CA,
81ST AV & BANCROFT AV,Oakland,CA,
6400 COLBY ST,Oakland,CA,
8100 GREENLY DR,Oakland,CA,
EMBARCADERO & OAK ST,Oakland,CA,
2200 E 24TH ST,Oakland,CA,
7600 HILLMONT DR,Oakland,CA,
E 29TH ST & FRUITVALE AV,Oakland,CA,
500 FOREST ST,Oakland,CA,
14TH ST & FILBERT ST,Oakland,CA,
FAIRFAX AV & MONTICELLO AV,Oakland,CA,
2900 56TH AV,Oakland,CA,
2200 107TH AV,Oakland,CA,
3400 BROADWAY,Oakland,CA,
2100 E 19TH ST,Oakland,CA,
6400 FLORA ST,Oakland,CA,
6500 OAKWOOD DR,Oakland,CA,
9400 E ST,Oakland,CA,
3600 BROOKDALE AV,Oakland,CA,
1000 E 24TH ST,Oakland,CA,
10TH ST & OAK ST,Oakland,CA,
3600 MAGEE AV,Oakland,CA,
1000 25TH AV,Oakland,CA,
3800 PARK BLVD,Oakland,CA,
2400 POTTER ST,Oakland,CA,
40TH ST & CLARKE ST,Oakland,CA,
400 CAVOUR ST,Oakland,CA,
400 NORTH ST,Oakland,CA,
55TH AV & SCOVILLE ST,Oakland,CA,
5700 MORSE DR,Oakland,CA,
7900 OAKPORT ST,Oakland,CA,
300 GRAVATT DR,Oakland,CA,
COOLIDGE AV & COOLIDGE TER,Oakland,CA,
2300 9TH AV,Oakland,CA,
16TH ST & WOOD ST,Oakland,CA,
14TH AV & E 20TH ST,Oakland,CA,
CHAMPION ST & NICOL AV,Oakland,CA,
900 16TH ST,Oakland,CA,
LINDA AV & PIEDMONT AV,Oakland,CA,
2200 ADELINE ST,Oakland,CA,
1200 E 20TH ST,Oakland,CA,
2500 E 10TH ST,Oakland,CA,
5900 CAMDEN ST,Oakland,CA,
9000 BANCROFT AV,Oakland,CA,
3700 QUIGLEY ST,Oakland,CA,
2500 CHARLESTON ST,Oakland,CA,
2800 SEMINARY AV,Oakland,CA,
900 LOOMIS CT,Oakland,CA,
100 ELYSIAN FIELDS DR,Oakland,CA,
6400 BANCROFT AV,Oakland,CA,
73RD AV & FOOTHILL BLVD,Oakland,CA,
500 3RD ST,Oakland,CA,
5800 PICARDY DR,Oakland,CA,
BELLEVUE AV & STATEN AV,Oakland,CA,
MYRTLE ST & SAN PABLO AV,Oakland,CA,
1400 4TH AV,Oakland,CA,
7900 EARL ST,Oakland,CA,
3300 HERRIER ST,Oakland,CA,
17TH ST & ALICE ST,Oakland,CA,
1200 MIDDLE HARBOR RD,Oakland,CA,
8500 GOLF LINKS RD,Oakland,CA,
8100 PHAETON DR,Oakland,CA,
100 SANTA CLARA AV,Oakland,CA,
1800 CHESTNUT ST,Oakland,CA,
3300 38TH AV,Oakland,CA,
56TH ST & MARKET ST,Oakland,CA,
49TH AV & INTERNATIONAL BLVD,Oakland,CA,
17TH ST & MADISON ST,Oakland,CA,
8000 WINTHROPE ST,Oakland,CA,
700 MACARTHUR BLVD,Oakland,CA,
8100 CAPWELL DR,Oakland,CA,
6900 BRISTOL DR,Oakland,CA,
63RD ST & MARKET ST,Oakland,CA,
1900 6TH AV,Oakland,CA,
2700 GRANDE VISTA AV,Oakland,CA,
1200 13TH AV,Oakland,CA,
6200 TELEGRAPH AV,Oakland,CA,
33RD ST & TELEGRAPH AV,Oakland,CA,
3900 MARTIN LUTHER KING JR WY,Oakland,CA,
700 HENRY ST,Oakland,CA,
2400 PALMETTO ST,Oakland,CA,
E 19TH ST & 23RD AV,Oakland,CA,
4000 39TH AV,Oakland,CA,
EDGEWATER DR & HEGENBERGER LOOP,Oakland,CA,
34TH AV & FARNAM ST,Oakland,CA,
800 APPLE ST,Oakland,CA,
6400 BLUE ROCK CT,Oakland,CA,
300 E 15TH ST,Oakland,CA,
2900 55TH AV,Oakland,CA,
89TH AV & BIRCH ST,Oakland,CA,
10200 ROYAL ANN ST,Oakland,CA,
800 ERIE ST,Oakland,CA,
1700 E 23RD ST,Oakland,CA,
39TH AV & FOOTHILL BLVD,Oakland,CA,
3300 STORER AV,Oakland,CA,
E 17TH ST & 23RD AV,Oakland,CA,
3800 GRAND AV,Oakland,CA,
52ND ST & MARKET ST,Oakland,CA,
4500 MARTIN LUTHER KING JR WY,Oakland,CA,
6200 E 16TH ST,Oakland,CA,
1800 E 24TH ST,Oakland,CA,
2500 HIGHLAND AV,Oakland,CA,
1300 3RD ST,Oakland,CA,
66TH AV & EASTLAWN ST,Oakland,CA,
SAN PABLO AV & WEST ST,Oakland,CA,
400 20TH ST,Oakland,CA,
75TH AV & NEY AV,Oakland,CA,
600 HILLGIRT CIR,Oakland,CA,
600 MARKET ST,Oakland,CA,
9TH ST & WOOD ST,Oakland,CA,
4300 ALLENDALE AV,Oakland,CA,
1300 10TH ST,Oakland,CA,
1400 61ST AV,Oakland,CA,
6300 BAKER ST,Oakland,CA,
SPECIAL ASSN,Oakland,CA,
5600 GASKILL ST,Oakland,CA,
3300 DEERING ST,Oakland,CA,
2400 MIDDLE HARBOR RD,Oakland,CA,
12TH ST & FALLON ST,Oakland,CA,
0 HILLER DR,Oakland,CA,
16TH ST & LINDEN ST,Oakland,CA,
32ND ST & LINDEN ST,Oakland,CA,
4700 TIDEWATER AV,Oakland,CA,
7TH ST & FILBERT ST,Oakland,CA,
4200 CARRINGTON ST,Oakland,CA,
3900 FOREST HILL AV,Oakland,CA,
E 16TH ST & 26TH AV,Oakland,CA,
4200 BANCROFT AV,Oakland,CA,
3600 38TH AV,Oakland,CA,
1300 E 26TH ST,Oakland,CA,
0 TEMPLAR PL,Oakland,CA,
300 98TH AV,Oakland,CA,
2000 E 17TH ST,Oakland,CA,
4400 FOOTHILL BLVD,Oakland,CA,
2300 WEBSTER ST,Oakland,CA,
E 19TH ST & 22ND AV,Oakland,CA,
4100 COOLIDGE AV,Oakland,CA,
COLLEGE AV & OAK GROVE AV,Oakland,CA,
10800 PACKARD ST,Oakland,CA,
BAY PL & MONTECITO AV,Oakland,CA,
65TH AV & AVENAL AV,Oakland,CA,
4000 MARTIN LUTHER KING JR WY,Oakland,CA,
400 26TH ST,Oakland,CA,
0 EDGEMONT WY,Oakland,CA,
TELEGRAPH CORRIDOR,Oakland,CA,
200 OAKLAND AV,Oakland,CA,
3900 E 12TH ST,Oakland,CA,
4200 QUIGLEY PL,Oakland,CA,
2300 27TH AV,Oakland,CA,
3000 38TH AV,Oakland,CA,
3500 ADELINE ST,Oakland,CA,
1300 12TH ST,Oakland,CA,
E 20TH ST & 22ND AV,Oakland,CA,
1700 64TH AV,Oakland,CA,
COOLIDGE AV & DAVIS ST,Oakland,CA,
2700 MARTIN LUTHER KING JR WY,Oakland,CA,
2800 67TH AV,Oakland,CA,
700 MARITIME ST,Oakland,CA,
103RD AV & BIRCH ST,Oakland,CA,
1100 103RD AV,Oakland,CA,
40TH ST & RUBY ST,Oakland,CA,
2100 DAMUTH ST,Oakland,CA,
2900 MADERA AV,Oakland,CA,
9800 LYNDHURST ST,Oakland,CA,
2100 HARRISON ST,Oakland,CA,
24TH ST & LINDEN ST,Oakland,CA,
6800 EASTLAWN ST,Oakland,CA,
500 6TH ST,Oakland,CA,
3100 63RD AV,Oakland,CA,
4600 STAUFFER PL,Oakland,CA,
13TH AV & E 21ST ST,Oakland,CA,
79TH AV & ALDER ST,Oakland,CA,
2500 HARRISON ST,Oakland,CA,
5200 BOYD AV,Oakland,CA,
18TH ST & PERALTA ST,Oakland,CA,
3200 MADERA AV,Oakland,CA,
6500 SAN PABLO AV,Oakland,CA,
3600 OAK KNOLL BLVD,Oakland,CA,
2300 64TH AV,Oakland,CA,
4400 MOUNTAIN VIEW AV,Oakland,CA,
2800 60TH AV,Oakland,CA,
2900 OCTAVIA ST,Oakland,CA,
2900 62ND AV,Oakland,CA,
2800 25TH AV,Oakland,CA,
4800 BROOKDALE AV,Oakland,CA,
2300 AUSEON AV,Oakland,CA,
MOUNTAIN BLVD & SNAKE RD,Oakland,CA,
MORAGA AV & MOUNTAIN BLVD,Oakland,CA,
3900 OAK HILL RD,Oakland,CA,
3900 CLARKE ST,Oakland,CA,
10000 SKYLINE BLVD,Oakland,CA,
3400 MIRASOL AV,Oakland,CA,
8800 MACARTHUR BLVD,Oakland,CA,
700 E 15TH ST,Oakland,CA,
3300 E 16TH ST,Oakland,CA,
2400 25TH AV,Oakland,CA,
55TH AV & BROOKDALE AV,Oakland,CA,
3400 MARKET ST,Oakland,CA,
3000 BIRDSALL AV,Oakland,CA,
4800 SHETLAND AV,Oakland,CA,
BONA ST & FRUITVALE AV,Oakland,CA,
1800 PLEASANT VALLEY AV,Oakland,CA,
8900 D ST,Oakland,CA,
1200 38TH AV,Oakland,CA,
9000 CHERRY ST,Oakland,CA,
1400 WEST ST,Oakland,CA,
400 MACARTHUR BLVD,Oakland,CA,
1100 ADELINE ST,Oakland,CA,
2900 21ST AV,Oakland,CA,
2000 E 22ND ST,Oakland,CA,
79TH AV & BANCROFT AV,Oakland,CA,
200 29TH AV,Oakland,CA,
HILLSIDE ST & PARKER AV,Oakland,CA,
3600 MARKET ST,Oakland,CA,
0 CROXTON AV,Oakland,CA,
2800 35TH AV,Oakland,CA,
1100 91ST AV,Oakland,CA,
94TH AV & HILLSIDE ST,Oakland,CA,
9TH ST & MANDELA PKWY,Oakland,CA,
100 BAYO VISTA AV,Oakland,CA,
9TH ST & PINE ST,Oakland,CA,
MANDELA CORRIDOR,Oakland,CA,
300 JONES AV,Oakland,CA,
1600 21ST AV,Oakland,CA,
3500 MAYBELLE AV,Oakland,CA,
6100 BROADWAY,Oakland,CA,
GRAND AV & LENOX AV,Oakland,CA,
1600 61ST AV,Oakland,CA,
86TH AV & DOWLING ST,Oakland,CA,
6200 HILLMONT DR,Oakland,CA,
2300 E 19TH ST,Oakland,CA,
900 BRUSH ST,Oakland,CA,
1900 VICKSBURG AV,Oakland,CA,
1700 CHASE ST,Oakland,CA,
1800 WEBSTER ST,Oakland,CA,
94TH AV & A ST,Oakland,CA,
900 WILLOW ST,Oakland,CA,
7300 SUNKIST DR,Oakland,CA,
E 15TH ST & 25TH AV,Oakland,CA,
29TH ST & HARRISON ST,Oakland,CA,
7300 HALLIDAY AV,Oakland,CA,
62ND AV & MACARTHUR BLVD,Oakland,CA,
800 29TH AV,Oakland,CA,
63RD AV & BANCROFT AV,Oakland,CA,
1200 50TH AV,Oakland,CA,
9400 CLEMENTE DR,Oakland,CA,
MOORPARK AV & RUSSETT ST,Oakland,CA,
0 SELKIRK ST,Oakland,CA,
3200 ETTIE ST,Oakland,CA,
9500 E ST,Oakland,CA,
2500 PLEASANT ST,Oakland,CA,
2300 38TH AV,Oakland,CA,
3400 PARK BLVD,Oakland,CA,
800 18TH ST,Oakland,CA,
2300 THACKERAY DR,Oakland,CA,
3600 FRUITVALE AV,Oakland,CA,
900 KENNEDY ST,Oakland,CA,
10300 KNIGHT ST,Oakland,CA,
6000 SKYLINE BLVD,Oakland,CA,
300 GLENDALE AV,Oakland,CA,
OUTLOOK AV & SEMINARY AV,Oakland,CA,
2200 106TH AV,Oakland,CA,
1000 LONGRIDGE RD,Oakland,CA,
41ST ST & WEST ST,Oakland,CA,
3600 MIDVALE AV,Oakland,CA,
4600 STEELE ST,Oakland,CA,
2800 MYRTLE ST,Oakland,CA,
6900 SAN LEANDRO ST,Oakland,CA,
4800 ALLENDALE AV,Oakland,CA,
3700 MARTIN LUTHER KING JR WY,Oakland,CA,
2900 SCHYLER ST,Oakland,CA,
E 10TH ST & 2ND AV,Oakland,CA,
3500 SEMINARY AV,Oakland,CA,
600 MACARTHUR BLVD,Oakland,CA,
300 HENRY ST,Oakland,CA,
1200 2ND AV,Oakland,CA,
2900 MORCOM AV,Oakland,CA,
3700 WEST ST,Oakland,CA,
2200 DASHWOOD AV,Oakland,CA,
400 2ND ST,Oakland,CA,
100 MAGGIORA DR,Oakland,CA,
2200 89TH AV,Oakland,CA,
PIEDMONT AV & RIDGEWAY AV,Oakland,CA,
1400 54TH AV,Oakland,CA,
2000 ANTIOCH CT,Oakland,CA,
8600 A ST,Oakland,CA,
300 DARIEN AV,Oakland,CA,
85TH AV & OLIVE ST,Oakland,CA,
2300 LINDEN ST,Oakland,CA,
2000 16TH AV,Oakland,CA,
700 CENTER ST,Oakland,CA,
1600 WOOD ST,Oakland,CA,
4000 MAYBELLE AV,Oakland,CA,
6000 BUENA VENTURA AV,Oakland,CA,
3400 35TH AV,Oakland,CA,
8500 DOWLING ST,Oakland,CA,
400 JEFFERSON ST,Oakland,CA,
1900 COMMERCE WY,Oakland,CA,
54TH AV & WENTWORTH AV,Oakland,CA,
3700 MAGEE AV,Oakland,CA,
60TH ST & TELEGRAPH AV,Oakland,CA,
3100 E 7TH ST,Oakland,CA,
2800 11TH AV,Oakland,CA,
47TH AV & BOND ST,Oakland,CA,
2000 104TH AV,Oakland,CA,
1100 TRESTLE GLEN RD,Oakland,CA,
4400 STEELE ST,Oakland,CA,
76TH AV & NEY AV,Oakland,CA,
2700 98TH AV,Oakland,CA,
2200 9TH AV,Oakland,CA,
