Address,City,State,Zip
MATHER ST & VIEW ST,Oakland,CA,
E 12TH ST & 31ST AV,Oakland,CA,
4000 DELMONT AV,Oakland,CA,
TREMONT ST & WOOLSEY ST,Oakland,CA,
61ST ST & BAKER ST,Oakland,CA,
5000 MANILA AV,Oakland,CA,
4100 OBSERVATORY AV,Oakland,CA,
3700 DORISA AV,Oakland,CA,
100 PERKINS ST,Oakland,CA,
1700 LAKESHORE AV,Oakland,CA,
3600 ARDLEY AV,Oakland,CA,
CLIFTON ST & DESMOND ST,Oakland,CA,
MILES AV & ROSS ST,Oakland,CA,
MADELINE ST & SILVERWOOD AV,Oakland,CA,
108TH AV & MYERS ST,Oakland,CA,
13TH AV & E 32ND ST,Oakland,CA,
CAMDEN ST & MILLSVIEW AV,Oakland,CA,
40/SAN PABLO,Oakland,CA,
1400 20TH AVE,Oakland,CA,
1500 E 22ND ST,Oakland,CA,
10100 CARY ST,Oakland,CA,
6300 ASPINWALL RD,Oakland,CA,
1500 CHESTNUT STREET,Oakland,CA,
1100 CHATHAM RD,Oakland,CA,
4400 JENSEN ST,Oakland,CA,
HAWLEY ST & LION WY,Oakland,CA,
3300 SIMMONS ST,Oakland,CA,
HARLAN ST & PERALTA ST,Oakland,CA,
MARSHALL ST & STANFORD AV,Oakland,CA,
13100 CLAIREPOINTE WY,Oakland,CA,
2200 EMBARCADERO,Oakland,CA,
EB 12TH ONRP ST & CASTRO ST,Oakland,CA,
38TH AV & DALE PL,Oakland,CA,
80TH AV & IRIS ST,Oakland,CA,
6200 VALLEJO ST,Oakland,CA,
E 32ND ST & RANDOLPH AV,Oakland,CA,
1400 E 24TH ST,Oakland,CA,
7300 SPENCER ST,Oakland,CA,
2500 WOOD ST,Oakland,CA,
EDGEWATER DR & HASSLER WY,Oakland,CA,
1900 LIVINGSTON ST,Oakland,CA,
LAKESHORE AREA,Oakland,CA,
SB I880 & WB I980,Oakland,CA,
1000 HARVARD WY,Oakland,CA,
NB BROADWAY OFFRP & NB I880,Oakland,CA,
9100 PLYMOUTH ST,Oakland,CA,
SB LINCOLN OFFRP AV & SB S13,Oakland,CA,
5500 PROCTOR AV,Oakland,CA,
0 GRAHAM PL,Oakland,CA,
CRESCENT ST & SANTA CLARA AV,Oakland,CA,
1700 66TH AV,Oakland,CA,
1100 54TH AV,Oakland,CA,
200 VAN BUREN AV,Oakland,CA,
21ST AV & E 30TH ST,Oakland,CA,
LINDA AV & ROSE AV,Oakland,CA,
900 1&2 72ND AV,Oakland,CA,
COLUMBIAN DR & STERLING DR,Oakland,CA,
7100 HAWLEY ST,Oakland,CA,
11TH AV & E 23RD ST,Oakland,CA,
0 ROCKRIDGE PL,Oakland,CA,
2200 99TH AV,Oakland,CA,
10900 MONAN ST,Oakland,CA,
OAK KNOLL BLVD & TWIN OAKS WY,Oakland,CA,
6500 CHELTON DR,Oakland,CA,
1500 SOLANO WY,Oakland,CA,
FIELD ST & GREENLY DR,Oakland,CA,
SPC ASSIGN,Oakland,CA,
CASWELL AV & CLARA ST,Oakland,CA,
3600 GLEN PARK RD,Oakland,CA,
4900 LAWTON AV,Oakland,CA,
3500 E 9TH ST,Oakland,CA,
BRUNS CT & LA SALLE AV,Oakland,CA,
1700 W GRAND AV,Oakland,CA,
EUCLID AV & WARWICK AV,Oakland,CA,
22ND AV & SONOMA WY,Oakland,CA,
GORDON ST & POTTER ST,Oakland,CA,
10300 SUNNYSIDE ST,Oakland,CA,
BAYO ST & VALE AV,Oakland,CA,
SKYLINE BLVD & TUNNEL RD,Oakland,CA,
4300 KELLER AV,Oakland,CA,
1300 WELLINGTON ST,Oakland,CA,
E 34TH ST & ELLIOT ST,Oakland,CA,
16TH AV & SAN ANTONIO WY,Oakland,CA,
SB 7TH ONRP ST & SB I880,Oakland,CA,
200 MODOC AV,Oakland,CA,
3300 PAXTON AV,Oakland,CA,
1700 CASTERLINE RD,Oakland,CA,
3100 KNOWLAND AV,Oakland,CA,
1600 BANCROFT WY,Oakland,CA,
11TH ST & MANDELA PKWY,Oakland,CA,
4700 BELFAST AV,Oakland,CA,
EB I580 & EB PARK OFFRP BL,Oakland,CA,
6100 MERCED AV,Oakland,CA,
400 FRUITVALE AV,Oakland,CA,
ARLINGTON AV & GENOA ST,Oakland,CA,
1100 HAMPEL ST,Oakland,CA,
700 STRATFORD RD,Oakland,CA,
NB 7TH ONRP ST & BROADWAY,Oakland,CA,
FAIRWAY AV & SEQUOYAH RD,Oakland,CA,
ARIZONA ST & LAUREL AV,Oakland,CA,
101ST AV & BANCROFT AV,Oakland,CA,
5400 HILLTOP CRES,Oakland,CA,
3900 FIELD ST,Oakland,CA,
BROADWAY & NAPA ST,Oakland,CA,
3300 E 22ND ST,Oakland,CA,
BURLWOOD AV & MADDUX DR,Oakland,CA,
2900 E 9TH ST,Oakland,CA,
106TH AV & SHELDON ST,Oakland,CA,
3300 LIESE AV,Oakland,CA,
900 82ND,Oakland,CA,
WASHINGTON ST & WATER ST,Oakland,CA,
7700 NEY AVE,Oakland,CA,
E 7TH ST & PETERSON ST,Oakland,CA,
EB I580 & SB S13,Oakland,CA,
200 NEWTON AV,Oakland,CA,
2700 108TH AV,Oakland,CA,
6700 SUNNYMERE AV,Oakland,CA,
3300 E 9TH ST,Oakland,CA,
17TH ST & EB I980,Oakland,CA,
1300 12TH AV,Oakland,CA,
1200 1ST AV,Oakland,CA,
BANCROFT AVE,Oakland,CA,
5700 SEMINARY AV,Oakland,CA,
HUNTINGTON ST & WORDEN WY,Oakland,CA,
ASCOT DR & MOUNTAIN GATE WY,Oakland,CA,
9600 EARHART DR,Oakland,CA,
1100 19TH ST,Oakland,CA,
GASKILL ST & STANFORD AV,Oakland,CA,
600 FRANKLIN ST,Oakland,CA,
ESTATES DR & LA SALLE AV,Oakland,CA,
FRUITVALE AREA,Oakland,CA,
1300 72ND AV,Oakland,CA,
HEATHER RIDGE WY & THORNHILL DR,Oakland,CA,
2700 LILAC ST,Oakland,CA,
1000 LISBON AV,Oakland,CA,
10000 LONGFELLOW AV,Oakland,CA,
39TH AV & FULLINGTON ST,Oakland,CA,
800 PRUNE AV,Oakland,CA,
HIGH ST & STEELE ST,Oakland,CA,
24TH ST & UNION ST,Oakland,CA,
4200 EDGE DR,Oakland,CA,
4700 COMMONWEALTH DR,Oakland,CA,
WB I580 & EB S24,Oakland,CA,
14800 E 14TH ST,Oakland,CA,
10300 GRAFFIAN ST,Oakland,CA,
1000 36TH AV,Oakland,CA,
DESMOND ST & GLENDALE AV,Oakland,CA,
100TH AV & CHERRY ST,Oakland,CA,
ASCOT DR & MASTLANDS DR,Oakland,CA,
800 WEST ST,Oakland,CA,
DISTRICT ONE,Oakland,CA,
FOSTER AV & ST ELMO DR,Oakland,CA,
54TH AV & CRITTENDEN ST,Oakland,CA,
2700 E 27TH ST,Oakland,CA,
5100 COCHRANE AV,Oakland,CA,
5600 MAXWELTON RD,Oakland,CA,
5700 GLENBROOK DR,Oakland,CA,
RAILROAD AV & TYLER ST,Oakland,CA,
E 31ST ST & STUART ST,Oakland,CA,
900 70TH AVE,Oakland,CA,
61ST ST & FREMONT ST,Oakland,CA,
TAC 7,Oakland,CA,
38TH AV & KANSAS ST,Oakland,CA,
4100 RIFLE LN,Oakland,CA,
LESSER ST & TIDEWATER AV,Oakland,CA,
18TH AV & SAN ANTONIO WY,Oakland,CA,
PIPPIN ST & PRUNE AV,Oakland,CA,
2200 84TH AVE,Oakland,CA,
7500 SKYLINE BLVD,Oakland,CA,
CALAFIA AV & GOLF LINKS RD,Oakland,CA,
3500 LAMP ST,Oakland,CA,
NEWTON AV & WESLEY AV,Oakland,CA,
EB I580 & SAN PABLO AV,Oakland,CA,
1100 HARRISON ST,Oakland,CA,
0 STAUFFER CT,Oakland,CA,
6100 TEVIS ST,Oakland,CA,
1000 52ND AV,Oakland,CA,
5400 BANCROFT AVE,Oakland,CA,
CIRCLE HILL DR & FIELD ST,Oakland,CA,
3400 MORRISON AV,Oakland,CA,
BEAUMONT AV & WB I580,Oakland,CA,
1300 9TH AV,Oakland,CA,
27TH ST & WB I980,Oakland,CA,
CAPRICORN AV & FLORENCE TER,Oakland,CA,
1600 ARROWHEAD DR,Oakland,CA,
489A 25TH ST,Oakland,CA,
4600 TIDEWATER AV,Oakland,CA,
4300 JENSEN ST,Oakland,CA,
NB S13 & WB S24,Oakland,CA,
2200 MELVIN RD,Oakland,CA,
NB 98TH ONRP AV & NB I880,Oakland,CA,
7000 KENILWORTH RD,Oakland,CA,
0 EL CARMELO CIR,Oakland,CA,
BAYO VISTA AV & FAIRMOUNT AV,Oakland,CA,
2500 LILAC ST,Oakland,CA,
20TH ST & MANDELA PKWY,Oakland,CA,
0 AZALEA LN,Oakland,CA,
GLENVIEW AV & WARFIELD AV,Oakland,CA,
SB 42ND CONN AV & NB I880,Oakland,CA,
6700 THORNHILL DR,Oakland,CA,
102ND AV & GRAFFIAN ST,Oakland,CA,
20TH ST & WOOD ST,Oakland,CA,
1500 86TH AV,Oakland,CA,
1200 PRESERVATION PARK WY,Oakland,CA,
8100 NEY AVE,Oakland,CA,
900 50TH AV,Oakland,CA,
5900 IVANHOE RD,Oakland,CA,
5400 LOWELL ST,Oakland,CA,
ASHMOUNT AV & MANDANA BLVD,Oakland,CA,
MARKET ST & OCCIDENTAL ST,Oakland,CA,
6200 MATHIEU AV,Oakland,CA,
0 THUNDERBIRD CT,Oakland,CA,
35TH AV & ALEXANDER CT,Oakland,CA,
GRAND AV & LINDA AV,Oakland,CA,
1200 65TH AVE,Oakland,CA,
ALBERT ST & MADRONE AV,Oakland,CA,
KIMBERLIN HEIGHTS DR & RISHELL DR,Oakland,CA,
1100 40TH,Oakland,CA,
CIRCLE HILL DR & COLUMBIAN DR,Oakland,CA,
2100 GLEASON WY,Oakland,CA,
1200 BRUSH ST,Oakland,CA,
DUNBAR DR & HAWKINS DR,Oakland,CA,
1200 24TH ST,Oakland,CA,
CUSTER ST & HARRINGTON AV,Oakland,CA,
EDES AV & S ELMHURST AV,Oakland,CA,
14TH AV & EB I580,Oakland,CA,
108TH AV & BEVERLY AV,Oakland,CA,
1600 HAVENSCOURT BLVD,Oakland,CA,
WALKER AV & WELDON AV,Oakland,CA,
700 3RD ST,Oakland,CA,
1200 86TH AVE,Oakland,CA,
4400 ALLENDALE AV,Oakland,CA,
6500 SHEPHERD CANYON RD,Oakland,CA,
106TH AV & SUNNYSIDE ST,Oakland,CA,
3800 ANGELO AV,Oakland,CA,
5800 SAN LEANDRO ST,Oakland,CA,
TELE CORRIDOR,Oakland,CA,
6800 SNAKE RD,Oakland,CA,
106TH AV & WB I580,Oakland,CA,
DENNY ST & DOUGLAS AV,Oakland,CA,
PARTRIDGE AV & UTAH ST,Oakland,CA,
BIRCH CT & COLLEGE AV,Oakland,CA,
80TH AV & ATHERTON ST,Oakland,CA,
5300 MACARTHUR BLVD,Oakland,CA,
2700 38TH AV,Oakland,CA,
ABERFOIL AV & ELVESSA ST,Oakland,CA,
6100 FORTUNE WY,Oakland,CA,
3200 UNION ST,Oakland,CA,
3700 YOUNG AV,Oakland,CA,
6200 SNAKE RD,Oakland,CA,
0 MERRIEWOOD CIR,Oakland,CA,
4600 SEQUOYAH RD,Oakland,CA,
GENOA ST & STANFORD AV,Oakland,CA,
NORTON AV & WISCONSIN ST,Oakland,CA,
9400 GOLF LINKS RD,Oakland,CA,
0 MANDANA CIR,Oakland,CA,
1800 15TH AV,Oakland,CA,
CHABOT RD & ROANOKE RD,Oakland,CA,
5200 GRIZZLY PEAK BLVD,Oakland,CA,
0 ATHOL AV,Oakland,CA,
4500 OAK HILL RD,Oakland,CA,
10900 MOONLIGHT CT,Oakland,CA,
19TH AV & E 29TH ST,Oakland,CA,
COLOMA ST & LINCOLN AV,Oakland,CA,
7800 REDWOOD RD,Oakland,CA,
HARBOR VIEW AV & LOMA VISTA AV,Oakland,CA,
CURRAN AV & WARD LN,Oakland,CA,
6300 SKYLINE BLVD,Oakland,CA,
MALCOLM AV & MARK ST,Oakland,CA,
250C FRANK H OGAWA PLZ,Oakland,CA,
1200 40TH ST,Oakland,CA,
900 PROSPECT AV,Oakland,CA,
4900 HARBORD DR,Oakland,CA,
4300 PAMPAS AV,Oakland,CA,
58TH AV & BRANN ST,Oakland,CA,
6600 CHELTON DR,Oakland,CA,
WB 11TH ONRP ST & WB I980,Oakland,CA,
9100 BANCROFT AV,Oakland,CA,
0 S HILL CT,Oakland,CA,
2300 80TH AVE,Oakland,CA,
5400 HARBORD DR,Oakland,CA,
HILLER DR & NORTH HILL CT,Oakland,CA,
57TH AV & TRASK ST,Oakland,CA,
MONTE VISTA AV & WILDA AV,Oakland,CA,
E 20TH ST & 6TH AV,Oakland,CA,
4300 SHAFTER AV,Oakland,CA,
18TH ST & WB I980,Oakland,CA,
4700 PROCTOR AV,Oakland,CA,
HANOVER AV & NEWTON AV,Oakland,CA,
0 ASHMOUNT WY,Oakland,CA,
AILEEN ST & LOS ANGELES ST,Oakland,CA,
MONTICELLO AV & VICKSBURG AV,Oakland,CA,
E 24TH ST & 26TH AV,Oakland,CA,
2200 NORTHGATE AV,Oakland,CA,
900 ZEPHYR DR,Oakland,CA,
60TH AV & MORSE DR,Oakland,CA,
COOLIDGE AV & TEXAS ST,Oakland,CA,
4200 35TH AV,Oakland,CA,
9600 WALNUT ST,Oakland,CA,
4600 MATTIS CT,Oakland,CA,
BROOKPARK RD & SADDLEBROOK DR,Oakland,CA,
5200 DOVER ST,Oakland,CA,
EXCELSIOR AV & WOODRUFF AV,Oakland,CA,
8300 D ST,Oakland,CA,
2100 COOLIDGE AV,Oakland,CA,
8600 G ST,Oakland,CA,
2900 POPLAR ST,Oakland,CA,
3300 MALCOLM AV,Oakland,CA,
1900 WEST ST,Oakland,CA,
EB 35TH OFFRP AV & EB I580,Oakland,CA,
3900 QUIGLEY ST,Oakland,CA,
FAIR AV & WILKIE ST,Oakland,CA,
E 29TH ST & SHEFFIELD AV,Oakland,CA,
10000 PIPPIN ST,Oakland,CA,
5700 NOTTINGHAM DR,Oakland,CA,
6600 COLISEUM WY,Oakland,CA,
6400 BROOKSIDE AV,Oakland,CA,
CALDECOTT LN / TUNNEL RD,Oakland,CA,
2300 WILLOW ST,Oakland,CA,
1600 MADISON ST,Oakland,CA,
GOLF LINKS RD & SUN VALLEY DR,Oakland,CA,
KELLER AV & WINTHROPE ST,Oakland,CA,
8800 SAN LEANDRO ST,Oakland,CA,
600 1&2 FAIRMOUNT AV,Oakland,CA,
1400 40TH ST,Oakland,CA,
LONGRIDGE RD & ROSEMOUNT RD,Oakland,CA,
22ND AV & LIVINGSTON ST,Oakland,CA,
700 7TH ST,Oakland,CA,
6600 MOORE DR,Oakland,CA,
13200 SKYLINE BLVD,Oakland,CA,
2600 65TH AVE,Oakland,CA,
ALIDA ST & LAGUNA AV,Oakland,CA,
700 62ND ST,Oakland,CA,
DIMOND DIST,Oakland,CA,
MANDANA BLVD & VERMONT ST,Oakland,CA,
100 HILLER DR,Oakland,CA,
1800 DENNISON ST,Oakland,CA,
WB 27TH OFFRP ST & WB I580 COLL,Oakland,CA,
4800 COMMONWEALTH DR,Oakland,CA,
99TH AV & LONGFELLOW AV,Oakland,CA,
CHIMNEY ROCK & ELYSIAN FIELDS DR,Oakland,CA,
2200 106TH AVE,Oakland,CA,
4300 MALCOLM AV,Oakland,CA,
1700 74TH AV,Oakland,CA,
HADDON RD & HILLGIRT CIR,Oakland,CA,
8900 SKYLINE BLVD,Oakland,CA,
1800 16TH AV,Oakland,CA,
5TH ST & KIRKHAM ST,Oakland,CA,
6200 AUBURN AV,Oakland,CA,
106TH AV & PEARMAIN ST,Oakland,CA,
0 ELROD AV,Oakland,CA,
5200 BROOKDALE AV,Oakland,CA,
2000 85TH AVE,Oakland,CA,
2900 MONTANA ST,Oakland,CA,
4400 PLEASANT VALLEY CT N,Oakland,CA,
5500 LEONA ST,Oakland,CA,
EVANS AV & WELLINGTON ST,Oakland,CA,
1800 83RD AV,Oakland,CA,
100 BURMA RD,Oakland,CA,
E 15TH ST & 56TH AV,Oakland,CA,
GLENFIELD AV & WOODRUFF AV,Oakland,CA,
LA SALLE AV & LIGGETT DR,Oakland,CA,
CALAFIA AV & MOUNTAIN BLVD,Oakland,CA,
EL CENTRO AV & HOLLYWOOD AV,Oakland,CA,
3300 ADELL CT,Oakland,CA,
5300 BACON RD,Oakland,CA,
MANDANA BLVD & YORK ST,Oakland,CA,
300 ALTA VISTA AV,Oakland,CA,
10800 SAN LEANDRO ST,Oakland,CA,
6400 CASTLE DR,Oakland,CA,
1300 18TH AV,Oakland,CA,
22ND AV & INDEPENDENCE WY,Oakland,CA,
5900 MERRIEWOOD DR,Oakland,CA,
CHASE ST & WOOD ST,Oakland,CA,
400 GRAVATT DR,Oakland,CA,
SB I880 & SB OAK ONRP ST,Oakland,CA,
MAGEE AV & WISCONSIN ST,Oakland,CA,
1900 PERALTA ST,Oakland,CA,
3100 ELMWOOD AV,Oakland,CA,
1800 CARTER ST,Oakland,CA,
BURLWOOD AV & CLARA ST,Oakland,CA,
CORAL RD & TUNIS RD,Oakland,CA,
OCEAN AV & SAN PABLO AV,Oakland,CA,
1100 107TH AVE,Oakland,CA,
CASWELL AV & MADDUX DR,Oakland,CA,
10500 E ST,Oakland,CA,
400 BANCROFT PL,Oakland,CA,
HOWE ST & JOHN ST,Oakland,CA,
1000 FRANKLIN ST,Oakland,CA,
1100 70TH AVE,Oakland,CA,
TELEGRAPH,Oakland,CA,
1200 15TH AV,Oakland,CA,
0 VAN SICKLEN PL,Oakland,CA,
6100 ASPINWALL RD,Oakland,CA,
EB COOLIDGE ONRP AV & HAROLD ST,Oakland,CA,
FOOTHILL BLVD & FREMONT WY,Oakland,CA,
EDGEMOOR PL & HILLMONT DR,Oakland,CA,
2300 TUNNEL RD,Oakland,CA,
6700 LONGWALK DR,Oakland,CA,
DUBLIN AV & MOUNTAIN BLVD,Oakland,CA,
14TH ST & LAKE MERRITT BLVD,Oakland,CA,
1200 67TH ST,Oakland,CA,
2200 81ST AV,Oakland,CA,
BIRDSALL AV & FLEMING AV,Oakland,CA,
900 66TH AVE,Oakland,CA,
5300 BRODER BLVD,Oakland,CA,
3600 KLAMATH ST,Oakland,CA,
BROADWAY TER & GLENWOOD GLADE,Oakland,CA,
WB I580 & WEST ST,Oakland,CA,
3200 KINGSLAND AV,Oakland,CA,
10100 SAN LEANDRO ST,Oakland,CA,
LONGRIDGE RD & PARAMOUNT RD,Oakland,CA,
CREST AV & GRANADA AV,Oakland,CA,
58TH ST & VICENTE ST,Oakland,CA,
BOYD AV & CLIFTON ST,Oakland,CA,
3800 LUNDHOLM AV,Oakland,CA,
1300 41ST AV,Oakland,CA,
1800 81ST AV,Oakland,CA,
39TH AV & SUTER ST,Oakland,CA,
1800 COMMERCE WY,Oakland,CA,
36TH AV & E 9TH ST,Oakland,CA,
28TH ST & MERRIMAC ST,Oakland,CA,
200 WOOD ST,Oakland,CA,
100 BEAUFOREST DR,Oakland,CA,
60TH ST & WHITNEY ST,Oakland,CA,
COTTER ST & SCOTIA AV,Oakland,CA,
MANDANA BLVD & PALOMA AV,Oakland,CA,
MACARTHUR CORRIDOR,Oakland,CA,
12000 TARTAN WY,Oakland,CA,
21ST AV & E 29TH ST,Oakland,CA,
WB S24 & WB TELEGRAPH OFFRP AV,Oakland,CA,
FRESNO ST & LEGION AV,Oakland,CA,
CALDECOTT LN & WB S24,Oakland,CA,
39TH AV & REINHARDT DR,Oakland,CA,
5400 MILES AV,Oakland,CA,
400 PETERSON ST,Oakland,CA,
2200 WILLOW ST,Oakland,CA,
HERRIER ST & NORTON AV,Oakland,CA,
FRUITVALE AV & HARDING WY,Oakland,CA,
CANON AV & VETERAN WY,Oakland,CA,
3600 SAN PABLO AV,Oakland,CA,
10900 SKYLINE BLVD,Oakland,CA,
KINGSLAND AV & MAXWELL AV,Oakland,CA,
LINDEN ST & W MACARTHUR BLVD,Oakland,CA,
9900 VOLTAIRE AVE,Oakland,CA,
6500 MELVILLE DR,Oakland,CA,
10600 E ST,Oakland,CA,
DAMUTH ST & LAGUNA AV,Oakland,CA,
600 44TH ST,Oakland,CA,
0 CAPTAINS COVE,Oakland,CA,
GRAND AV,Oakland,CA,
GLENWOOD AV & PIEDMONT AV,Oakland,CA,
1300 20TH AV,Oakland,CA,
COLBOURN PL & SKYLINE BLVD,Oakland,CA,
BROADWAY TER & PINEWOOD RD,Oakland,CA,
DIRECTED PATEOL,Oakland,CA,
AGNES ST & SHERIDAN RD,Oakland,CA,
BROADWAY TER & GOLDEN GATE AV,Oakland,CA,
BROADWAY TER & SB S13,Oakland,CA,
23RD AV & E 29TH ST,Oakland,CA,
21ST AV & MARIN WY,Oakland,CA,
6800 SHEPHERD CANYON RD,Oakland,CA,
5600 GRISBORNE AV,Oakland,CA,
HILLGIRT CIR & WESLEY AV,Oakland,CA,
1100 FLEET RD,Oakland,CA,
EL VERANO ST & KERWIN AV,Oakland,CA,
21ST AV & SONOMA WY,Oakland,CA,
1000 73RD AVE,Oakland,CA,
NB 66TH OFFRP AV & NB I880,Oakland,CA,
70TH AV & ORRAL ST,Oakland,CA,
1000 WEST ST,Oakland,CA,
62ND ST & HILLEGASS AV,Oakland,CA,
6400 BROADWAY,Oakland,CA,
1700 42ND AV,Oakland,CA,
CHATHAM RD & MACARTHUR BLVD,Oakland,CA,
0 RIDGEWOOD LN,Oakland,CA,
8300 FONTAINE ST,Oakland,CA,
5900 SHERWOOD DR,Oakland,CA,
6000 AVOCA AV,Oakland,CA,
BARTLETT ST & PENNIMAN AV,Oakland,CA,
8700 SKYLINE BLVD,Oakland,CA,
DIRECTIVE PATROL DIST 1,Oakland,CA,
DOVER ST & FAIRVIEW ST,Oakland,CA,
4600 COLISEUM WY,Oakland,CA,
4TH ST & MARTIN LUTHER KING JR WY,Oakland,CA,
5500 MAXWELTON RD,Oakland,CA,
1100 MIDDLE HARBOR,Oakland,CA,
10TH ST & KIRKHAM CT,Oakland,CA,
700 CASTRO ST,Oakland,CA,
6200 ROCKWELL ST,Oakland,CA,
MERCED AV & MOUNTAIN BLVD,Oakland,CA,
1700 CARTER ST,Oakland,CA,
GRAND AV & W GRAND AV,Oakland,CA,
3400 MAYBELLE WY,Oakland,CA,
4700 HARBORD DR,Oakland,CA,
5500 REDWOOD RD,Oakland,CA,
E 38TH ST & MACARTHUR BLVD,Oakland,CA,
PENNIMAN AV & SHORT ST,Oakland,CA,
1100 50TH AV,Oakland,CA,
DIRECTED PATROL DIST 1,Oakland,CA,
14TH AV & 19TH AV,Oakland,CA,
SARONI DR & SHEPHERD CANYON RD,Oakland,CA,
E 11TH ST & LISBON AV,Oakland,CA,
EMPIRE RD & TUNIS RD,Oakland,CA,
MONTANA ST & WILSON AV,Oakland,CA,
5700 MACARTHUR BLVD,Oakland,CA,
BROADWAY & EB I580,Oakland,CA,
1600 70TH AVE,Oakland,CA,
HILLGIRT CIR & KENWYN RD,Oakland,CA,
3400 64TH AV,Oakland,CA,
6000 ROSS ST,Oakland,CA,
0 EVIREL PL,Oakland,CA,
ATHOL AV & PROSPECT AV,Oakland,CA,
7000 SAN LEANDRO ST,Oakland,CA,
WB 27TH OFFRP ST & WB S24,Oakland,CA,
MOUNTAIN BLVD & STAUFFER PL,Oakland,CA,
CLIFFLAND AV & DINGLEY ST,Oakland,CA,
28TH ST & POPLAR ST,Oakland,CA,
COVINGTON ST & ROXBURY AV,Oakland,CA,
ELSTON AV & HAMPEL ST,Oakland,CA,
27200 CALAROGA,Oakland,CA,
2200 BRAEMAR RD,Oakland,CA,
4800 MARTIN LUTHER KING JR WY,Oakland,CA,
2400 WEST 14TH ST,Oakland,CA,
PALOMA AV & SANTA RAY AV,Oakland,CA,
0 KEY CT,Oakland,CA,
7000 PASO ROBLES DR,Oakland,CA,
2900 64TH AV,Oakland,CA,
KINGSLAND AV & MADERA AV,Oakland,CA,
1200 WESTVIEW DR,Oakland,CA,
5500 TRASK ST,Oakland,CA,
BROADWAY TER & HERMOSA AV,Oakland,CA,
4TH ST & JEFFERSON ST,Oakland,CA,
CHARING CROSS RD & TUNNEL RD,Oakland,CA,
1100 MILLER PL,Oakland,CA,
300 CHADBOURNE WY,Oakland,CA,
4400 SHORT HILL RD,Oakland,CA,
0 DAWN ST,Oakland,CA,
200 BURMA RD,Oakland,CA,
9600 WALTER AV,Oakland,CA,
37TH/SAN PABLO,Oakland,CA,
9500 GRANADA AV,Oakland,CA,
3700 SP,Oakland,CA,
BRYANT AV & MANILA AV,Oakland,CA,
3600 13 AV,Oakland,CA,
0 BIEHS CT,Oakland,CA,
81ST AV & ATHERTON ST,Oakland,CA,
58TH ST & CARBERRY AV,Oakland,CA,
DELMER ST & LAGUNA AV,Oakland,CA,
0 STANTONVILLE CT,Oakland,CA,
38TH AV & CALIFORNIA ST,Oakland,CA,
CALODEN ST & GOLF LINKS RD,Oakland,CA,
3500 66TH AVE,Oakland,CA,
BEACH ST & HALLECK ST,Oakland,CA,
BARNER AV & MORGAN AV,Oakland,CA,
0 RONADA AV,Oakland,CA,
DIRECTIVE PATROL DIST 2,Oakland,CA,
700 JACKSON ST,Oakland,CA,
HELLMAN ST & MALCOLM AV,Oakland,CA,
60TH ST & RACINE ST,Oakland,CA,
FAIRBANKS AV & VERMONT ST,Oakland,CA,
4500 COLISEUM WY,Oakland,CA,
NEWTON AV & STOW AV,Oakland,CA,
1700 1&2 86TH AV,Oakland,CA,
600 ELYSIAN FIELDS DR,Oakland,CA,
2500 62ND AVE,Oakland,CA,
FAIRMOUNT AV & SANTA CLARA AV,Oakland,CA,
7000 EDGEWATER DR,Oakland,CA,
MAGELLAN DR & SNAKE RD,Oakland,CA,
1500 103RD AV,Oakland,CA,
6300 ACACIA AV,Oakland,CA,
26TH ST & KIRKHAM ST,Oakland,CA,
3300 1&2 SAN LEANDRO ST,Oakland,CA,
BAGSHOTTE DR & CHELTON DR,Oakland,CA,
66TH ST & HELEN CT,Oakland,CA,
TOLER AV & WARNER AV,Oakland,CA,
1100 BRUSH ST,Oakland,CA,
FONTAINE OVERCROSSING & MOUNTAIN BLVD,Oakland,CA,
5800 LA SALLE AV,Oakland,CA,
EDES AV & PHELPS ST,Oakland,CA,
0 EUSTICE AV,Oakland,CA,
1300 DRURY RD,Oakland,CA,
DURANT AV / INTERNATIONAL BLVD,Oakland,CA,
6300 ROANOKE RD,Oakland,CA,
1500 87TH AV,Oakland,CA,
2700 CAMINO LENADA ST,Oakland,CA,
80TH AV & DOWLING ST,Oakland,CA,
11200 SUN VALLEY DR,Oakland,CA,
100TH AV & PEARMAIN ST,Oakland,CA,
EXCELSIOR AV & RANDOLPH AV,Oakland,CA,
4200 SEQUOYAH RD,Oakland,CA,
38TH ST & OPAL ST,Oakland,CA,
BOULEVARD WY & LAKESHORE AV,Oakland,CA,
BIRCH ST & WARNER AV,Oakland,CA,
HOLLIS ST & W MACARTHUR BLVD,Oakland,CA,
1800 86TH AV,Oakland,CA,
800 6TH ST,Oakland,CA,
AILEEN ST & GASKILL ST,Oakland,CA,
800 39TH ST,Oakland,CA,
LAKESHORE AV & RAND AV,Oakland,CA,
1400 84TH AVE,Oakland,CA,
3400 WOODRUFF AV,Oakland,CA,
4700 MARTIN LUTHER KING JR WY,Oakland,CA,
3200 E 8TH ST,Oakland,CA,
TOMPKINS AV & VALE AV,Oakland,CA,
CORAL RD & GANNON RD,Oakland,CA,
5400 WADEAN PLACE,Oakland,CA,
GREENLY DR & HOLMES AV,Oakland,CA,
E 28TH ST & VALLECITO PL,Oakland,CA,
2000 LIVINGSTON ST,Oakland,CA,
900 HARRISON ST,Oakland,CA,
4117E PENNIMAN CT,Oakland,CA,
6400 SNAKE RD,Oakland,CA,
600 BROOKWOOD PL,Oakland,CA,
88TH AV & E ST,Oakland,CA,
FLEMING AV & MORCOM AV,Oakland,CA,
COOLIDGE AV & RHODA AV,Oakland,CA,
PIEDMONT AV & WARREN AV,Oakland,CA,
SPECIAL ASSIGNMENT DOWNTOWN,Oakland,CA,
6300 MELVILLE DR,Oakland,CA,
0 EAST CIR,Oakland,CA,
VERNON ST & VERNON TER,Oakland,CA,
63RD AV & HILTON ST,Oakland,CA,
103RD AV & ROYAL ANN ST,Oakland,CA,
600 PALISADE,Oakland,CA,
6900 ARMOUR DR,Oakland,CA,
1500 E 21ST ST,Oakland,CA,
0 CARISBROOK LN,Oakland,CA,
0 PINE HILLS CT,Oakland,CA,
0 ELSTON CT,Oakland,CA,
3500 MARTIN LUTHER KING JR WY,Oakland,CA,
HAMPEL ST & LINWOOD AV,Oakland,CA,
DENNISON ST & KING ST,Oakland,CA,
CHANDLER ST & TUCKER ST,Oakland,CA,
1800 SAUSAL ST,Oakland,CA,
HANSOM DR & SURREY LN,Oakland,CA,
WB S24 & NB TUNNEL CONN RD,Oakland,CA,
5700 SNAKE RD,Oakland,CA,
2000 WRENN ST,Oakland,CA,
0 ELYSIAN PL,Oakland,CA,
MACARTHUR BLVD & MILLSVIEW AV,Oakland,CA,
107TH AV & E ST,Oakland,CA,
OLIVER AV & STANLEY AV,Oakland,CA,
30TH ST & MARTIN LUTHER KING J,Oakland,CA,
50TH AV & JUDD PL,Oakland,CA,
5000 CLAREWOOD DR,Oakland,CA,
2600 OLIVER AV,Oakland,CA,
FLORIDA ST & LAUREL AV,Oakland,CA,
4000 1&2 QUIGLEY ST,Oakland,CA,
800 E. 28TH ST,Oakland,CA,
E 17TH ST & 8TH AV,Oakland,CA,
3800 SAN PABLO,Oakland,CA,
OVER ST & VIOLA ST,Oakland,CA,
NB 5TH OFFRP AV & SB I880,Oakland,CA,
DISTRICT 1 DIRECTED PATROL,Oakland,CA,
1300 26TH ST,Oakland,CA,
3500 WEBSTER ST,Oakland,CA,
7800 MOUNTAIN BLVD,Oakland,CA,
49TH ST & MANILA AV,Oakland,CA,
1000 35TH AV,Oakland,CA,
LEONA DR & OLD QUARRY LOOP,Oakland,CA,
WARFIELD AV & WICKSON AV,Oakland,CA,
NB I880 CONN & MARITIME ST,Oakland,CA,
6100 VALLEY VIEW RD,Oakland,CA,
1700 2ND AV,Oakland,CA,
1300 WESTVIEW DR,Oakland,CA,
CAMDEN ST & WYMAN ST,Oakland,CA,
900 PERALTA ST,Oakland,CA,
1000 MARITIME ST,Oakland,CA,
6100 LAWTON AV,Oakland,CA,
MONTICELLO AV & WALNUT ST,Oakland,CA,
4300 CHAMBERLIN CT,Oakland,CA,
1100 66TH AVE,Oakland,CA,
0 VILLANOVA DR,Oakland,CA,
2300 INYO AV,Oakland,CA,
5000 WEST ST,Oakland,CA,
1100 STANFORD AV,Oakland,CA,
BRUNELL DR & BRUNELL PL,Oakland,CA,
1800 7TH ST,Oakland,CA,
2300 MILLER PL,Oakland,CA,
5800 VIRMAR AV,Oakland,CA,
FAIRFAX AV & POTTER ST,Oakland,CA,
JOAQUIN MILLER RD & MONTEREY BLVD,Oakland,CA,
0 BURDECK CT,Oakland,CA,
SPECIAL ASSIGN DIST 2,Oakland,CA,
COLLEGE/ALCATRAZ,Oakland,CA,
MAPLE AV & MONTANA ST,Oakland,CA,
6500 LION WY,Oakland,CA,
1200 9TH AV,Oakland,CA,
500 ADELINE ST,Oakland,CA,
1400 74TH AVE,Oakland,CA,
0 SARONI CT,Oakland,CA,
13300 SLOPECREST DR,Oakland,CA,
BERMUDA AV & MOUNTAIN BLVD,Oakland,CA,
3800 WOODRUFF AV,Oakland,CA,
5100 BROOKDALE AV,Oakland,CA,
AGUA VISTA ST & ROSEDALE AV,Oakland,CA,
10900 PACKARD ST,Oakland,CA,
D~PATROL,Oakland,CA,
E 10TH ST & PORTWOOD AV,Oakland,CA,
SPCENF,Oakland,CA,
PIEDMONT CORRIDOR,Oakland,CA,
GLENDALE AV & MANILA AV,Oakland,CA,
1000 PORTAL AV,Oakland,CA,
100 GLENEDEN AV,Oakland,CA,
LOMA VISTA WY & OCTAVIA ST,Oakland,CA,
3500 HARBOR VIEW AV,Oakland,CA,
1700 FREMONT WY,Oakland,CA,
CLAREMONT AV & WB S24,Oakland,CA,
2000 69TH AVE,Oakland,CA,
BERKELEY BART,Oakland,CA,
9000 LAWLOR ST,Oakland,CA,
9100 CHERRY ST,Oakland,CA,
6700 LIGGETT DR,Oakland,CA,
MARION AV & STAR AV,Oakland,CA,
BANCROFT AV & LINK ST,Oakland,CA,
BERNHARDT DR & LOUVAINE AV,Oakland,CA,
56TH ST & CARBERRY AV,Oakland,CA,
LEONA ST & MOUNTAIN VIEW AV,Oakland,CA,
BARTLETT ST & LYNDE ST,Oakland,CA,
JOHN ST & MONTGOMERY ST,Oakland,CA,
700 63RD ST,Oakland,CA,
6900 CHABOT RD,Oakland,CA,
9900 PEARMAIN ST,Oakland,CA,
1300 MARTIN LUTHER KING JR WY,Oakland,CA,
7100 MACARTHUR BLVD,Oakland,CA,
1800 35TH AV,Oakland,CA,
FAIRMOUNT AV & PEARL ST,Oakland,CA,
DIRECTED PATROL D2,Oakland,CA,
CARSON ST & TOMPKINS AV,Oakland,CA,
1100 23RD AV,Oakland,CA,
100 EVERGREEN LN,Oakland,CA,
BULLARD DR & ESTATES DR,Oakland,CA,
DIAMOND DISTRICT,Oakland,CA,
18TH AV & GLEASON WY,Oakland,CA,
57TH ST & LOS ANGELES ST,Oakland,CA,
99TH AV & STEARNS AV,Oakland,CA,
7500 LOCKWOOD ST,Oakland,CA,
3000 FRUITVALE AVE,Oakland,CA,
27400 HESPERIAN,Oakland,CA,
ALVARADO RD & GRAVATT DR,Oakland,CA,
100 TAURUS AV,Oakland,CA,
10700 ETTRICK ST,Oakland,CA,
WB I580 & RICHMOND BLVD,Oakland,CA,
MOUNTAIN BLVD & PINEWOOD RD,Oakland,CA,
0 DRAKE LN,Oakland,CA,
900 PORTAL AV,Oakland,CA,
LAKESHORE AV & ROSAL AV,Oakland,CA,
WB I580 COLL & WB I980,Oakland,CA,
7200 CHABOT RD,Oakland,CA,
4900 PARK BLVD,Oakland,CA,
57TH ST & GASKILL ST,Oakland,CA,
1900 102ND AVE,Oakland,CA,
500 GRAVATT DR,Oakland,CA,
INTERNATIONAL BLVD & MUNSON WY,Oakland,CA,
5600 CHAPPEL PL,Oakland,CA,
MONTCLAIR AV & PROSPECT AV,Oakland,CA,
107TH AV & PIPPIN ST,Oakland,CA,
HILLER DR & WINDWARD HILL,Oakland,CA,
8800 BURR ST,Oakland,CA,
1300 15TH AV,Oakland,CA,
800 ATHENS AVE,Oakland,CA,
100 DONNA WY,Oakland,CA,
2500 FAIRMONT DR,Oakland,CA,
11300 SUN VALLEY DR,Oakland,CA,
65TH ST & WHEELER ST,Oakland,CA,
9000 G ST,Oakland,CA,
ASHTON AV & ROSSMOOR AV,Oakland,CA,
1400 50TH AVE,Oakland,CA,
LAKE MERRITT BLVD & LAKESIDE DR,Oakland,CA,
4100 SAN PABLO,Oakland,CA,
8400 EDGEWATER,Oakland,CA,
BOYD AV & FOREST ST,Oakland,CA,
MONTEREY BLVD & SYLHOWE RD,Oakland,CA,
1400 104TH AVE,Oakland,CA,
500 54TH ST,Oakland,CA,
PARKSIDE DR & RONADA AV,Oakland,CA,
BRIDGEVIEW DR & LEIMERT BLVD,Oakland,CA,
400 PEDESTRIAN WY,Oakland,CA,
EB 12TH ONRP ST & EB I980,Oakland,CA,
3800 MALCOLM AV,Oakland,CA,
4000 EDGEMOOR PL,Oakland,CA,
12TH ST & PRESERVATION PARK WY,Oakland,CA,
1300 BRUSH ST,Oakland,CA,
CAMPUS DR & HIGHKNOLL DR,Oakland,CA,
INTL COORIDOR,Oakland,CA,
100 PINE HILLS LN,Oakland,CA,
3300 PENNIMAN AV,Oakland,CA,
4900 FOOTHILL BLVD,Oakland,CA,
SB ADELINE ONRP ST & SB I880,Oakland,CA,
CALAVARAS AV & DAVENPORT AV,Oakland,CA,
0 YANKEE HILL,Oakland,CA,
19TH AV & COMMERCE WY,Oakland,CA,
100 ROSS CIR,Oakland,CA,
CALODEN ST & MALCOLM AV,Oakland,CA,
40TH STREET CORRIDOR,Oakland,CA,
8TH AV & BEATIE ST,Oakland,CA,
CAMPUS DR & ROCKINGHAM CT,Oakland,CA,
1100 JEFFERSON ST,Oakland,CA,
4300 SAN PABLO AV,Oakland,CA,
2100 DRAKE DR,Oakland,CA,
82ND AV & ASTER AV,Oakland,CA,
75TH AV & HEGENBERGER ONRP,Oakland,CA,
EB I580 & EB MOUNTAIN ONRP BL,Oakland,CA,
3400 MAYBELLE AV,Oakland,CA,
2900 67TH AV,Oakland,CA,
1300 14TH AV,Oakland,CA,
4500 CLAREWOOD DR,Oakland,CA,
MOKELUMNE AV & SIMSON ST,Oakland,CA,
102ND AV & C ST,Oakland,CA,
WB BROADWAY OFFRP & WB S24,Oakland,CA,
EASTMONT,Oakland,CA,
BAGSHOTTE DR & WESTOVER DR,Oakland,CA,
MACARTHUR BLVD & RICHARDS RD,Oakland,CA,
13TH ST & FALLON ST,Oakland,CA,
2200 LAKESHORE AVE,Oakland,CA,
DOWNEY PL & SUNNYHILLS RD,Oakland,CA,
3600 PIEDMONT AV,Oakland,CA,
8400 PINE HILLS DR,Oakland,CA,
MARGARITA AV & MURILLO AV,Oakland,CA,
29TH ST & MARTIN LUTHER KING J,Oakland,CA,
6700 CHABOT RD,Oakland,CA,
1600 68TH AVE,Oakland,CA,
900 105TH AVE,Oakland,CA,
HARRISON ST & MONTE VISTA AV,Oakland,CA,
EVERGREEN AV & EXETER DR,Oakland,CA,
CHABOT RD & CLOVER DR,Oakland,CA,
8400 EARHART DR,Oakland,CA,
15000 FOOTHILL BLVD,Oakland,CA,
GREENWOOD AV & NORWOOD AV,Oakland,CA,
900 85TH AVE,Oakland,CA,
100 BUCKEYE AVE,Oakland,CA,
WB 17TH ONRP ST & BRUSH ST,Oakland,CA,
1700 81ST AVE,Oakland,CA,
4100 ALISO AV,Oakland,CA,
CHADBOURNE WY & CRESTMONT DR,Oakland,CA,
103RD AV & DANTE AV,Oakland,CA,
18TH AV & COMMERCE WY,Oakland,CA,
0 MAYDON CT,Oakland,CA,
CROSS RD & ROMANY RD,Oakland,CA,
1600 1&2 E 32ND ST,Oakland,CA,
3200 LAKESHORE AVE,Oakland,CA,
FONTAINE ST & SHONE AV,Oakland,CA,
72ND AV & HERBERT GUICE WY,Oakland,CA,
3000 73RD AVE,Oakland,CA,
8300 E,Oakland,CA,
1700 ALHAMBRA LN,Oakland,CA,
1300 81ST AVE,Oakland,CA,
2400 90TH AVE,Oakland,CA,
MCKINLEY AV & MONTCLAIR AV,Oakland,CA,
FRUITVALE AV & FUNSTON PL,Oakland,CA,
MLK/STANFORD,Oakland,CA,
BURDECK DR & HEDGE LN,Oakland,CA,
BRENTWOOD RD & ROSECREST DR,Oakland,CA,
1300 11TH AV,Oakland,CA,
2200 38TH AVE,Oakland,CA,
3000 PERALTA ST,Oakland,CA,
5400 ESTATES DR,Oakland,CA,
6600 OAKWOOD DR,Oakland,CA,
PRINCE ST & WARFIELD AV,Oakland,CA,
CALAVARAS AV & WB I580,Oakland,CA,
CAMPUS DR & RISING HILL CT,Oakland,CA,
3000 TOTTERDELL ST,Oakland,CA,
55TH ST & VALLEJO ST,Oakland,CA,
5900 OAKPORT ST,Oakland,CA,
TOPANGA,Oakland,CA,
2500 26TH AVE,Oakland,CA,
17TH AV & GLEASON WY,Oakland,CA,
COLLEGE AVE CORRIDOR,Oakland,CA,
200 MAC DONALD AV,Oakland,CA,
SL HOSPITAL,Oakland,CA,
HYACINTH AV & MADRONE AV,Oakland,CA,
CORTEREAL AV & MAGELLAN DR,Oakland,CA,
S ELMHURST AV & OSCAR AV,Oakland,CA,
1200 POPLAR ST,Oakland,CA,
10100 C ST,Oakland,CA,
ASCOT DR & LA CUESTA ST,Oakland,CA,
800 MARTIN LUTHER KING JR WAY,Oakland,CA,
KENTWOOD CT & MOUNTAIN BLVD,Oakland,CA,
1000 72ND AVE,Oakland,CA,
BROADWAY TER & MONROE AV,Oakland,CA,
CABOT DR & MOUNTAIN BLVD,Oakland,CA,
ADA ST & BRYANT AV,Oakland,CA,
3300 13TH AV,Oakland,CA,
1800 NORTHWOOD CT,Oakland,CA,
E 32ND ST & PALMER AV,Oakland,CA,
ALCATRAZ AV & IRWIN CT,Oakland,CA,
3600 ADELINE ST,Oakland,CA,
100 VILLANOVA,Oakland,CA,
FRYE ST & WILSHIRE BLVD,Oakland,CA,
GROSVENOR PL & UNDERHILLS RD,Oakland,CA,
1500 36TH AVE,Oakland,CA,
11200 GOLF LINKS ROAD,Oakland,CA,
KAISER SAN JOSE,Oakland,CA,
NB PARK OFFRP BL & NB S13,Oakland,CA,
DIRECTED PARTOL,Oakland,CA,
EMPIRE RD & GANNON RD,Oakland,CA,
1000 81ST AVE,Oakland,CA,
8500 EARHART DR,Oakland,CA,
900 ERIE ST,Oakland,CA,
HOMELESS,Oakland,CA,
6000 COLISEUM WY,Oakland,CA,
100 E 11TH ST,Oakland,CA,
2126A 62ND AV,Oakland,CA,
PASO ROBLES DR & SARONI DR,Oakland,CA,
14700 WASHINGTON AV,Oakland,CA,
2500 BANCROFT WY,Oakland,CA,
BANCROFT AV & BANCROFT WY,Oakland,CA,
PARKRIDGE DR & SLOPECREST DR,Oakland,CA,
BERLIN WY & MAPLE AV,Oakland,CA,
4600 SCOTIA AV,Oakland,CA,
E 11TH ST & 27TH AV,Oakland,CA,
BYWOOD DR & LEIMERT BLVD,Oakland,CA,
6400 SAN LEANDRO AVE,Oakland,CA,
3700 COOLIDGE AVE,Oakland,CA,
1100 67TH ST,Oakland,CA,
ASPINWALL RD & WESTWOOD WY,Oakland,CA,
CASTERLINE RD & WATERHOUSE RD,Oakland,CA,
200 ADELINE ST,Oakland,CA,
LINCOLN AV & PALMETTO ST,Oakland,CA,
200 PANORAMIC WY,Oakland,CA,
BUENA VISTA AV & CONTRA COSTA RD,Oakland,CA,
105TH AV & PATRICIA CT,Oakland,CA,
RENWICK ST & WALNUT ST,Oakland,CA,
CLAREWOOD DR & HARBORD DR,Oakland,CA,
3300 64TH AVE,Oakland,CA,
42ND AV & COURTLAND AV,Oakland,CA,
SHATTUCK AV & UNIVERSITY AV,Oakland,CA,
CHARLESTON ST & LAGUNA AV,Oakland,CA,
CLIFFLAND AV & KERRIGAN DR,Oakland,CA,
1500 98TH AVE,Oakland,CA,
E 11TH ST & 26TH AV,Oakland,CA,
1300 23RD AV,Oakland,CA,
COLLEGE CORRIDOR,Oakland,CA,
HERRIER ST & MIDVALE AV,Oakland,CA,
EMPIRE RD & WISTAR RD,Oakland,CA,
2100 DENNISON ST,Oakland,CA,
40TH ST & HORTON ST,Oakland,CA,
DIRECTED PATROL D1,Oakland,CA,
CANYON OAKS DR & KELLER AV,Oakland,CA,
FLORENCE AV & PROCTOR AV,Oakland,CA,
DISTRICT 2 DIRECTED PATROL,Oakland,CA,
BALFOUR AV & ROSAL AV,Oakland,CA,
2000 MOWRY AV,Oakland,CA,
INTERNATIONAL BL,Oakland,CA,
1100 MIDDLE HARBOUR,Oakland,CA,
19TH AV & INDEPENDENCE WY,Oakland,CA,
MACARTHUR BLVD & TAYLOR AV,Oakland,CA,
1900 98TH AVE,Oakland,CA,
DURANT AV & MYERS CT,Oakland,CA,
EB I580 & RICHMOND BLVD,Oakland,CA,
600 KIRKHAM ST,Oakland,CA,
2600 PARKER AVE,Oakland,CA,
1900 CALAVERAS CIR,Oakland,CA,
EB BROADWAY OFFRP & EB S24,Oakland,CA,
1800 POPLAR ST,Oakland,CA,
SB CARSON ONRP ST & SB S13,Oakland,CA,
TEL CORRIDOR,Oakland,CA,
10700 FLINT CT,Oakland,CA,
IVANHOE RD & MILES AV,Oakland,CA,
DESMOND ST & HEMPHILL PL,Oakland,CA,
4500 MELROSE AV,Oakland,CA,
51ST ST & MARTIN LUTHER KING J,Oakland,CA,
WB GRAND ONRP AV & SANTA CLARA AV,Oakland,CA,
FORD ST & LANCASTER ST,Oakland,CA,
BERGEDO DR & ROBLEDO DR,Oakland,CA,
CHABOT RD & REATA PL,Oakland,CA,
5200 PARK BLVD,Oakland,CA,
BROADWAY TER & ROMANY RD,Oakland,CA,
3600 SAN PABLO,Oakland,CA,
FOOTHILL BLVD & MUNSON WY,Oakland,CA,
0 ALVARADO PL,Oakland,CA,
37TH ST & MARTIN LUTHER KING J,Oakland,CA,
40TH ST & SHELLMOUND ST,Oakland,CA,
5800 GENOA ST,Oakland,CA,
5700 MARGARIDO DR,Oakland,CA,
1800 AUSEON AV,Oakland,CA,
8300 PLYMOUTH AV,Oakland,CA,
FISH RANCH RD & GRIZZLY PEAK BLV,Oakland,CA,
1200 JEFFERSON ST,Oakland,CA,
200 HERMOSA AV,Oakland,CA,
5200 CLAREWOOD DR,Oakland,CA,
NB 7TH ONRP ST & WEBSTER ST,Oakland,CA,
MOUNTAIN BLVD & OAKLEAF ST,Oakland,CA,
6000 LAWTON AV,Oakland,CA,
LAKE MERRITT,Oakland,CA,
E 8TH ST & 9TH AV,Oakland,CA,
LAUREL AV & SYLVAN AV,Oakland,CA,
510A 105TH AV,Oakland,CA,
GLEN MANOR PL & GRASS VALLEY RD,Oakland,CA,
UPPER TELEGRAPH,Oakland,CA,
2000 38TH AVE,Oakland,CA,
E 29TH ST & SUNSET AV,Oakland,CA,
2800 COSGRAVE AV,Oakland,CA,
20100 LAKE CHABOT RD,Oakland,CA,
BALFOUR AV & SANTA RAY AV,Oakland,CA,
2000 45TH AVE,Oakland,CA,
61ST AV & MORSE DR,Oakland,CA,
ADELL CT & MONTANA ST,Oakland,CA,
6400 FLORIO ST,Oakland,CA,
1800 42ND AV,Oakland,CA,
ABERFOIL AV & ETTRICK ST,Oakland,CA,
ALTAMONT AV & MOKELUMNE AV,Oakland,CA,
1800 SAN PABLO AVE,Oakland,CA,
1200 60TH AVE,Oakland,CA,
1900 66TH AV,Oakland,CA,
0 GYPSY LN,Oakland,CA,
2800 RICHMOND AV,Oakland,CA,
4400 VIRGINIA AVE,Oakland,CA,
EB 35TH OFFRP AV & EB COOLIDGE ONRP AV,Oakland,CA,
E 32ND ST & HAMLINE AV,Oakland,CA,
GRAND AVE,Oakland,CA,
9100 G ST,Oakland,CA,
CARSON ST & FAIR AV,Oakland,CA,
400 HEGENBERGER,Oakland,CA,
1600 POPLAR ST,Oakland,CA,
CLAY ST & FRANK H OGAWA PLZ,Oakland,CA,
6200 MARKET ST,Oakland,CA,
SB HEGENBERGER OFFRP AV & SB I88,Oakland,CA,
ESTATES DR & FLORENCE AV,Oakland,CA,
63RD ST & HILLEGASS AV,Oakland,CA,
1600 SOLANO WY,Oakland,CA,
CARMEL ST & LINCOLN AV,Oakland,CA,
CAPWELL DR & PENDLETON WY,Oakland,CA,
0 9TH ST,Oakland,CA,
1100 ROSE AV,Oakland,CA,
E 19TH ST & 24TH AV,Oakland,CA,
1500 104TH AV,Oakland,CA,
400 BANCROFT AV,Oakland,CA,
109TH AV & SUNNYSIDE ST,Oakland,CA,
SPEICAL ASSIGNMENT,Oakland,CA,
3100 E 13TH ST,Oakland,CA,
KANSAS ST & MADRONE AV,Oakland,CA,
GREGORY ST & REINHARDT DR,Oakland,CA,
BEAT 4,Oakland,CA,
6800 SKYLINE BLVD,Oakland,CA,
2200 HARRISON ST,Oakland,CA,
2200 23RD AVE,Oakland,CA,
BAYO VISTA AV & OAKLAND AV,Oakland,CA,
3100 14TH AVE,Oakland,CA,
HILLMONT DR & TULLY PL,Oakland,CA,
4100 BANCROFT WY,Oakland,CA,
UNKNOWN ADDRESS,Oakland,CA,
1700 ARROWHEAD DR,Oakland,CA,
MERRIEWOOD CIR & NOTTINGHAM DR,Oakland,CA,
BERNHARDT DR & HUNTER AV,Oakland,CA,
0 BRENTWOOD PL,Oakland,CA,
11100 GLEN MANOR PL,Oakland,CA,
"7000 BANCROFT AVE, OAKLAND, CA 94605",Oakland,CA,
107TH AV & VOLTAIRE AV,Oakland,CA,
LIESE AV & SUTER ST,Oakland,CA,
400 BRUSH ST,Oakland,CA,
8700 EDES AV,Oakland,CA,
107TH AV & PEARMAIN ST,Oakland,CA,
1900 15TH AV,Oakland,CA,
WB I580 & WB SEMINARY ONRP AV,Oakland,CA,
6000 TEVIS ST,Oakland,CA,
GERANIUM PL & MOUNTAIN BLVD,Oakland,CA,
2900 LOGAN ST,Oakland,CA,
1500 16TH ST,Oakland,CA,
5200 MCDONELL AV,Oakland,CA,
200 KIMBERLIN HEIGHTS DR,Oakland,CA,
2700 77TH AVE,Oakland,CA,
DIST 3 DIRECTED PATROL,Oakland,CA,
6000 ROCKWELL ST,Oakland,CA,
34TH ST & EB I980 CONN,Oakland,CA,
CURRAN AV & SUTER ST,Oakland,CA,
TIFFIN RD & WATERHOUSE RD,Oakland,CA,
58TH ST & CANNING ST,Oakland,CA,
8500 ENTERPRISE WY,Oakland,CA,
FOOTHILL BLVD & REVERE AV,Oakland,CA,
400 FALLON ST,Oakland,CA,
2700 E C REEMS,Oakland,CA,
3100 LOGAN ST,Oakland,CA,
2200 26TH AV,Oakland,CA,
2800 DARNBY DR,Oakland,CA,
E 16TH ST & 41ST AV,Oakland,CA,
MONTCLAIR AREA,Oakland,CA,
3200 JOAQUIN MILLER RD,Oakland,CA,
GARLAND AV & HARRISON ST,Oakland,CA,
3900 KANSAS ST,Oakland,CA,
14TH AV & FOOTHILL PL,Oakland,CA,
241A OAKLAND AV,Oakland,CA,
9600 MOUNTAIN BLVD,Oakland,CA,
BOULDER AV & LEONA DR,Oakland,CA,
4400 SAN PABLO,Oakland,CA,
HEAFEY RD & SEQUOYAH RD,Oakland,CA,
0 ARMANINO CT,Oakland,CA,
10700 SUNNYSIDE ST,Oakland,CA,
OAK GROVE AV & PEDESTRIAN WY,Oakland,CA,
HILLEN DR & MADERA AV,Oakland,CA,
7200 WILD CURRANT WY,Oakland,CA,
INTERNATIONAL AREA,Oakland,CA,
41ST AV & MERA ST,Oakland,CA,
48TH ST & SHAFTER AV,Oakland,CA,
3400 1&2 KINGSLAND AV,Oakland,CA,
1700 TELEGRAPH AVE,Oakland,CA,
62ND AV & HOLWAY ST,Oakland,CA,
62ND ST & COLLEGE AV,Oakland,CA,
A ST & MANUEL CT,Oakland,CA,
HEGENBERGER AND EDGEWATER,Oakland,CA,
ALAMEDA,Oakland,CA,
4704B MACARTHUR BLVD,Oakland,CA,
HANSOM DR & SHAY DR,Oakland,CA,
2000 27TH AVE,Oakland,CA,
3600 SEMINARY AV,Oakland,CA,
CHELSEA DR & CHELTON DR,Oakland,CA,
MASONIC AV & MORAGA AV,Oakland,CA,
7600 CLAREMONT AV,Oakland,CA,
0 WHITE CT,Oakland,CA,
COTTON ST & LIVINGSTON ST,Oakland,CA,
6100 LOWELL,Oakland,CA,
1200 MADISON ST,Oakland,CA,
8300 EARHART DR,Oakland,CA,
EB 27TH ONRP ST & EB I980 CONN,Oakland,CA,
6900 RUDSDALE,Oakland,CA,
WB I580 CONN & EB I980 CONN,Oakland,CA,
BEECHWOOD DR & YORKSHIRE DR,Oakland,CA,
CARSON ST & DAVENPORT AV,Oakland,CA,
1900 1&2 36TH AV,Oakland,CA,
10600 EDES AV,Oakland,CA,
5700 CARBERRY AV,Oakland,CA,
WB I580 & MARTIN LUTHER KING JR WY,Oakland,CA,
300 CREIGHTON WY,Oakland,CA,
100TH AV & PIPPIN ST,Oakland,CA,
66TH AVE & SAN LEANDRO BLVD,Oakland,CA,
800 8TH AV,Oakland,CA,
KEITH AV & MCMILLAN AV,Oakland,CA,
100 PERRY PL,Oakland,CA,
11800 CAMPUS DR,Oakland,CA,
3900 35TH AVE,Oakland,CA,
109TH AV & BEVERLY AV,Oakland,CA,
2300 PERALTA ST,Oakland,CA,
5700 ROSS ST,Oakland,CA,
3500 E 8TH ST,Oakland,CA,
CLAREWOOD DR & CLAREWOOD LN,Oakland,CA,
59TH ST & VALLEJO ST,Oakland,CA,
4TH ST & BRUSH ST,Oakland,CA,
1400 76TH AVE,Oakland,CA,
OAK HILL RD & SEQUOYAH VIEW DR,Oakland,CA,
SHAW ST & TRUMAN AV,Oakland,CA,
HILLMONT DR & VAN MOURIK AV,Oakland,CA,
98TH AV & CHEROKEE AV,Oakland,CA,
4400 TERRABELLA PL,Oakland,CA,
2900 COSGRAVE AV,Oakland,CA,
30TH ST & POPLAR ST,Oakland,CA,
2200 21ST AVE,Oakland,CA,
5900 GIRVIN DR,Oakland,CA,
4200 LUSK ST,Oakland,CA,
300 HEGENBERGER LOOP,Oakland,CA,
2400 VALLEY,Oakland,CA,
41ST ST & ADELINE ST,Oakland,CA,
MARTIN LUTHER KING JR WY & MERRIMAC ST,Oakland,CA,
400 BERGEDO DR,Oakland,CA,
1900 SEMINARY AVE,Oakland,CA,
6600 PINEHAVEN RD,Oakland,CA,
1800 84TH AV,Oakland,CA,
2100 107TH AVE,Oakland,CA,
10600 FOOTHILL BLVD,Oakland,CA,
2900 73RD AVE,Oakland,CA,
4800 1&2 SHAFTER AV,Oakland,CA,
4700 KAPHAN AV,Oakland,CA,
JORDAN RD & NORTON AV,Oakland,CA,
0 CITY HALL PLAZA,Oakland,CA,
4200 BEMIS ST,Oakland,CA,
100 VILLANOVA DR,Oakland,CA,
E 11TH ST & E 8TH ST,Oakland,CA,
AILEEN ST & WB TELEGRAPH OFFRP AV,Oakland,CA,
2700 KINGSLAND AVE,Oakland,CA,
700 EMBARCADERO WEST,Oakland,CA,
E 11TH ST & CALCOT PL,Oakland,CA,
0 HUMPHREY PL,Oakland,CA,
BROOKLYN AV & NEWTON AV,Oakland,CA,
K ST & MIDDLE HARBOR RD,Oakland,CA,
12TH AV & E 8TH ST,Oakland,CA,
1200 26TH AVE,Oakland,CA,
EB I580 CONN & SB I880 CONN,Oakland,CA,
1300 ALICE ST,Oakland,CA,
DIRECTED PATROL AREA 4,Oakland,CA,
ALISO AV & ELINORA AV,Oakland,CA,
29TH ST & RICHMOND AV,Oakland,CA,
7200 CLAREMONT AV,Oakland,CA,
3100 ARDLEY AV,Oakland,CA,
MAGGIORA DR & MALCOLM AV,Oakland,CA,
0 SOUTH COURT,Oakland,CA,
4400 BRIDGEVIEW DR,Oakland,CA,
MORCOM AV & SIMMONS ST,Oakland,CA,
1000 POTRERO AV,Oakland,CA,
FLORENCE TER & MERRIEWOOD DR,Oakland,CA,
23RD AV & WAKEFIELD AV,Oakland,CA,
CASA CT & MACARTHUR BLVD,Oakland,CA,
2800 76TH AVE,Oakland,CA,
5600 COUNTRY CLUB DR,Oakland,CA,
10000 PLYMOUTH ST,Oakland,CA,
1300 1&2 49TH AV,Oakland,CA,
1100 UNDERHILLS RD,Oakland,CA,
HUNTINGTON ST & TOMPKINS AV,Oakland,CA,
HEARST AV & LAGUNA AV,Oakland,CA,
6800 CHABOT RD,Oakland,CA,
1600 89TH AVE,Oakland,CA,
MONTANA ST & RHODA AV,Oakland,CA,
BUENA VISTA AV & BUENA VISTA PL,Oakland,CA,
14TH AV & SOLANO WY,Oakland,CA,
34TH AV & HENRIETTA ST,Oakland,CA,
VISTA ST & WELLINGTON ST,Oakland,CA,
3400 72ND AV,Oakland,CA,
BEAT 34,Oakland,CA,
5200 REDWOOD RD,Oakland,CA,
2800 POPLAR ST,Oakland,CA,
4800 SAN PABLO,Oakland,CA,
1800 48TH AV,Oakland,CA,
MACARTHUR BLVD & PALM VILLA CT,Oakland,CA,
56TH AV & WALNUT ST,Oakland,CA,
4900 HEDGE LN,Oakland,CA,
LAMP ST & STERLING DR,Oakland,CA,
BONA ST & DEERING ST,Oakland,CA,
20TH AV & GLEASON WY,Oakland,CA,
CLEVELAND AV & KENWYN RD,Oakland,CA,
MANZANITA DR & VILLANOVA DR,Oakland,CA,
6000 CHELTON DR,Oakland,CA,
MOUNTAIN BLVD & WOODCREST CIR,Oakland,CA,
5800 SEMINARY AV,Oakland,CA,
4000 PIEDMONT AVE,Oakland,CA,
29TH ST & VALDEZ ST,Oakland,CA,
4000 SAN PABLO,Oakland,CA,
4500 OAKPORT ST,Oakland,CA,
7000 SUNKIST DR,Oakland,CA,
800 81ST AVE,Oakland,CA,
VILLANOVA DR & VILLANOVA LN,Oakland,CA,
6300 BRANN ST,Oakland,CA,
400 CROFTON AV,Oakland,CA,
KENMORE AV & LAKESHORE AV,Oakland,CA,
50TH ST & WEBSTER ST,Oakland,CA,
1500 72ND AV,Oakland,CA,
39TH AV & WATTLING ST,Oakland,CA,
21ST AV & E 25TH ST,Oakland,CA,
66TH AV & INDEPENDENT RD,Oakland,CA,
FRONTAGE RD & WB I80,Oakland,CA,
SPECIAL ASSIGNMENT DIST 3,Oakland,CA,
18TH AV & MARIN WY,Oakland,CA,
5600 CLAREMONT AV,Oakland,CA,
3300 BUTTERS DR,Oakland,CA,
7200 MAC ARTHUR BLVD,Oakland,CA,
BRISTOL DR & SHERWICK DR,Oakland,CA,
HAROLD ST & WILSON PL,Oakland,CA,
LINCOLN AV & WILBUR ST,Oakland,CA,
HEGENBERGER/EDGEWATER,Oakland,CA,
5800 ACACIA AV,Oakland,CA,
BRISTOL DR & BUCKINGHAM BLVD,Oakland,CA,
7200 SAN LEANDRO BLVD,Oakland,CA,
3100 BLK OF FILBERT ST,Oakland,CA,
740B CANYON OAKS DR,Oakland,CA,
2700 EC REEMS CT,Oakland,CA,
6500 BROADWAY,Oakland,CA,
EUSTICE AV & GOLDEN GATE AV,Oakland,CA,
1000 41ST ST,Oakland,CA,
600 5TH ST,Oakland,CA,
W MACARTHUR BLVD & EB S24,Oakland,CA,
RUTHLAND RD & SWAINLAND RD,Oakland,CA,
INTERNATIONAL CORR,Oakland,CA,
CARTER ST & LEIMERT BLVD,Oakland,CA,
BEAT 13,Oakland,CA,
ASCOT DR & SCOUT RD,Oakland,CA,
2300 98TH AVE,Oakland,CA,
4600 SAN LEANDRO ST,Oakland,CA,
0 MORRILL CT,Oakland,CA,
WB I80 CONN & TOLL PLAZA,Oakland,CA,
5500 N PICARDY DR,Oakland,CA,
2600 MONTEREY BLVD,Oakland,CA,
E 38TH ST & EVERETT AV,Oakland,CA,
BROOKWOOD RD & TRESTLE GLEN RD,Oakland,CA,
100 SELKIRK ST,Oakland,CA,
6600 SHEPHERD CANYON RD,Oakland,CA,
MIDCREST RD & SUNNYHILLS RD,Oakland,CA,
BOWLES PL & SUNNYHILLS RD,Oakland,CA,
MAYBELLE AV & REDDING ST,Oakland,CA,
60TH AV & FORTUNE WY,Oakland,CA,
1200 ALICE ST,Oakland,CA,
300 E 11TH ST,Oakland,CA,
2500 ALHAMBRA,Oakland,CA,
31ST ST & 32ND ST,Oakland,CA,
99TH AV & LAWLOR ST,Oakland,CA,
VICTOR AV & VIRDEN AV,Oakland,CA,
BARBARA RD & MACARTHUR BLVD,Oakland,CA,
4100 REINHARDT DR,Oakland,CA,
5700 BRANN ST,Oakland,CA,
7300 BANCROFT AVE,Oakland,CA,
700 107TH AV,Oakland,CA,
SOBRANTE RD & THORNDALE DR,Oakland,CA,
MIRA VISTA AV & VALLE VISTA AV,Oakland,CA,
BOULEVARD WY & WALKER AV,Oakland,CA,
600 DOUGLAS AVE,Oakland,CA,
1300 82ND AVE,Oakland,CA,
11TH AV & BAYVIEW AV,Oakland,CA,
2000 81ST AVE,Oakland,CA,
ARROWHEAD DR & HOMEWOOD DR,Oakland,CA,
MCCORMICK AV & STERLING DR,Oakland,CA,
EB CLAREMONT OFFRP AV & EB S24,Oakland,CA,
0 JEFFERSON ST,Oakland,CA,
1800 PLYMOUTH,Oakland,CA,
1300 75TH AVE,Oakland,CA,
1100 92ND AVE,Oakland,CA,
11800 FOOTHILL,Oakland,CA,
2200 SEMINARY AVE,Oakland,CA,
10TH ST & POPLAR CT,Oakland,CA,
MADRONE AV & PAMPAS AV,Oakland,CA,
EDWARDS AV & WB I580,Oakland,CA,
1800 66TH AVE,Oakland,CA,
14TH ST & MARTIN LUTHER KING J,Oakland,CA,
COLTON BLVD & MAGELLAN DR,Oakland,CA,
6400 SHELLMOUND ST,Oakland,CA,
200 SAMARIA LN,Oakland,CA,
3500 BEAUMONT AV,Oakland,CA,
MACARTHUR BLVD & MOSS AV,Oakland,CA,
CRESTMONT DR & WESTFIELD WY,Oakland,CA,
51ST AV & WENTWORTH AV,Oakland,CA,
ARDEN PL & LEIMERT BLVD,Oakland,CA,
1400 DURANT AV,Oakland,CA,
ELWOOD AV & VALLE VISTA AV,Oakland,CA,
FLORIO ST & MANOA ST,Oakland,CA,
4300 COLISEUM WY,Oakland,CA,
700 77TH AV,Oakland,CA,
300 VAN BUREN AVE,Oakland,CA,
KINGSLAND AV & RAWSON ST,Oakland,CA,
CANNING ST & MCAULEY ST,Oakland,CA,
CAVOUR ST & REDONDO AV,Oakland,CA,
5500 LOWELL ST,Oakland,CA,
900 84TH AVE,Oakland,CA,
EVERETT AV & WELLINGTON ST,Oakland,CA,
6300 DORAN DR,Oakland,CA,
5TH ST & NB I880,Oakland,CA,
48TH ST & 53RD ST,Oakland,CA,
DATE ST & WORTH ST,Oakland,CA,
5600 BANCROFT AVE,Oakland,CA,
98TH/E,Oakland,CA,
CAMELLIA PL & CHARLESTON ST,Oakland,CA,
16000 BROADWAY TER,Oakland,CA,
AUBURN AV & CLAREMONT AV,Oakland,CA,
300 EMBARCADERO,Oakland,CA,
1100 80TH AV,Oakland,CA,
10700 FALLBROOK WY,Oakland,CA,
1800 HIGH ST,Oakland,CA,
8600 EDES AV,Oakland,CA,
2100 MARTIN LUTHER KING JR,Oakland,CA,
WB I580 CONN & MOUNTAIN BLVD,Oakland,CA,
TELEGRAPH AREA,Oakland,CA,
8200 EARHART DR,Oakland,CA,
OAKLAND,Oakland,CA,
4300 TELEGRAPH AVE,Oakland,CA,
10100 SUNNYSIDE ST,Oakland,CA,
300 BURMA RD,Oakland,CA,
8500 SKYLINE BLVD,Oakland,CA,
3000 E 13TH ST,Oakland,CA,
SNAKE RD & ZINN DR,Oakland,CA,
7600 DEERWOOD AV,Oakland,CA,
10000 WALNUT ST,Oakland,CA,
HEGENBERGER RD & INTERNATIONAL B,Oakland,CA,
0 BAY PL,Oakland,CA,
MANDELA/CENTER,Oakland,CA,
200 EMBARCADERO WEST,Oakland,CA,
CLEMENS RD & OAKMORE RD,Oakland,CA,
LA SALLE AV & TRAFALGAR PL,Oakland,CA,
CUTHBERT AV & SCHYLER ST,Oakland,CA,
1900 CHURCH ST,Oakland,CA,
BURR ST & LAWLOR ST,Oakland,CA,
4500 EDGEWOOD AV,Oakland,CA,
1700 SOLANO WY,Oakland,CA,
2200 MANDELA PKWY,Oakland,CA,
KEITH AV & PATTON ST,Oakland,CA,
ASCOT DR & CAMELFORD PL,Oakland,CA,
1600 28TH ST,Oakland,CA,
5500 LA SALLE AV,Oakland,CA,
5800 OSTRANDER RD,Oakland,CA,
LINCOLN AV & LINCOLN WY,Oakland,CA,
10600 BANCROFT AVE,Oakland,CA,
BUCKINGHAM BLVD & NORFOLK RD,Oakland,CA,
3565FRUITVALE AV,Oakland,CA,
HARBORD DR & MANDALAY RD,Oakland,CA,
ALTAMONT AV & SIMSON ST,Oakland,CA,
FLORENCE AV & HARBORD DR,Oakland,CA,
64TH ST & MARSHALL ST,Oakland,CA,
NB I880 & MARTIN LUTHER KING JR WY,Oakland,CA,
RICHMOND BLVD & WARREN AV,Oakland,CA,
3400 62ND AV,Oakland,CA,
SB BROADWAY OFFRP TR & SB S13,Oakland,CA,
DUNBAR DR & GARNER DR,Oakland,CA,
300 FALLON ST,Oakland,CA,
IN THE DISTRICT,Oakland,CA,
9600 DUNBAR DRIVE,Oakland,CA,
BROOKWOOD PL & TRESTLE GLEN RD,Oakland,CA,
ATWELL AV & LYNDE ST,Oakland,CA,
66TH ST & DANA ST,Oakland,CA,
2500 PARK BLVD,Oakland,CA,
1600 ALHAMBRA LN,Oakland,CA,
JEWELL CT & THORNDALE DR,Oakland,CA,
E 10TH ST & 27TH AV,Oakland,CA,
2200 HARRISON,Oakland,CA,
CHARIOT LN & HANSOM DR,Oakland,CA,
COLLEGE AV CORRIDOR,Oakland,CA,
1700 FRUITVALE AVE,Oakland,CA,
5400 PARK BLVD,Oakland,CA,
MONTGOMERY ST & VIEW PL,Oakland,CA,
20TH AV & SONOMA WY,Oakland,CA,
ASCOT DR & ASCOT PL,Oakland,CA,
LINDA AV & MONTE CRESTA AV,Oakland,CA,
2700 73RD AVE,Oakland,CA,
6500 GLEN OAKS WY,Oakland,CA,
1700 SEMINARY AVE,Oakland,CA,
E 38TH ST & GLEN PARK RD,Oakland,CA,
BELGRAVE PL & BROADWAY TER,Oakland,CA,
10800 RUSSETT ST,Oakland,CA,
NORFOLK RD & WESTMOORLAND DR,Oakland,CA,
MIDVALE AV & VICTOR AV,Oakland,CA,
KUHNLE AV & SEMINARY AV,Oakland,CA,
500 BANCROFT PL,Oakland,CA,
MAYBELLE WY & PORTER ST,Oakland,CA,
"OAKLAND, CA",Oakland,CA,
ESTATES DR & PROCTOR AV,Oakland,CA,
PEARMAIN ST & PRUNE ST,Oakland,CA,
0 CONTRA COSTA PL,Oakland,CA,
KERWIN AV & KNIGHT ST,Oakland,CA,
LINCOLN AV & RAMPART ST,Oakland,CA,
MARITIME ST & WAKE AV,Oakland,CA,
1000 34TH ST,Oakland,CA,
DURANT AV & VOLTAIRE AV,Oakland,CA,
ELVESSA ST & MALCOLM AV,Oakland,CA,
MADRONE AV & STEELE ST,Oakland,CA,
1500 14TH ST,Oakland,CA,
2900 1&2 FILBERT ST,Oakland,CA,
800 17TH ST,Oakland,CA,
9100 WALNUT ST,Oakland,CA,
10300 EDES AV,Oakland,CA,
1400 1ST AVENUE PL,Oakland,CA,
CREST AV & LAMP ST,Oakland,CA,
900 1&2 26TH ST,Oakland,CA,
CHETWOOD ST & MACARTHUR BLVD,Oakland,CA,
200 W. MACARTHUR BLVD,Oakland,CA,
1600 26TH ST,Oakland,CA,
ELMVIEW DR & MACARTHUR BLVD,Oakland,CA,
CLEMENS RD & WATERHOUSE RD,Oakland,CA,
54TH ST & MARTIN LUTHER KING J,Oakland,CA,
1000 VERRADA RD,Oakland,CA,
5100 SADDLEBROOK DR,Oakland,CA,
CREED RD & TRESTLE GLEN RD,Oakland,CA,
BERNHARDT DR & ISLETON AV,Oakland,CA,
WB I580 & SB S13,Oakland,CA,
3500 LYON AVE,Oakland,CA,
3200 MAPLE AVE,Oakland,CA,
CAMDEN ST & MACARTHUR BLVD,Oakland,CA,
CLAREWOOD DR & TRUITT LN,Oakland,CA,
2100 UNION ST,Oakland,CA,
65TH ST & WHITNEY ST,Oakland,CA,
1100 22ND AV,Oakland,CA,
700 GROSVENOR PL,Oakland,CA,
900 75TH AVE,Oakland,CA,
1400 EVERETT AV,Oakland,CA,
HOPKINS PL & MACARTHUR BLVD,Oakland,CA,
1400 FOOTHILL BLVD,Oakland,CA,
ARCHMONT PL & HILLMONT DR,Oakland,CA,
BURK ST & EUCLID AV,Oakland,CA,
34TH ST & ANDOVER ST,Oakland,CA,
0 DULWICH RD,Oakland,CA,
100 DIABLO DR,Oakland,CA,
DONCASTER PL & THORNHILL DR,Oakland,CA,
2000 CASTRO ST,Oakland,CA,
7200 COLISEUM WY,Oakland,CA,
MERRILL AV & TULIP AV,Oakland,CA,
E 8TH ST & LISBON AV,Oakland,CA,
0 RIVIERA CT,Oakland,CA,
CLAREMONT AV & RISPIN DR,Oakland,CA,
PARDEE DR & SWAN WY,Oakland,CA,
2400 84TH AV,Oakland,CA,
1200 5TH ST,Oakland,CA,
5000 MARTIN LUTHER KING JR WY,Oakland,CA,
WARFIELD AV & WELDON AV,Oakland,CA,
EDGEWATER DR & PARDEE LN,Oakland,CA,
71ST AV & HERBERT GUICE WY,Oakland,CA,
AIR CARGO WY & RON COWAN PKWY,Oakland,CA,
500 DERBY AV,Oakland,CA,
CALIFORNIA ST & MIDVALE AV,Oakland,CA,
CAPELL ST & CLEVELAND AV,Oakland,CA,
ASCOT CT & ASCOT DR,Oakland,CA,
KALES AV & MANILA AV,Oakland,CA,
2300 WARNER AVE,Oakland,CA,
GROSVENOR PL & HUBERT RD,Oakland,CA,
1600 MARIN WY,Oakland,CA,
2600 22ND AVE,Oakland,CA,
DIRECTIVE PATROL INTL CORRIDOR,Oakland,CA,
TAC 1,Oakland,CA,
ALCATRAZ AV & HILLEGASS AV,Oakland,CA,
AREA ONE,Oakland,CA,
6300 CLAREMONT AV,Oakland,CA,
0 SADDLEBROOK CT,Oakland,CA,
1200 87TH AVE,Oakland,CA,
LAGUNA AV & WILBUR ST,Oakland,CA,
KRAUSE AV & LEGION AV,Oakland,CA,
1700 JACKSON ST,Oakland,CA,
5600 MORAGA AV,Oakland,CA,
BWY CORRIDOR,Oakland,CA,
2200 GLEASON WY,Oakland,CA,
3100 REVERE AV,Oakland,CA,
E 27TH ST & INYO AV,Oakland,CA,
1100 3RD AVE,Oakland,CA,
5700 KINGSLEY CIRCLE,Oakland,CA,
3300 GALINDO ST,Oakland,CA,
SB 35TH OFFRP AV & ALISO AV,Oakland,CA,
PLEITNER AV & WARD LN,Oakland,CA,
LYMAN RD & TIFFIN RD,Oakland,CA,
I 580 OFFRP & MACARTHUR BLVD,Oakland,CA,
0 AV & BANCROFT AV,Oakland,CA,
800 HEGENBERGER RD,Oakland,CA,
6900 MAC ARTHUR BLVD,Oakland,CA,
B ST & ELMHURST AV,Oakland,CA,
0 KESWICK CT,Oakland,CA,
600 MIRA VISTA AV,Oakland,CA,
5TH ST & SB BROADWAY ONRP,Oakland,CA,
900 1&2 INTERNATIONAL BLVD,Oakland,CA,
LOCHARD ST & MALCOLM AV,Oakland,CA,
1700 69TH AVE,Oakland,CA,
3300 ETTIE ST,Oakland,CA,
BERNHARDT DR & MALTA CT,Oakland,CA,
BALMORAL DR & BELL WAVER WY,Oakland,CA,
CLEMENTE DR & TUBMAN DR,Oakland,CA,
SAUSAL ST & SHEFFIELD AV,Oakland,CA,
2000 SEMINARY AV,Oakland,CA,
EDGEMOOR PL & SUNNYMERE AV,Oakland,CA,
900 58TH ST,Oakland,CA,
1900 88TH AVE,Oakland,CA,
1300 7TH AV,Oakland,CA,
15700 SKYLINE BLVD,Oakland,CA,
38TH AV & WATTLING ST,Oakland,CA,
MARITIME ST & UKRAINE ST,Oakland,CA,
PROSPECT AV & SPRUCE ST,Oakland,CA,
6100 EASTLAWN ST,Oakland,CA,
BROADWAY TER & TAURUS AV,Oakland,CA,
300 BOWSMAN CT,Oakland,CA,
63RD ST & COLBY ST,Oakland,CA,
COLE ST & PRINCETON ST,Oakland,CA,
SB S13 CONN & EB S24,Oakland,CA,
LAKESHORE AV & SANTA RAY AV,Oakland,CA,
10100 1&2 FOOTHILL BLVD,Oakland,CA,
ALIDA ST & RHODA AV,Oakland,CA,
2900 PERALTA ST,Oakland,CA,
WB GRAND OFFRP AV & LAKE PARK AV,Oakland,CA,
ACALANES DR & COLORADOS DR,Oakland,CA,
2100 BLK FRANKLIN ST,Oakland,CA,
65TH ST & HARMON ST,Oakland,CA,
50TH ST & CLARKE ST,Oakland,CA,
ATLAS AV & DETROIT AV,Oakland,CA,
7900 NEY ST,Oakland,CA,
2600 79TH AVE,Oakland,CA,
BYWOOD DR & WRENN ST,Oakland,CA,
1900 SOLANO WY,Oakland,CA,
4200 ALLENDALE AV,Oakland,CA,
7800 BANCROFT AVE,Oakland,CA,
2300 73RD AVE,Oakland,CA,
2134A 62ND AV,Oakland,CA,
KINGSLAND AV & MAVIS ST,Oakland,CA,
ELYSIAN FIELDS DR & SIGOURNEY AV,Oakland,CA,
OLIVER AV & TRUMAN AV,Oakland,CA,
1400 19TH AVE,Oakland,CA,
KAISER HAYWARD,Oakland,CA,
2500 TUNNEL RD,Oakland,CA,
1400 98TH AVE,Oakland,CA,
500 E 8TH ST,Oakland,CA,
E 38TH ST & LA CRESTA AV,Oakland,CA,
PEARMAIN ST & TARTARIAN ST,Oakland,CA,
SUNNYSIDE ST & WARNER AV,Oakland,CA,
1300 83RD AVE,Oakland,CA,
2700 HAROLD ST,Oakland,CA,
5100 CONGRESS AVE,Oakland,CA,
1300 MILLER AV,Oakland,CA,
5100 MCDONELL AV,Oakland,CA,
62ND ST & FREMONT ST,Oakland,CA,
0 5TH AV,Oakland,CA,
4700 MENDENHALL RD,Oakland,CA,
2800 E 22ND ST,Oakland,CA,
MASONIC AV & PROCTOR AV,Oakland,CA,
2300 90TH AVE,Oakland,CA,
CARLSTON AV & SANTA RAY AV,Oakland,CA,
EMERSON WY & PARK BOULEVARD WY,Oakland,CA,
1400 44TH AVE,Oakland,CA,
FV DISTRICT,Oakland,CA,
0 HAWKS HILL CT,Oakland,CA,
9000 FONTAINE ST,Oakland,CA,
6900 ARTHUR BLVD,Oakland,CA,
NB I880 & EB I980,Oakland,CA,
6800 SUNNYMERE AV,Oakland,CA,
300 MARTIN LUTHER KING JR WY,Oakland,CA,
C ST & ROYAL ANN ST,Oakland,CA,
1300 OAK ST,Oakland,CA,
3700 MALCOLM AVE,Oakland,CA,
4400 PLEASANT VALLEY CT S,Oakland,CA,
1900 COURTLAND AVE,Oakland,CA,
300 98TH AVE,Oakland,CA,
4700 OAKPORT ST,Oakland,CA,
DISTRICT 2 DIRECTIVE PATROL,Oakland,CA,
2700 106TH AVE,Oakland,CA,
1900 85TH AVE,Oakland,CA,
BONA ST & DEERING CT,Oakland,CA,
101ST AV & C ST,Oakland,CA,
2200 PELHAM PL,Oakland,CA,
100 JEFFERSON ST,Oakland,CA,
MATHER ST & TERRACE ST,Oakland,CA,
BURCKHALTER AV & SUNNYMERE AV,Oakland,CA,
ALAMEDA AV & SB HIGH OFFRP ST,Oakland,CA,
6800 SOBRANTE RD,Oakland,CA,
WB GRAND OFFRP AV & WB I580,Oakland,CA,
1700 HARRISON ST,Oakland,CA,
5700 HARMON AVE,Oakland,CA,
3000 64TH AV,Oakland,CA,
NB REDWOOD ONRP RD & NB S13,Oakland,CA,
BATES RD & HOLMAN RD,Oakland,CA,
0 WOODSIDE WY,Oakland,CA,
100 COLGETT DR,Oakland,CA,
5900 ACACIA AV,Oakland,CA,
0 KIMBERLEY CT,Oakland,CA,
TAC 2,Oakland,CA,
1200 DERBY AVE,Oakland,CA,
27400 HESPERIAN BLVD,Oakland,CA,
6200 BOULDER LN,Oakland,CA,
500 39TH ST,Oakland,CA,
DIRECTED PATROL A2,Oakland,CA,
10400 PONTIAC ST,Oakland,CA,
7400 GARFIELD AVE,Oakland,CA,
9900 SIGOURNEY AV,Oakland,CA,
CAMDEN ST & STORER AV,Oakland,CA,
6800 KRAUSE AV,Oakland,CA,
NB HEGENBERGER ONRP AV & NB I880,Oakland,CA,
OUTLOOK AV & PARKER AV,Oakland,CA,
1100 OCEAN AVE,Oakland,CA,
3600 ENOS AV,Oakland,CA,
5800 CHELTON DR,Oakland,CA,
3000 68TH AV,Oakland,CA,
DIRECTED,Oakland,CA,
6900 BANCROFT AVE,Oakland,CA,
6200 WOOD DR,Oakland,CA,
53RD AV & HOLLAND ST,Oakland,CA,
28TH ST & VALDEZ ST,Oakland,CA,
10TH ST & 2ND AV,Oakland,CA,
1600 80TH AVE,Oakland,CA,
40TH CORRIDOR,Oakland,CA,
STANFORD AV & VALLEJO ST,Oakland,CA,
1600 3RD ST,Oakland,CA,
PERRY PL & VERNON ST,Oakland,CA,
40TH/SAN PABLO,Oakland,CA,
4800 SAN PABLO AV,Oakland,CA,
SHONE AV & WINTHROPE ST,Oakland,CA,
2600 HAVERHILL DR,Oakland,CA,
BROADWAY TER & MARGARIDO DR,Oakland,CA,
3400 65TH AVE,Oakland,CA,
HILLVIEW ST & MADELINE ST,Oakland,CA,
WB I580 & WEBSTER ST,Oakland,CA,
CHAPMAN ST & PETERSON ST,Oakland,CA,
MACARTHUR BLVD & MONTCLAIR AV,Oakland,CA,
BEAT 10,Oakland,CA,
600 UNION ST,Oakland,CA,
MARTIN LUTHER KING J & SYCAMORE,Oakland,CA,
LINCOLN AV & SCENIC AV,Oakland,CA,
PENNIMAN AV & VIOLA ST,Oakland,CA,
HARBORD DR & HILLTOP CRES,Oakland,CA,
34TH ST & FITZGERALD ST,Oakland,CA,
3100 COOLIDGE AVE,Oakland,CA,
HARBOR BAY PKWY & RON COWAN PKWY,Oakland,CA,
OVAL RD & PINEWOOD RD,Oakland,CA,
2500 23RD AVE,Oakland,CA,
2000 CAMPBELL ST,Oakland,CA,
4400 SHELLMOUND ST,Oakland,CA,
0 ,Oakland,CA,
HARBORD DR & MODOC AV,Oakland,CA,
WHITNEY ST & WOOLSEY ST,Oakland,CA,
NB JOAQUIN MILLER OFFRP RD & NB S13,Oakland,CA,
4500 SAN PABLO,Oakland,CA,
CAMPBELL ST & MANDELA PKWY,Oakland,CA,
35TH AV & JORDAN RD,Oakland,CA,
3100 JORDAN AV,Oakland,CA,
FOREST ST & MILES AV,Oakland,CA,
4400 WHITTLE AV,Oakland,CA,
1600 48TH AV,Oakland,CA,
DELMONT AV & MOKELUMNE AV,Oakland,CA,
CAMPUS DR & STONERIDGE CT,Oakland,CA,
CLEMENS RD & LYMAN RD,Oakland,CA,
WB I980 & MARTIN LUTHER KING JR WY,Oakland,CA,
100 FRANK OGAWA PLAZA,Oakland,CA,
GLENLY RD & GOLF LINKS RD,Oakland,CA,
CARISBROOK DR & STOCKBRIDGE DR,Oakland,CA,
CAPELL ST & MACARTHUR BLVD,Oakland,CA,
BERNEVES CT & MOUNTAIN BLVD,Oakland,CA,
7800 SKYLINE BLVD,Oakland,CA,
ARCADIA AV & MELVIN RD,Oakland,CA,
1400 E31ST ST,Oakland,CA,
5800 MILES AV,Oakland,CA,
800 KINGSTON AV,Oakland,CA,
100 GLEN AV,Oakland,CA,
1400 53RD AV,Oakland,CA,
1200 ARIANE CT,Oakland,CA,
24TH ST & PERALTA ST,Oakland,CA,
ARROYUELO AV & ENTRADA AV,Oakland,CA,
1900 MACARTHUR BLVD,Oakland,CA,
5600 DREYER PL,Oakland,CA,
DIRECTED PATROL BT 17,Oakland,CA,
9900 SAINT ELMO DR,Oakland,CA,
SB S13 & EB SEMINARY OFFRP AV,Oakland,CA,
1800 ROSECREST DR,Oakland,CA,
EB 11TH OFFRP ST & EB I980,Oakland,CA,
2400 ASHBY,Oakland,CA,
COLISEUM WY & NB HIGH ONRP ST,Oakland,CA,
900 6TH ST,Oakland,CA,
70TH AV & MORKEN ST,Oakland,CA,
1200 34TH AV,Oakland,CA,
3800 HOLLIS,Oakland,CA,
MAPLE AV & MORGAN AV,Oakland,CA,
BRUCE ST & EXCELSIOR AV,Oakland,CA,
2500 106TH AV,Oakland,CA,
LAKE MERRITT BLVD & OAK ST,Oakland,CA,
5TH ST & CLAY ST,Oakland,CA,
4035B HOWE ST,Oakland,CA,
0 AZTEC WY,Oakland,CA,
108TH AV & BREED AV,Oakland,CA,
1000 EL CENTRO AV,Oakland,CA,
10600 BREED AVE,Oakland,CA,
ATLAS AV & MONTEREY BLVD,Oakland,CA,
900 NEVIN AV,Oakland,CA,
2300 34TH AV,Oakland,CA,
5600 HARBORD DR,Oakland,CA,
OAKWOOD DR & WILD CURRANT WY,Oakland,CA,
4800 TRINIDAD AV,Oakland,CA,
6400 OUTLOOK AVE,Oakland,CA,
6000 GENOA ST,Oakland,CA,
EL PASEO DR & TOPANGA DR,Oakland,CA,
BROADWAY TER & GLENBROOK DR,Oakland,CA,
5000 COLISEUM WAY,Oakland,CA,
150TH AV & EB I580,Oakland,CA,
CASTRO ST & MARTIN LUTHER KING JR WY,Oakland,CA,
20TH AV & COMMERCE WY,Oakland,CA,
KELLER AV & SANFORD ST,Oakland,CA,
1900 40TH AVE,Oakland,CA,
1200 103RD AVE,Oakland,CA,
36TH AV & HARPER ST,Oakland,CA,
PORT,Oakland,CA,
GEORGIA ST & MIDVALE AV,Oakland,CA,
AYALA AV & HOWELL ST,Oakland,CA,
WB I580 COLL & WB S24,Oakland,CA,
3700 GRAND AVE,Oakland,CA,
0 SOUTH HILL CT,Oakland,CA,
1300 105TH AVE,Oakland,CA,
0 VETERAN WY,Oakland,CA,
900A EVERETT AV,Oakland,CA,
8500 RAILROAD AV,Oakland,CA,
E 33RD ST & RANDOLPH AV,Oakland,CA,
EB 18TH ONRP ST & CASTRO ST,Oakland,CA,
SKYLINE BLVD & WEAVER PL,Oakland,CA,
SHAW ST & STANLEY AV,Oakland,CA,
5500 SEMINARY AV,Oakland,CA,
1800 19TH AV,Oakland,CA,
ASCOT DR & LARRY LN,Oakland,CA,
WB 27TH OFFRP ST & NORTHGATE AV,Oakland,CA,
3900 SAN PABLO AV,Oakland,CA,
CARMEL ST & MAPLE AV,Oakland,CA,
7400 SKYLINE BLVD,Oakland,CA,
98TH AV & ACCESS,Oakland,CA,
PARK BLVD,Oakland,CA,
GRIZZLY PEAK BLVD & GRIZZLY TERRACE DR,Oakland,CA,
E 28TH ST & 9TH AV,Oakland,CA,
20TH ST & CURTIS ST,Oakland,CA,
62ND AV & MAURITANIA AV,Oakland,CA,
3900 HORTON ST,Oakland,CA,
5700 OAK GROVE AV,Oakland,CA,
BROADWAY TER & PROCTOR AV,Oakland,CA,
MARLOW DR & ROXBURY AV,Oakland,CA,
WELDON AV & YORK ST,Oakland,CA,
60TH AV & MURDOCK CT,Oakland,CA,
MACARTHUR BLVD,Oakland,CA,
295A MACARTHUR BLVD,Oakland,CA,
1700 26TH AVE,Oakland,CA,
CRANFORD WY & REVERE AV,Oakland,CA,
CASTRO ST & GERRY ADAMS WY,Oakland,CA,
DAVENPORT AV & EB I580,Oakland,CA,
1100 37TH AV,Oakland,CA,
800 ZEPHYR DR,Oakland,CA,
5TH ST & MAGNOLIA ST,Oakland,CA,
63RD ST & IDAHO ST,Oakland,CA,
MONTGOMERY ST & PLEASANT VALLEY,Oakland,CA,
EDGEWOOD AV & GLENDORA AV,Oakland,CA,
0 WILDWOOD AV,Oakland,CA,
KAISER,Oakland,CA,
4242B MASTERSON ST,Oakland,CA,
SB 98TH ONRP AV & SB I880,Oakland,CA,
FITZGERALD ST & HAVEN ST,Oakland,CA,
GUNN DR & SHEPHERD CANYON RD,Oakland,CA,
400 HEGENBERGER SUITE 705,Oakland,CA,
100 STANLEY PL,Oakland,CA,
1300 18TH ST,Oakland,CA,
FIELD ST & VALENTINE ST,Oakland,CA,
BROOKDALE AV & CAPP ST,Oakland,CA,
AVONOAK CT & HANSOM DR,Oakland,CA,
80TH AVE & B ST,Oakland,CA,
105TH AV & SUNNYSIDE ST,Oakland,CA,
WB COOLIDGE OFFRP AV & WB I580,Oakland,CA,
38TH AV & MARION AV,Oakland,CA,
SB 35TH OFFRP AV & SB S13,Oakland,CA,
10000 GOLF LINKS RD,Oakland,CA,
800 1&2 MEAD AV,Oakland,CA,
6900 THE TURN,Oakland,CA,
2200 FAIRMOUNT,Oakland,CA,
800 47TH AV,Oakland,CA,
82ND AV & OUTLOOK AV,Oakland,CA,
6600 MAC ARTHUR BLVD,Oakland,CA,
SAGE RD & SEQUOYAH RD,Oakland,CA,
SNAKE RD & THORNHILL DR,Oakland,CA,
1600 GLEASON WY,Oakland,CA,
6500 REDWOOD RD,Oakland,CA,
CHABOT RD & ROBLE RD,Oakland,CA,
0 SHETLAND CT,Oakland,CA,
10500 LONGFELLOW AV,Oakland,CA,
BROADWAY TER & CAPRICORN AV,Oakland,CA,
6100 VIRGO RD,Oakland,CA,
HILLCROFT CIR & SUNNYHILLS RD,Oakland,CA,
COLLEGE AV AREA,Oakland,CA,
6900 HAWLEY ST,Oakland,CA,
EB COOLIDGE ONRP AV & EB I580,Oakland,CA,
COLTON BLVD & GASPAR DR,Oakland,CA,
106TH AV & BYRON AV,Oakland,CA,
MARGARIDO DR & OCEAN VIEW DR,Oakland,CA,
MOUNTAIN BLVD & WERNER CT,Oakland,CA,
6TH ST & FALLON ST,Oakland,CA,
4200 WATTLING ST,Oakland,CA,
CREED RD & HOLMAN RD,Oakland,CA,
1700 SAN PABLO AVE,Oakland,CA,
20TH ST & WILLOW ST,Oakland,CA,
2600 BANCROFT WY,Oakland,CA,
400 MARITIME ST,Oakland,CA,
11100 SKYLINE BLVD,Oakland,CA,
1900 PLEASANT VALLEY RD,Oakland,CA,
3400 DWIGHT WY,Oakland,CA,
55TH AV & CRITTENDEN ST,Oakland,CA,
0 ASCOT LN,Oakland,CA,
1300 104TH AVE,Oakland,CA,
BRANDY ROCK WY & SKYLINE BLVD,Oakland,CA,
94TH AV & VISTA CT,Oakland,CA,
4600 CLAREWOOD DR,Oakland,CA,
PINEHAVEN RD & VALLEY VIEW RD,Oakland,CA,
900 NEVIN,Oakland,CA,
BROOKLYN AV & HANOVER AV,Oakland,CA,
DIRECTED PATROL INTL CORRIDOR,Oakland,CA,
106TH AV & LONGFELLOW AV,Oakland,CA,
CLEMENS RD & FRUITVALE AV,Oakland,CA,
2500 7TH ST,Oakland,CA,
9300 SENECA ST,Oakland,CA,
11TH ST & MARTIN LUTHER KING J,Oakland,CA,
CASWELL AV & DENSLOWE AV,Oakland,CA,
E 18TH ST & ROSEDALE AV,Oakland,CA,
MAPLE AV & TEXAS ST,Oakland,CA,
ALLENDALE AV & OCTAVIA ST,Oakland,CA,
1000 GALVIN ST,Oakland,CA,
11000 MONAN ST,Oakland,CA,
10800 SUNNYSIDE ST,Oakland,CA,
4300 BEMIS ST,Oakland,CA,
2700 E 8TH ST,Oakland,CA,
3600 PERALTA ST,Oakland,CA,
100 4TH ST,Oakland,CA,
7000 FOOTHILL BLVD,Oakland,CA,
4400 OAKPORT ST,Oakland,CA,
2600 74TH AVE,Oakland,CA,
EB I580 & MAPLE AV,Oakland,CA,
INTL COOR,Oakland,CA,
1900 81ST AVE,Oakland,CA,
1900 27TH AV,Oakland,CA,
106TH AV & BEVERLY AV,Oakland,CA,
1300 1&2 52ND AV,Oakland,CA,
3200 BUTTERS DR,Oakland,CA,
SB 42ND CONN AV & SB HIGH OFFRP ST,Oakland,CA,
4400 TERRABELLA WY,Oakland,CA,
OAKPORT ST & ROLAND WY,Oakland,CA,
4900 LINCOLN WY,Oakland,CA,
ARDLEY AV & HAMPEL ST,Oakland,CA,
6800 LION WAY,Oakland,CA,
HARBORD DR & MCANDREW DR,Oakland,CA,
CAVENDISH LN & PARK BLVD,Oakland,CA,
GOLDEN GATE AV & HILL RD,Oakland,CA,
6800 DEVON WY,Oakland,CA,
DIRECTED PATROL DIST 4,Oakland,CA,
NORFOLK RD & STRATHMOOR DR,Oakland,CA,
1400 65TH AVE,Oakland,CA,
THACKERAY DR & WESTOVER DR,Oakland,CA,
2600 POPLAR ST,Oakland,CA,
CLAREMONT AV & GELSTON ST,Oakland,CA,
GRAND AV & SUNNYSIDE AV,Oakland,CA,
2600 E 11TH ST,Oakland,CA,
3600 E16TH ST,Oakland,CA,
BURLINGTON ST & LINCOLN AV,Oakland,CA,
E 26TH STREET WY & WALLACE ST,Oakland,CA,
EL CENTRO AV & ELSINORE AV,Oakland,CA,
CHABOT CREST & CHABOT RD,Oakland,CA,
BENNETT PL & GUIDO ST,Oakland,CA,
100 SHADOW MOUNTAIN ST,Oakland,CA,
DIRECTED PATROL - AREA 2,Oakland,CA,
2000 TIFFIN RD,Oakland,CA,
2400 1&2 107TH AV,Oakland,CA,
2700 63RD AV,Oakland,CA,
5TH ST & FILBERT ST,Oakland,CA,
KAISER RICHMOND,Oakland,CA,
6600 HEATHER RIDGE WY,Oakland,CA,
2500 78TH AVE,Oakland,CA,
1300 HEG,Oakland,CA,
EARL ST & SHONE AV,Oakland,CA,
JOAQUIN MILLER RD & NB S13,Oakland,CA,
EB HARRISON ONRP ST & PERRY PL,Oakland,CA,
4000 SAN PABLO AV,Oakland,CA,
2338B TELEGRAPH AV,Oakland,CA,
1300 20TH ST,Oakland,CA,
DISTRICT3,Oakland,CA,
1900 ARROWHEAD DR,Oakland,CA,
3250B LAKESHORE AV,Oakland,CA,
3900 CALIFORNIA ST,Oakland,CA,
GORDON ST & RENWICK ST,Oakland,CA,
HAMPEL ST & LA CRESTA AV,Oakland,CA,
FAIRLANE DR & SWAINLAND RD,Oakland,CA,
4300 BANCROFT AV,Oakland,CA,
1800 MARITIME,Oakland,CA,
GRAND CORRIDOR,Oakland,CA,
DIRECTED PATRL,Oakland,CA,
ASCOT DR & CHELSEA DR,Oakland,CA,
5800 OAKPORT ST,Oakland,CA,
14TH AV & SONOMA WY,Oakland,CA,
3200 62ND AVE,Oakland,CA,
CORAL RD & WISTAR RD,Oakland,CA,
11000 ELVESSA ST,Oakland,CA,
BRIAR CLIFF RD & OAK HILL RD,Oakland,CA,
RINCON DR & ZINN DR,Oakland,CA,
COLLEGE AV,Oakland,CA,
600 FALLON ST,Oakland,CA,
MANILA AV & MENDOCINO AV,Oakland,CA,
1300 5TH AV,Oakland,CA,
2400 CREEKSIDE CT,Oakland,CA,
UPTOWN,Oakland,CA,
BALFOUR AV & WALAVISTA AV,Oakland,CA,
900 INTERNATOINAL BLVD,Oakland,CA,
2600 78TH AVE,Oakland,CA,
78TH AV & GRAFIELD AV,Oakland,CA,
42ND ST & ADELINE ST,Oakland,CA,
500 W GRAND AVE,Oakland,CA,
100 SANTA ROSA AVE,Oakland,CA,
23RD AV/FOOTHILL,Oakland,CA,
DIR PATROL,Oakland,CA,
ELSTON AV & EXCELSIOR AV,Oakland,CA,
UPTOWN DETAIL,Oakland,CA,
2700 TALLOT AVE,Oakland,CA,
W GRAND AV & EB I980,Oakland,CA,
OAKES/BAN,Oakland,CA,
6100 MONADNOCK WAY,Oakland,CA,
1800 10,Oakland,CA,
18TH ST & PARK PLACE,Oakland,CA,
5900 MOUNTAIN BLVD,Oakland,CA,
2600 BLOCK OF INTERNATIONAL BLVD,Oakland,CA,
5600 MERRIEWOOD DR.,Oakland,CA,
262A WAYNE AV,Oakland,CA,
600 46TH AV,Oakland,CA,
1800 VICKSBURG AVE,Oakland,CA,
WB BROADWAY OFFRP & MILES AV,Oakland,CA,
FRUITVALE AV & E. 29TH ST,Oakland,CA,
NAPA ST & THOMAS AV,Oakland,CA,
WHITTLE AV & WHITTLE CT,Oakland,CA,
6500 COLTON BLVD,Oakland,CA,
THOMAS L BERK & FRANKLIN ST,Oakland,CA,
DIRECTED PATROL - BT23,Oakland,CA,
BROMLEY ST,Oakland,CA,
2500 35TH AVE,Oakland,CA,
6300 E 16TH ST,Oakland,CA,
ALIDA ST & BARNER AV,Oakland,CA,
SAN PABLO/ASHBY,Oakland,CA,
BURR ST & CHEROKEE AV,Oakland,CA,
CALANDRIA AV & GRANADA AV,Oakland,CA,
COLTON BLVD & DIAZ PL,Oakland,CA,
900 45TH STREET,Oakland,CA,
5800 FOOTHILL AV,Oakland,CA,
2A11 51ST CORRIDOR,Oakland,CA,
49TH ST & DESMOND ST,Oakland,CA,
1900 BLK OF 26TH AV,Oakland,CA,
JOAQUIN MILLER/HODGE,Oakland,CA,
HOME DEPOT ON ALEMEDA ST,Oakland,CA,
10800 BLK PACKARD ST,Oakland,CA,
MACARTHUR BLVD & MADRONE PATH,Oakland,CA,
39TH AV & QUIGLEY ST,Oakland,CA,
600 27TH STREET,Oakland,CA,
200 KIRKHAM ST,Oakland,CA,
31A YOSEMITE AV,Oakland,CA,
7TH ST & MARITIME,Oakland,CA,
15700 MARCELLUS,Oakland,CA,
6800 69TH AV,Oakland,CA,
3600 BROWN AVE,Oakland,CA,
CLAREMONT AV & TANGLEWOOD RD,Oakland,CA,
2236A E 17TH ST,Oakland,CA,
8800 1&2 THERMAL ST,Oakland,CA,
59TH ST & IDAHO ST,Oakland,CA,
100 W MAC,Oakland,CA,
900 8TH AV,Oakland,CA,
62ND ST & MARTIN LUTHER KING JR WY BERKELEY,Oakland,CA,
4400 EVANS AVE,Oakland,CA,
6000 GRIZZLEY PEAK,Oakland,CA,
3900 MANDELA,Oakland,CA,
9800 MEDFORD AV,Oakland,CA,
200 ALASKA ST,Oakland,CA,
PIEDMONT AV AREA,Oakland,CA,
3200 NICOL,Oakland,CA,
2700 GRANDE VISTA AVE,Oakland,CA,
1300 89TH AVE,Oakland,CA,
RICHIE & BANCROFT,Oakland,CA,
DIRECTIVE PATROL DIMOND DIST,Oakland,CA,
81ST AV & DOWLING ST,Oakland,CA,
9600 MAC ARTHUR BLVD,Oakland,CA,
8000 GREEN RIDGE,Oakland,CA,
0 CRESPI DR,Oakland,CA,
1800 SEMINARY AV,Oakland,CA,
KENNEDY ST & 29TH AVE,Oakland,CA,
CREST AV & FIELD ST,Oakland,CA,
48TH ST/SALEM ST,Oakland,CA,
ACACIA AV & OCEAN VIEW DR,Oakland,CA,
LAWTON AV & MANILA AV,Oakland,CA,
4900 MANILA,Oakland,CA,
2100 LELAND AVE,Oakland,CA,
700 AIR CARGO RD,Oakland,CA,
2600 ALVIGROOM,Oakland,CA,
14TH ST & INTERNATIONAL BLVD,Oakland,CA,
1700 POWELL,Oakland,CA,
2400 12TH ST,Oakland,CA,
5700 BLK INTERNATIONAL BLVD,Oakland,CA,
COSGRAVE AV & GOLF LINKS RD,Oakland,CA,
1400 SAN PABLO AV,Oakland,CA,
2000 90TH AVE,Oakland,CA,
2800 MADERA AVE,Oakland,CA,
1300 E 14TH,Oakland,CA,
SEMINARY/E 12TH,Oakland,CA,
GLENARMS DR & MOUNTAIN BLVD,Oakland,CA,
200 HEGENBERGER,Oakland,CA,
7400 DEARWOOD AVE,Oakland,CA,
100 TUNN,Oakland,CA,
16TH AV & INDEPENDENCE WY,Oakland,CA,
10800 VOLTAIRE AV,Oakland,CA,
13800 E 14,Oakland,CA,
2900 E 15TH,Oakland,CA,
E18TH ST & 35TH AV,Oakland,CA,
MACARTHUR BLVD & MYERS ST,Oakland,CA,
22400 SOUTH GARDEN,Oakland,CA,
LOUSIANA AV / WALTER AV,Oakland,CA,
200 HOWE ST,Oakland,CA,
9900 VOLATIRE AV,Oakland,CA,
E 10TH ST & SAN FRANCISCO CT,Oakland,CA,
13TH AV CORRIDOR,Oakland,CA,
5TH AVE & E 8TH ST,Oakland,CA,
ON TAC 6,Oakland,CA,
DIRECTED PATROL BZ 27,Oakland,CA,
0 REDDING PL,Oakland,CA,
DIRECTED PAT DIST 1,Oakland,CA,
6TH ST & EB I980,Oakland,CA,
300 12TH AVE,Oakland,CA,
800 60TH AVE,Oakland,CA,
PATTERSON AV & VIRDEN AV,Oakland,CA,
CAVOUR ST & LOCKSLEY AV,Oakland,CA,
3000 BONA ST.,Oakland,CA,
LAWTON AV & MCMILLAN AV,Oakland,CA,
1300 WEST ST,Oakland,CA,
900 GLENDORA AV,Oakland,CA,
8700 G ST.,Oakland,CA,
CALDWELL RD & PINEWOOD RD,Oakland,CA,
84TH AVE,Oakland,CA,
0 GLEN,Oakland,CA,
1400 1&2 32ND ST,Oakland,CA,
SPECIAL ASSIGN BT 2,Oakland,CA,
0 & HOLL,Oakland,CA,
14600 SKYLINE BL,Oakland,CA,
10100 A ST,Oakland,CA,
6200 ROCKYPOINT,Oakland,CA,
HESPERIAN BLVD & FAIRMONT DR,Oakland,CA,
WASHINGTON HOSPITAL,Oakland,CA,
2300 SHEPHERD CANYON,Oakland,CA,
INTERNATIONAL & 52ND AVE,Oakland,CA,
YOSEMITE,Oakland,CA,
1400 SP,Oakland,CA,
1800 50TH AV,Oakland,CA,
2500 HAROLD ST,Oakland,CA,
0 7TH ST.,Oakland,CA,
2600 64TH AVE,Oakland,CA,
1500 ALICE STREET,Oakland,CA,
SUTTER DELTA HOSPITAL,Oakland,CA,
2500 WALLACE AV,Oakland,CA,
MAGGIORA CT & MAGGIORA DR,Oakland,CA,
PORTLAND AV & PERALTA AV,Oakland,CA,
3500 SAN PABLO AVE,Oakland,CA,
400 FAIRMONT AV,Oakland,CA,
15TH ST & MARTIN LUTHER KING J,Oakland,CA,
400 W. MACARTHUR BLVD,Oakland,CA,
BRUNELL DR & BUTTERS DR,Oakland,CA,
400 CORCORAN ST,Oakland,CA,
1400 MACARTHUR BL,Oakland,CA,
9100 E ST,Oakland,CA,
17TH ST & CENTER ST,Oakland,CA,
COLTON BLVD & MAZUELA DR,Oakland,CA,
9800 BLAKE,Oakland,CA,
10600 BANCRAFT AV,Oakland,CA,
WARNER AND BANCROFT,Oakland,CA,
ELLINGTON WY/92ND AV,Oakland,CA,
CLAIREPOINTE WY & KNOLL RIDGE WY,Oakland,CA,
3000 BLK FILBERT ST,Oakland,CA,
85TH AVE & INTERNATIONAL BLVD,Oakland,CA,
BEAT 14X,Oakland,CA,
DIRECTED PATROL BT 27,Oakland,CA,
DELMER ST & LINCOLN AV,Oakland,CA,
8450D EDGEWATER DR,Oakland,CA,
DANA ST & WOOLSEY ST,Oakland,CA,
8200 E ST,Oakland,CA,
SB 23RD OFFRP AV & SB I880,Oakland,CA,
8TH ST & BAY ST,Oakland,CA,
SPECIAL ASSIGNNMENT,Oakland,CA,
SPECICAL ASSIGNMENT,Oakland,CA,
14000 SCHOOL ST,Oakland,CA,
CITY OF OAKLAND,Oakland,CA,
3300 BANCROFT WY,Oakland,CA,
ELYSIAN FIELDS DR & SHADOW MOUNTAIN ST,Oakland,CA,
1800 EMBARCADERO RD,Oakland,CA,
6400 BAYVIEW,Oakland,CA,
"22800 VEMONT ST. APT #9 , HAYWARD",Oakland,CA,
900 S55,Oakland,CA,
9800 E,Oakland,CA,
7200 KINGSLAND AV,Oakland,CA,
1800 TIFFIN RD,Oakland,CA,
4200 BANCROFT AVE,Oakland,CA,
2300 MAYWOOD DR,Oakland,CA,
5400 HOLLAND ST.,Oakland,CA,
4300 REDWOOD RD,Oakland,CA,
LENNOX AND VANBUREN AVE,Oakland,CA,
MONTANA ST AND MAPLE AVE,Oakland,CA,
10200 SHAW ST,Oakland,CA,
6600 BANCROFT AVE,Oakland,CA,
NB 29TH OFFRP AV & E 9TH ST,Oakland,CA,
900 KIRKHAM ST,Oakland,CA,
ADELINE/45TH,Oakland,CA,
40TH/ADEL,Oakland,CA,
1700 92ND AVE,Oakland,CA,
ST ROSE HOSPITAL,Oakland,CA,
FERRO ST & MIDDLE HARBOR RD,Oakland,CA,
19000 ALMOND DR,Oakland,CA,
6400 TELEGRAPH AVE,Oakland,CA,
ATLAS AV & YOUNG AV,Oakland,CA,
BEST AV & KINGSLAND AV,Oakland,CA,
8TH ST,Oakland,CA,
1100 ARCH,Oakland,CA,
ALCATRAZ AND SHATTACK AVE,Oakland,CA,
CORPUS CHRISTI RD & ORION ST,Oakland,CA,
700 WELD ST,Oakland,CA,
SPECIAL ASSIGN DIST 3,Oakland,CA,
HWY24,Oakland,CA,
LAKESHORE,Oakland,CA,
DANA ST & NORTH ST,Oakland,CA,
MARGARIDO DR & MENDOCINO AV,Oakland,CA,
NB I880 & NB UNION ONRP ST,Oakland,CA,
W MAC/ADE,Oakland,CA,
27TH AVE & E 16TH,Oakland,CA,
EB580/GRAND,Oakland,CA,
ORANGE ST AND HARRISON ST,Oakland,CA,
"2000 BRAEMER RD. OAKLAND, 94602",Oakland,CA,
OREGON/SACRAMENTO,Oakland,CA,
3800 CANON AVE,Oakland,CA,
2400 107TH AVE,Oakland,CA,
EB 51ST OFFRP ST & NB I580 CONN,Oakland,CA,
S/A,Oakland,CA,
KEVIN COURT,Oakland,CA,
BEAT 3,Oakland,CA,
1200 54TH ST,Oakland,CA,
45/ADELINE,Oakland,CA,
"PO BOX 6473, CONCORD, CA",Oakland,CA,
MADISON PARK ART ACADEMY,Oakland,CA,
2800 MORLEY DR,Oakland,CA,
BURR ST & OLIVER AV,Oakland,CA,
10500 DANTE AVE,Oakland,CA,
DONNA WY & THUNDERBIRD CT,Oakland,CA,
25TH ST & MARTIN LUTHER KING J,Oakland,CA,
8400 HEGENBERGER RD (WALMART),Oakland,CA,
0 PATRICIA RD,Oakland,CA,
1100 75TH AVE,Oakland,CA,
INTL CORRIDER,Oakland,CA,
PLEASANT ST & WOODBINE AV,Oakland,CA,
500 E 14TH ST,Oakland,CA,
2100 84TH AV,Oakland,CA,
38TH AV & LIESE AV,Oakland,CA,
1800 TUNNEL RD,Oakland,CA,
335A 49TH ST,Oakland,CA,
1500 BEACHUNIT V,Oakland,CA,
12TH ST & MARTIN LUTHER KING J,Oakland,CA,
20TH ST & POPLAR ST,Oakland,CA,
1300 BLK OF MADISON,Oakland,CA,
2600 EL CAMINITO,Oakland,CA,
3RD & LEWIS,Oakland,CA,
CALAVARAS AV & SB S13,Oakland,CA,
WB I580 CONN & MANDELA PKWY,Oakland,CA,
BROADWAY TER & MERRIEWOOD DR,Oakland,CA,
LUCAS AV & MERCED AV,Oakland,CA,
1400 FRUITVALE AVE,Oakland,CA,
2600 EC REEMS,Oakland,CA,
1600 69TH AVE,Oakland,CA,
5900 VALLEJO,Oakland,CA,
600 RANGER,Oakland,CA,
8400 BLK OF HOLLY ST,Oakland,CA,
3800 ADELINE ST,Oakland,CA,
10900 CALODEN LA,Oakland,CA,
1400 16TH AVE,Oakland,CA,
900 ELMVIEW,Oakland,CA,
16000 MATEO ST,Oakland,CA,
6100 OCCIDENTAL ST,Oakland,CA,
GUNN DR & SARONI DR,Oakland,CA,
1400 MUNSON WY,Oakland,CA,
SAINT ANDREWS RD & SEQUOYAH RD,Oakland,CA,
3300 66TH AVE,Oakland,CA,
SPECIAL ASSIGNMET,Oakland,CA,
DIRECTIVE PATROL - BEAT 21,Oakland,CA,
2000 36TH ST,Oakland,CA,
200 KERVIN AVE,Oakland,CA,
2700 FRUITVALE AVE,Oakland,CA,
INTL FROM 14TH AV TO FV,Oakland,CA,
PARK/HOLLIS,Oakland,CA,
2400 FRUITVALE BLVD,Oakland,CA,
8000 SEMINARY,Oakland,CA,
100 MONTE CRESTA AVE,Oakland,CA,
SEPC ASSIGN,Oakland,CA,
40TH ST & TELEGRAPH AVE,Oakland,CA,
CHATHAM RD & EXCELSIOR AV,Oakland,CA,
40TH ST CORRIDOR BETWEEN PIED/TEL 0300,Oakland,CA,
2400 BLK OF ADELINE ST,Oakland,CA,
3900 LAGUNA VISTA AV,Oakland,CA,
INTERNATIONAL BLVD & 103RD AV,Oakland,CA,
BLENHEIM ST & PEARMAIN ST,Oakland,CA,
250D FRANK H OGAWA PLZ,Oakland,CA,
2200 BLK TELEGRAPH AVE,Oakland,CA,
GLEN AVE & PIEDMONT AVE,Oakland,CA,
6TH ST & MARTIN LUTHER KING JR W,Oakland,CA,
VICTORIA/BANCROFT,Oakland,CA,
JORDAN RD & RETTIG AV,Oakland,CA,
800 DAVIS,Oakland,CA,
DATE ST & PHELPS ST,Oakland,CA,
494A 105TH AV,Oakland,CA,
2000 86TH AVE,Oakland,CA,
SP ASSIGN 3A04,Oakland,CA,
SPEC ASSIGN - PORT AREA,Oakland,CA,
INTL 65 TO FV,Oakland,CA,
CARLSEN ST & WILSHIRE BLVD,Oakland,CA,
14400 SKYLINE BLVD,Oakland,CA,
5200 YNACIO AVE,Oakland,CA,
DURANT/INTL,Oakland,CA,
1700 ROSEDALE AV,Oakland,CA,
700 S. ELMHURST AVE,Oakland,CA,
SPECIAL ASSGNMNT D1,Oakland,CA,
COCHRANE AV & FLORENCE AV,Oakland,CA,
3000 TREMONT ST,Oakland,CA,
8300 F ST,Oakland,CA,
MONTCLAIR DISTRICT,Oakland,CA,
FISHER AV & FRAZIER AV,Oakland,CA,
2500 HAVENSCOURT AVE,Oakland,CA,
4200 FAIR AV,Oakland,CA,
5800 MORAGA RD,Oakland,CA,
2200 FRONTAGE RD,Oakland,CA,
FLEMING AVE AND MONTICELLO AVE,Oakland,CA,
PARK & MAC ARTHUR,Oakland,CA,
1000 ELSINORE AVE,Oakland,CA,
ANTIOCH ST & MOUNTAIN BLVD,Oakland,CA,
5700 THORNDALE DR,Oakland,CA,
73RD AVE AND WELD ST,Oakland,CA,
MORAGA/LA SALLE,Oakland,CA,
40/SP,Oakland,CA,
2200 98TH AVE,Oakland,CA,
PARK/MACARTHUR,Oakland,CA,
2300 MOUNTAIN BLVD,Oakland,CA,
DIRECTED PATROL - ALAMEDA AREA,Oakland,CA,
73RD AVE & INTERNATIONAL BLVD,Oakland,CA,
2800 ETTIE ST,Oakland,CA,
PORT OF OAKLAND MIDDLE HARBOR,Oakland,CA,
SUNNYHILLS RD & TRESTLE GLEN RD,Oakland,CA,
2500 LARKSPUR LANDING CIR,Oakland,CA,
600 SW 5,Oakland,CA,
SPECIAL ASSIGNMENT 0300,Oakland,CA,
2300 BLK OF BROADWAY,Oakland,CA,
I580/CENTRAL,Oakland,CA,
"1600 SAN MIGUEL DR WALNUT CREEK, CA 94546",Oakland,CA,
59TH ST & HOWELL ST,Oakland,CA,
900 EMBARCADERO WEST,Oakland,CA,
1100 105TH AV,Oakland,CA,
E 16TH ST & ROSEDALE AV,Oakland,CA,
1700 CARPENTER ST,Oakland,CA,
55/VILLAGE,Oakland,CA,
5600 MARTIN LUTHER KING WAY,Oakland,CA,
1300 HAIGHT ST,Oakland,CA,
MADERA AV & SIMMONS ST,Oakland,CA,
KINGSLEY CIR & MASON ST,Oakland,CA,
0 ORCHARD,Oakland,CA,
900 APGAR ST.,Oakland,CA,
5400 RUTH AVE,Oakland,CA,
1300 LEIMERT BLVD,Oakland,CA,
4400 WOLFE,Oakland,CA,
6200 VALLEJO,Oakland,CA,
4700 SHATTUCK AVE,Oakland,CA,
5100 BROADWAY AVE.,Oakland,CA,
4100 BAYO STREET,Oakland,CA,
4600 BLOCK OF INTERNATIONAL,Oakland,CA,
1400 POTRERO,Oakland,CA,
100 BAY PLACE,Oakland,CA,
4300 VIRGINIA AVE (BACK),Oakland,CA,
1300 88TH AVE,Oakland,CA,
0 NORTH CIR,Oakland,CA,
1400 62ND AVE,Oakland,CA,
40TH ST CORRIDER,Oakland,CA,
1300 86TH AVE,Oakland,CA,
3100 HARPER ST,Oakland,CA,
200 40TH ST. WAY,Oakland,CA,
5400 PARKRIDGE,Oakland,CA,
BAYFAIR,Oakland,CA,
7800 NEY AVE,Oakland,CA,
ELITA/GRAND,Oakland,CA,
29TH AV/ E 10TH ST,Oakland,CA,
TELEGRAPH AREA ONE,Oakland,CA,
PARK AV & SAN PABLO AV,Oakland,CA,
BANNING DR & MOORE DR,Oakland,CA,
LAKESHORE/LAKEPARK,Oakland,CA,
HIGH ST/ VOND,Oakland,CA,
1300 MARINA VILLAGE PKWY,Oakland,CA,
200 JEFFERSON ST,Oakland,CA,
0 CALVERT CT,Oakland,CA,
8600 MAC ARTHUR BLVD,Oakland,CA,
4000 CANYON WY,Oakland,CA,
400 E 8TH ST,Oakland,CA,
BAN/DUTTON,Oakland,CA,
2500 64TH AVE,Oakland,CA,
CHAMBERLIN CT & VIEW CREST DR,Oakland,CA,
28000 FARMHILL DR,Oakland,CA,
HOMEWOOD DR & SARONI DR,Oakland,CA,
838D MANDELA PKWY,Oakland,CA,
SPEC ENF,Oakland,CA,
IFO 3123 PARK BLVD,Oakland,CA,
6000 OAKLAND,Oakland,CA,
I880 & MOWRY,Oakland,CA,
320B 13TH ST,Oakland,CA,
9200 BLK OLIVE ST,Oakland,CA,
MANDANA BLVD & PORTAL AV,Oakland,CA,
1400 MAC ARTHUR BLVD,Oakland,CA,
200 CAMPBELL,Oakland,CA,
23RD ST & MARTIN LUTHER KING J,Oakland,CA,
FRONTAGE & 10TH ST,Oakland,CA,
1600 FV DIRECTED PATROL,Oakland,CA,
99TH/WALNUT,Oakland,CA,
2800 NORTHGATE,Oakland,CA,
5300 KALES,Oakland,CA,
900 81ST AVE,Oakland,CA,
5800 HEARST AV,Oakland,CA,
800 BLK 46TH ST,Oakland,CA,
3RD ST & WEBSTER TUBE,Oakland,CA,
500 66TH AVE,Oakland,CA,
5400 WENTWORTH AVE,Oakland,CA,
1900 DAVIS,Oakland,CA,
9600 B ST.,Oakland,CA,
6800 41,Oakland,CA,
1000 54TH ST.,Oakland,CA,
3000 E. 9TH ST,Oakland,CA,
BWY/BWY TER,Oakland,CA,
HEGENBERGER RD & SNELL ST,Oakland,CA,
98TH AVE & MAGGE ST,Oakland,CA,
1600 MARINE WORLD PKWY,Oakland,CA,
"2100 DAMUTH ST,",Oakland,CA,
10600 SAN LEANDRO ST,Oakland,CA,
DIST 2-2L14,Oakland,CA,
1300 HENDERSON LANE,Oakland,CA,
700 CALMOR AV,Oakland,CA,
700 77TH,Oakland,CA,
2100 22ND AV,Oakland,CA,
1800 BRUSH ST,Oakland,CA,
273V MATHER ST,Oakland,CA,
5800 COLBY,Oakland,CA,
4000 MT HOOD,Oakland,CA,
1000 FOLGER,Oakland,CA,
7TH ST CORRIDOR,Oakland,CA,
GLENEDEN AV & PIEDMONT AV,Oakland,CA,
63RD ST & TELEGRAPH AVE,Oakland,CA,
2300 WOOD ST,Oakland,CA,
6300 CHABOT RD,Oakland,CA,
3800 ALAMEDA AV,Oakland,CA,
200 PARROTT,Oakland,CA,
MARTIN LUTHER KING WMACARTHUR BLVD,Oakland,CA,
399B ORANGE ST,Oakland,CA,
7400 BLK INTERNATIONAL BLVD,Oakland,CA,
6600 LEONA DRIVE,Oakland,CA,
39900 SUNDALE DR FREMONT CA 94538,Oakland,CA,
500 APGAR ST,Oakland,CA,
2700 TALBOT AVE,Oakland,CA,
LAKESHORE/GRAND,Oakland,CA,
DIRECTED PATROL BT 6,Oakland,CA,
10700 CAMERON AV,Oakland,CA,
TELEGRAPH CORIDOR,Oakland,CA,
1700 11TH AVE,Oakland,CA,
9800 PEARMAN ST,Oakland,CA,
3400 BRIGHTON,Oakland,CA,
1400 70TH AVE,Oakland,CA,
2400 WEST 21ST ST,Oakland,CA,
SPEC ASSIGN - DIST 2,Oakland,CA,
BRUNELL DR & ROBINSON DR,Oakland,CA,
4800 CALAVARAS AV,Oakland,CA,
1700 36TH AVE #205,Oakland,CA,
PERALTA ST & WATTS ST,Oakland,CA,
1100 BLK BROADWAY,Oakland,CA,
2827B CARMEL ST,Oakland,CA,
HORTON ST & YERBA BUENA AV,Oakland,CA,
500 BLK 10TH ST,Oakland,CA,
1500 FAIRVIEW ST,Oakland,CA,
1400 HIGH ST.&BANCROFT AV,Oakland,CA,
3300 E 8TH ST,Oakland,CA,
CORAL RD & MAKIN RD,Oakland,CA,
1500 77TH AVE,Oakland,CA,
EB S24 & OAK,Oakland,CA,
NB COLISEUM OFFRP WY & COLISEUM WY,Oakland,CA,
2200 TELEGRAPH AVENUE,Oakland,CA,
711A E 19TH ST,Oakland,CA,
ENOS AV & TULIP AV,Oakland,CA,
4200 ARROYUELO AV,Oakland,CA,
1300 6 AV,Oakland,CA,
607A 23RD ST,Oakland,CA,
10200 GOLF LINKS RD,Oakland,CA,
2700 DURANT AV,Oakland,CA,
MILPITAS CA,Oakland,CA,
35TH AVE & CALIFORNIA ST,Oakland,CA,
1300 OCEAN ST,Oakland,CA,
1400 W GRAND,Oakland,CA,
BEAT 22Y,Oakland,CA,
3500 1&2 DIMOND AV,Oakland,CA,
FISH RANCH RD/OLD TUNNEL RD,Oakland,CA,
2000 89TH AVE,Oakland,CA,
98TH/CORAL,Oakland,CA,
3700 FIELD ST,Oakland,CA,
3400 TRINIDAD AV,Oakland,CA,
CHAMPION ST & EB I580,Oakland,CA,
9900 B STREET,Oakland,CA,
700 11TH ST.,Oakland,CA,
2600 E C REEMS CT,Oakland,CA,
DISTRICT ONE DIRECTIVE PATROL,Oakland,CA,
1300 85TH AVE,Oakland,CA,
CLAR/ALC,Oakland,CA,
7600 CREST,Oakland,CA,
0 SHAWNEE CT,Oakland,CA,
PARKHURST DR & SADDLEBROOK DR,Oakland,CA,
14000 BROADWAY TERRACE,Oakland,CA,
6300 ROCKY POINT CT.,Oakland,CA,
E 11TH ST & 14TH AV,Oakland,CA,
6200 SEMINARY AVE,Oakland,CA,
29TH AVE,Oakland,CA,
2A10 DIRECTIVE,Oakland,CA,
5600 FLEMING AVE,Oakland,CA,
6200 REDWOOD RD,Oakland,CA,
3200 LAURAL AVE,Oakland,CA,
2000 VALE ROAD,Oakland,CA,
9800 BLOCK OF INTERNATIONAL BLVD,Oakland,CA,
500 BLOCK OF 14TH STREET,Oakland,CA,
CENTER ST & SHATTUCK AV,Oakland,CA,
900 WEST K ST BENICIA,Oakland,CA,
900 SCENIC DR,Oakland,CA,
1135V 65TH AV,Oakland,CA,
3900 ADELINE,Oakland,CA,
1300 79TH AVE,Oakland,CA,
3200 BAYO VISTA,Oakland,CA,
4400 SHELLMOND,Oakland,CA,
W. GRAND AV & CAMPBELL ST,Oakland,CA,
2000 WEBSTER ST (24 HR FITNESS),Oakland,CA,
8200 MAC ARTHUR BLVD,Oakland,CA,
9800 CHERRY ST,Oakland,CA,
0 33 INTERNATIONAL BLVD,Oakland,CA,
5700 ASCOT DR,Oakland,CA,
BROOKDALE/35,Oakland,CA,
ESTRELLA AV & RAMONA AV,Oakland,CA,
2700 62ND AV,Oakland,CA,
DIRECTIVE DIST 4,Oakland,CA,
BROADWAY & MAC ARTHUR BLVD,Oakland,CA,
2300 50TH AV,Oakland,CA,
3250A LAKESHORE AV,Oakland,CA,
56TH AV & ROBERTS AV,Oakland,CA,
W GRAND/HARRISON,Oakland,CA,
100 BAYO VISTA AVE,Oakland,CA,
"700 E CAPITOL AVE, MILPITAS",Oakland,CA,
2600 73RD AV (PRIVATE PROPERTY),Oakland,CA,
500 1&2 62ND ST,Oakland,CA,
7200 LACEY,Oakland,CA,
400 BRANHAM LN,Oakland,CA,
900 ISABELLA,Oakland,CA,
4700 SHAFTER AV,Oakland,CA,
14TH AVE@E. 15TH ST,Oakland,CA,
2100 42ND AVE,Oakland,CA,
COLISEUM WAY,Oakland,CA,
1200 LAKESHORE AVE,Oakland,CA,
3200 HOLLIS,Oakland,CA,
DURRANT & BEVERLY,Oakland,CA,
UPPER TEMESCAL AREA,Oakland,CA,
9900 HOLLY,Oakland,CA,
DIRECTED PATROL - AREA 4,Oakland,CA,
900 POPLAR WAY,Oakland,CA,
"4000 RENICK WY, NORTH HIGHLAND",Oakland,CA,
52ND ST & WB S24,Oakland,CA,
CENTER ST & PERALTA ST,Oakland,CA,
