Address,City,State,Zip
2300 108TH AVE.,Oakland,CA,
5900 ESCHER DR,Oakland,CA,
4900 WALNUT ST,Oakland,CA,
HARBOR VIEW AV & MAGEE AV,Oakland,CA,
BURR ST THOMPSON ST,Oakland,CA,
45TH ST & WB S24,Oakland,CA,
10500 ROYAL OAK RD,Oakland,CA,
GROSVENOR PL & HOLMAN RD,Oakland,CA,
4500 BANCROFT WY,Oakland,CA,
9700 ANZA AV,Oakland,CA,
0 FRANKLIN ST. #100,Oakland,CA,
OVERMOOR ST & SNOWDOWN AV,Oakland,CA,
COLGETT DR & CRESTMONT DR,Oakland,CA,
GRAND AVE AND PERKINS,Oakland,CA,
1500 E23RD ST,Oakland,CA,
800 RUSSET ST,Oakland,CA,
E 14TH ST & INTERNATIONAL BLVD,Oakland,CA,
WB I580 CONN & WB W GRAND OFFRP AV,Oakland,CA,
DISRTICT 3,Oakland,CA,
SHATTUCK AVE & 65TH STREET,Oakland,CA,
2100 10TH,Oakland,CA,
3100 BROOKDALE AVE,Oakland,CA,
DIRECTED PARTROL,Oakland,CA,
4800 SCOTIA AV,Oakland,CA,
97TH AVE & 14TH AVE,Oakland,CA,
4200 MSTERSON ST,Oakland,CA,
7000 BLK ARTHUR ST,Oakland,CA,
1700 1&2 BRIDGE AV,Oakland,CA,
45TH/SP,Oakland,CA,
2134C 62ND AV,Oakland,CA,
CONFIDENTIAL,Oakland,CA,
DISTRICT 2 DIRECT PATROL,Oakland,CA,
MIDDLE HARBOR RD AND K ST,Oakland,CA,
MALCOLM AV & SHELDON ST,Oakland,CA,
ST ROSE - SAN LEANDRO,Oakland,CA,
3600 HANLY RD,Oakland,CA,
3631A HAGEMAN AV,Oakland,CA,
4800 STACY ST,Oakland,CA,
14TH ST. & BROADWAY,Oakland,CA,
949A 105TH AV,Oakland,CA,
8TH ST AND WEBSTER ST,Oakland,CA,
1700 104TH AVE,Oakland,CA,
4800 MARKET ST,Oakland,CA,
1200 42ND AVE,Oakland,CA,
1200 95TH AVE,Oakland,CA,
1200 PARKER ST,Oakland,CA,
2300 LEIMERT BL,Oakland,CA,
0 OAK ST,Oakland,CA,
73RD AVE & FAVOR ST,Oakland,CA,
6200 BROMLEY ST,Oakland,CA,
1600 MONO AVE,Oakland,CA,
1ST ST & BROADWAY,Oakland,CA,
WB 11TH ONRP ST & BRUSH ST,Oakland,CA,
39TH AVE AND BAYO ST,Oakland,CA,
E 38TH ST & LINWOOD AV,Oakland,CA,
MANDELA PARKWAY,Oakland,CA,
6900 SKYLINE BLVD,Oakland,CA,
47TH ST & TELEGRAPH AVE,Oakland,CA,
23RD ST & KENNEDY ST,Oakland,CA,
SPECIAL ASSIGN/INTERNATIONAL,Oakland,CA,
13TH AV & PARK BOULEVARD WY,Oakland,CA,
ALCATRAZ AV & CALIFORNIA ST,Oakland,CA,
2100 KAISER PLAZA,Oakland,CA,
ALMANZA DR & TOPANGA DR,Oakland,CA,
1600 POWELL,Oakland,CA,
73RD AV,Oakland,CA,
21200 REDWOOD ROAD,Oakland,CA,
9TH AV & EMBARCADERO,Oakland,CA,
9700 MACARTHUR BVD,Oakland,CA,
300 WARREN AV,Oakland,CA,
1000 LEO WY,Oakland,CA,
4100 ALLENDALE AVE.,Oakland,CA,
2800 SAN LEANDRO,Oakland,CA,
8400 EDES AVE,Oakland,CA,
1200 FRUITVALE AVE,Oakland,CA,
BANCROFT AV & DUTTON,Oakland,CA,
INTEL CORRID DIRECT PATROL,Oakland,CA,
4400 COLISEUM WY,Oakland,CA,
2300 86TH AVE,Oakland,CA,
2000 BLK SAN PABLO AVE,Oakland,CA,
SPEC ASSIGN TAC 4,Oakland,CA,
GLENARMS DR & PALI CT,Oakland,CA,
800 93ND AV,Oakland,CA,
8700 G STREET,Oakland,CA,
1100 46TH AV,Oakland,CA,
EB MACARTHUR ONRP BL & OAKLAND AV,Oakland,CA,
1800 96TH AVE,Oakland,CA,
37TH ST & TELEGRAPH,Oakland,CA,
1827A E 22ND ST,Oakland,CA,
FLEMING AV & MODESTO AV,Oakland,CA,
800 OAKLAND AV,Oakland,CA,
MOORE DR & SHEPHERD CANYON RD,Oakland,CA,
MAC ARTHUR & PIERSON ST,Oakland,CA,
EB I580 & EB LAKESHORE ONRP AV,Oakland,CA,
4300 PAMPAS AVE,Oakland,CA,
2800 TELEGRAPH AVE,Oakland,CA,
2900 MACARTHUR BLVD.,Oakland,CA,
47TH AVE & INTERNATIONAL BLVD,Oakland,CA,
HAWKINS/INTERNATIONAL,Oakland,CA,
8800 MAC ARTHUR BLVD,Oakland,CA,
EMERSON WY & PARK BLVD,Oakland,CA,
17TH ST & SAN PABLO AVE,Oakland,CA,
CALAVARAS AV & TOMPKINS AV,Oakland,CA,
1300 24TH ST,Oakland,CA,
98TH AV/ A ST,Oakland,CA,
900 BLOCK OF FRUITVALE AV,Oakland,CA,
HASTE ST/TELEGRAPH,Oakland,CA,
HALCYON & WASHINGTON,Oakland,CA,
3430A SALISBURY ST,Oakland,CA,
38TH AV & EB I580,Oakland,CA,
1700 51ST AV,Oakland,CA,
900 83 AV,Oakland,CA,
2300 13TH AVE,Oakland,CA,
98TH AV & HILLGRADE CT,Oakland,CA,
2300 ,Oakland,CA,
BROADWAY & MONROE AV,Oakland,CA,
8900 LAWLOR ST OAKLAND 94605,Oakland,CA,
6300 ROCKY PT CT,Oakland,CA,
2700 NORTHGATE,Oakland,CA,
300 MANDALAY RD,Oakland,CA,
600 MAGNOLIA AV,Oakland,CA,
3800 ALTAMONT AV,Oakland,CA,
4100 ADELINE ST,Oakland,CA,
BRIGHTON AV & GREENWOOD AV,Oakland,CA,
4800 BROOKDALE AVE,Oakland,CA,
8600 SAN LEANDRO ST,Oakland,CA,
1500 27TH AVE,Oakland,CA,
2700 MOUNTAINGATE W,Oakland,CA,
KEVIN CT,Oakland,CA,
5400 BROOKDALE AVE,Oakland,CA,
GRAND & OAKL,Oakland,CA,
GRIZZLY PEAK BLVD & LOMAS CANTADAS,Oakland,CA,
5400 BLK RUTH AV,Oakland,CA,
VAN CLEAVE WY & WESTFIELD WY,Oakland,CA,
10000 BANCROFT AV,Oakland,CA,
ALIDA CT & ALIDA ST,Oakland,CA,
200 GRAU DR,Oakland,CA,
3400 HIGH,Oakland,CA,
6100 HILTOM ST,Oakland,CA,
GREENBRIER ST & TURNER AV,Oakland,CA,
5100 MARKET ST,Oakland,CA,
2800 NICOLE AV,Oakland,CA,
500 PREALTA ST,Oakland,CA,
55TH ST & EB S24,Oakland,CA,
2500 82ND AVE,Oakland,CA,
4600 3RD ST SAN FRANCISCO CA,Oakland,CA,
62ND ST & VALLEJO ST,Oakland,CA,
800 STAN,Oakland,CA,
2400 38TH AVE,Oakland,CA,
3500 CESAR CHAVEZ,Oakland,CA,
DIRECTIVE PATROL DISTRICT 4,Oakland,CA,
6400 CHURCH ST,Oakland,CA,
200 BROADMOOR BLVD,Oakland,CA,
DOOLITTLE AND ADAMS ST,Oakland,CA,
TELEGRAPH & ASHBY,Oakland,CA,
4100 BROOKDALE AVENUE,Oakland,CA,
3600 39TH AVE,Oakland,CA,
42ND ST & MARTIN LUTHER KING JR,Oakland,CA,
1100 39TH AV,Oakland,CA,
0 BLACHFORD CT,Oakland,CA,
DIRECTED PATROL AREA 2,Oakland,CA,
DIRETED PATROL,Oakland,CA,
3400 SAN LEANDRO BLVD,Oakland,CA,
EMBARCADERO COVE & LIVINGSTON ST,Oakland,CA,
1901A POPLAR ST,Oakland,CA,
UNION CITY,Oakland,CA,
2100 7TH ST,Oakland,CA,
1725A PERALTA ST,Oakland,CA,
10700 EAGLE COURT,Oakland,CA,
2400 25TH AVE.,Oakland,CA,
WB GRAND ONRP AV & WB I580,Oakland,CA,
HAVEN ST AND FITZGERALD ST,Oakland,CA,
47TH ST & ADELINE,Oakland,CA,
EB I-80 51ST ST,Oakland,CA,
"3100 NAGLEE RD, TRACY CA",Oakland,CA,
5000 FAIRFAX AVE,Oakland,CA,
1200 HAWTHORNE ST,Oakland,CA,
34TH AV & ELMWOOD AV,Oakland,CA,
HOOD ST & STELLA ST,Oakland,CA,
3440A ADELL CT,Oakland,CA,
9400 A,Oakland,CA,
700 MOORPARK ST,Oakland,CA,
BLYTHEN WY & WEE BLYTHEN,Oakland,CA,
8500 BLK ALVINGROOM CT,Oakland,CA,
2900 FILBERT ST.,Oakland,CA,
3411E E 12TH ST,Oakland,CA,
1300 102ND AVE,Oakland,CA,
LIVERMORE,Oakland,CA,
7500 WELD AVE,Oakland,CA,
2100 67TH AV,Oakland,CA,
4200 EMERALD,Oakland,CA,
10600 PONTAC ST,Oakland,CA,
6300 LEONA ST,Oakland,CA,
73RD AVE,Oakland,CA,
COLLEGE AVE AREA,Oakland,CA,
4300 MARKET,Oakland,CA,
4600 JACOBUS AV,Oakland,CA,
30TH & LINDEN,Oakland,CA,
WB I580 & OAKLAND AV,Oakland,CA,
10700 LOCHARD ST,Oakland,CA,
GHOST TOWN AREA,Oakland,CA,
300 MAGNOLIA ST,Oakland,CA,
800 SANTA RAY AVE,Oakland,CA,
TAYLOR AV & THERMAL ST,Oakland,CA,
7200 BLOCK OF BANCROFT,Oakland,CA,
BALMORAL DR & BLYTHEN WY,Oakland,CA,
1800 98TH AVE,Oakland,CA,
18TH ST & MARTIN LUTHER KING JR WAY,Oakland,CA,
1900 97TH AV,Oakland,CA,
8900 MOUNTAIN BLVD,Oakland,CA,
477C CHETWOOD ST,Oakland,CA,
8000 REDWOOD RD,Oakland,CA,
9500 STEARNS AVE,Oakland,CA,
9800 DENSLOWE AV,Oakland,CA,
5500 HILLTOP CRES,Oakland,CA,
DIST 123,Oakland,CA,
0 HAAS,Oakland,CA,
1500 33RD AVE,Oakland,CA,
3456A RHODA AV,Oakland,CA,
MINNA AV & WALNUT ST,Oakland,CA,
ALCATRAZ/ADELINE,Oakland,CA,
2400 MARTIME,Oakland,CA,
0 CABRILLO PL,Oakland,CA,
2400 W 16TH ST,Oakland,CA,
10000 MAC ARTHUR BLVD,Oakland,CA,
BEVERLY AV & 108TH AV,Oakland,CA,
INTERNATIONAL BL & 54TH AV,Oakland,CA,
2400 WEST 17TH ST,Oakland,CA,
2600 EC REEMS CRT,Oakland,CA,
I80/SP,Oakland,CA,
WYMAN PL & WYMAN ST,Oakland,CA,
800 BRUSH ST,Oakland,CA,
43RD ST & 44TH ST,Oakland,CA,
8400 GOLFS LINKS ROAD,Oakland,CA,
BROOKPARK RD & PARKRIDGE DR,Oakland,CA,
2000 MASTLANDS DR,Oakland,CA,
8400 SAN LEANDRO AV,Oakland,CA,
DONNA WY & INVERNESS CT,Oakland,CA,
600 BLOCK OF CAMDEN,Oakland,CA,
8300 OUTLOOK AVE,Oakland,CA,
3900 AQUA VISTA ST,Oakland,CA,
1200 E. 20TH ST,Oakland,CA,
7200 HALLIDAY AVE,Oakland,CA,
CORAL/98TH,Oakland,CA,
1100 OAKLAND AV,Oakland,CA,
4800 GRIZZLY PEAK BLVD,Oakland,CA,
4500 MERRILL AVE,Oakland,CA,
OAKRIDGE/COLLEGE,Oakland,CA,
1000 92ND AVE,Oakland,CA,
62/ADEL,Oakland,CA,
LEET DR & PENDLETON WY,Oakland,CA,
6100 LA SALLE ST,Oakland,CA,
5400 LOCKSLEY ST,Oakland,CA,
2031A 69TH AV,Oakland,CA,
5700 ROMANY ROAD,Oakland,CA,
100 MYRTLE STREET,Oakland,CA,
1000 47TH ST,Oakland,CA,
107TH AV & SHELDON ST,Oakland,CA,
2500 E16TH ST,Oakland,CA,
9900 E ST.,Oakland,CA,
38TH ST & CERRITO AV,Oakland,CA,
BUENA VISTA AV & GOLDEN GATE AV,Oakland,CA,
DEAKIN ST & WOOLSEY ST,Oakland,CA,
9607A STEARNS AV,Oakland,CA,
8200 E STREET,Oakland,CA,
7700 EARHART RD,Oakland,CA,
2800 BUTON DR,Oakland,CA,
600 E8TH ST,Oakland,CA,
1100 61ST AVE,Oakland,CA,
1100 DRURY RD,Oakland,CA,
LAKESHORE AVE & HANOVER,Oakland,CA,
10500 EDES AVE,Oakland,CA,
CAMERON AV & MALCOLM AV,Oakland,CA,
2400 BLOCK OF WEBSTER,Oakland,CA,
LINCOLNSHIRE DR & WESTMINSTER DR,Oakland,CA,
8900 CASTLEWOOD ST,Oakland,CA,
100 LATHAM ST,Oakland,CA,
BZ 19,Oakland,CA,
SEMINARY AND HAYES,Oakland,CA,
EB BROADWAY OFFRP & KEITH AV,Oakland,CA,
3500 CHAMPION,Oakland,CA,
BROADWAY TER & SWAINLAND RD,Oakland,CA,
40TH ST/SAN PABLO,Oakland,CA,
6700 WOODLAND PL,Oakland,CA,
6000 BANCROFT AVE,Oakland,CA,
LAKE PARK/GRAND,Oakland,CA,
DIRECTIVE PAT DIST 1,Oakland,CA,
1700 73RD AVE,Oakland,CA,
SAN LEANDRO & DAVIS ST,Oakland,CA,
MANDANA BLVD & RAND AV,Oakland,CA,
CAPISTRANO DR AND 105TH AVE,Oakland,CA,
5000 YGNACIO AVE,Oakland,CA,
MONTE VISTA AV & ROBLEY TER,Oakland,CA,
1200 FILBERT ST,Oakland,CA,
COWPER ST & SAN PABLO AV,Oakland,CA,
200 GARCIA AV,Oakland,CA,
6600 LEONA CREEK DRIVE,Oakland,CA,
BROADWAY TER & URANUS AV,Oakland,CA,
2900 13TH AV,Oakland,CA,
23RD AV & ARDLEY AV,Oakland,CA,
5900 AVENAL AVENUE,Oakland,CA,
1400 POPLAR ST,Oakland,CA,
GREENRIDGE DR & RILEA WY,Oakland,CA,
700 ELM HURST AVE,Oakland,CA,
E 20TH ST & MITCHELL ST,Oakland,CA,
426A ATHOL AV,Oakland,CA,
600 BLK OF SYCAMORE,Oakland,CA,
1000 85TH AVE,Oakland,CA,
SB ADELINE ONRP ST & MARKET ST,Oakland,CA,
9200 HILLSIDE,Oakland,CA,
81ST AVE & RUDSDALE ST,Oakland,CA,
HARRINGTON AND FOOTHILL,Oakland,CA,
ALVARADO RD & GYPSY LN,Oakland,CA,
LINC & PARK,Oakland,CA,
NB 42ND CONN AV & NB HIGH ONRP S,Oakland,CA,
BALBOA DR & PASO ROBLES DR,Oakland,CA,
0 & ADELINE,Oakland,CA,
7400 MAC ARTHUR BLVD,Oakland,CA,
MONTGOMERY ST & PLEASANT VALLEY RD,Oakland,CA,
2200 SAN PABLO AVE,Oakland,CA,
6500 HARWOOD AV,Oakland,CA,
PORT AREA,Oakland,CA,
1200 STANFORD AVE.,Oakland,CA,
TEL COORIDOR,Oakland,CA,
3600 SAN LEANDRO BLVD,Oakland,CA,
BOYD AV & CAVOUR ST,Oakland,CA,
DIRECTED PATROL IN THE DISTRICT,Oakland,CA,
6800 THE TURN,Oakland,CA,
3200 HAMLINE AVE,Oakland,CA,
MANDELLA CORRIDOR,Oakland,CA,
PRINCE ST & YORK ST,Oakland,CA,
DISTRICT 1/2,Oakland,CA,
2000 BLOSSOM WAY,Oakland,CA,
1500 WALTER HAWKINS,Oakland,CA,
ELYSIAN FIELDS DR & MOUNTAIN VALLEY,Oakland,CA,
800 MARKET ST.,Oakland,CA,
CALANDRIA AV & MURILLO AV,Oakland,CA,
FRUITVALE AND INTERNATIONAL (BANK OF AMERICA),Oakland,CA,
3700A FOOTHILL BLVD,Oakland,CA,
2200 1&2 41ST AV,Oakland,CA,
DISTRICT 2 - S/A,Oakland,CA,
HARBOR VIEW AV & VALE AV,Oakland,CA,
35TH AV CORRIDOR,Oakland,CA,
3154A HIGH ST,Oakland,CA,
SAN LEANDRO AVE & 37TH AVE,Oakland,CA,
CLARENDON CRES & LONGRIDGE RD,Oakland,CA,
300 PLEASANT WY,Oakland,CA,
SARONI DR & WOODROW DR,Oakland,CA,
10100 BIRCH ST,Oakland,CA,
CHEROKEE AV & LAWLOR ST,Oakland,CA,
CHARIOT LN & SURREY LN,Oakland,CA,
6TH ST & NB OAK OFFRP ST,Oakland,CA,
1800 BLK FOOTHILL BLVD,Oakland,CA,
4600 YGNACIO AV,Oakland,CA,
1900 47TH AVE,Oakland,CA,
1100 100TH AVE,Oakland,CA,
DIRECT PATROL DISTRICT 3,Oakland,CA,
800 1&2 37TH ST,Oakland,CA,
4400 SHELOOMOUND ST,Oakland,CA,
800 1&2 APGAR ST,Oakland,CA,
DOWNTOWN WALKING,Oakland,CA,
NB S13 CONN & WB S24,Oakland,CA,
900 HOLLYWOOD AV,Oakland,CA,
MERRIEWOOD DR & VALLEY VIEW RD,Oakland,CA,
ARDMORE AV & MANDANA BLVD,Oakland,CA,
KAPHAN AV & REINHARDT DR,Oakland,CA,
INTERNATIONAL AND MACARTHUR CORRIDOR,Oakland,CA,
3000 62ND AVE,Oakland,CA,
900 MAGNOLIA ST,Oakland,CA,
W MAC/SP,Oakland,CA,
2800 KITCHENER CT,Oakland,CA,
2200 48TH AVE,Oakland,CA,
430G CANYON OAKS DR,Oakland,CA,
SPECIAL ASSIGN -- BT3,Oakland,CA,
3700 MACATHUR BL,Oakland,CA,
6TH ST & ADELINE ST,Oakland,CA,
MYSTIC ST & ROCKWELL ST,Oakland,CA,
600 52ND ST,Oakland,CA,
DIRECTIVE PATROL D2,Oakland,CA,
900 5TH ST,Oakland,CA,
I580/GILMAN,Oakland,CA,
3300 ENCINA WY,Oakland,CA,
3000 FRUITVALE AVENUE,Oakland,CA,
5500 MCMILLAN AV,Oakland,CA,
GOSS ST & WILLOW ST,Oakland,CA,
6900 1&2 FRESNO ST,Oakland,CA,
90TH AV & MAC ARTHUR,Oakland,CA,
9300 OSCAR ST,Oakland,CA,
10300 VOLTAIRE AVE,Oakland,CA,
"WOOLSLEY, BERKELEY",Oakland,CA,
7100 LOCKHEED,Oakland,CA,
6000 BALBOA DR,Oakland,CA,
7800 GARFIELD ST,Oakland,CA,
ASCOT DR & HOLYROOD DR,Oakland,CA,
7800 ELDER ST,Oakland,CA,
E 12TH ST & 49TH AV,Oakland,CA,
BT 15 DIRECTED PATROL,Oakland,CA,
CHARLESTON ST & COOLIDGE AV,Oakland,CA,
WILDCAT CANYON RD,Oakland,CA,
2332A IVY DR,Oakland,CA,
4000 HEGENBERGER RD,Oakland,CA,
1000 OAKGROVE RD,Oakland,CA,
0 GRASS VALLEY CT,Oakland,CA,
8400 BLK BANCROFT AV,Oakland,CA,
46TH AV & NB COLISEUM OFFRP WY,Oakland,CA,
4000 BLK OF TELEGRAPH,Oakland,CA,
2300 66TH AVE,Oakland,CA,
10600 SN LEANDRO ST,Oakland,CA,
1400 71ST AVE,Oakland,CA,
HOMEWOOD DR & RIDGEWOOD DR,Oakland,CA,
0 EMBARCADREO WEST,Oakland,CA,
40TH/EMERY,Oakland,CA,
6000 BLK ASCOT,Oakland,CA,
KAISER SF,Oakland,CA,
2700 82ND AV,Oakland,CA,
2000 BANCROFT WY,Oakland,CA,
1400 26TH ST,Oakland,CA,
DIRECTED PATROL FV/FH,Oakland,CA,
2600 E. 25TH ST,Oakland,CA,
PIEDMONT AV CORRIDOR,Oakland,CA,
8400 IRIS,Oakland,CA,
2500 25TH AVE,Oakland,CA,
14TH AV,Oakland,CA,
1100 72ND AVE,Oakland,CA,
MOUNTAIN VIEW AND SHONE AVE,Oakland,CA,
COSGRAVE AV & NEY AV,Oakland,CA,
SAN PABLO & 40TH,Oakland,CA,
400 BURLWOOD,Oakland,CA,
MLK & 52ND ST,Oakland,CA,
900 76TH AVE,Oakland,CA,
2300 82ND AVE,Oakland,CA,
2000 1&2 E 17TH ST,Oakland,CA,
1700 MILVIA,Oakland,CA,
1100 24TH ST.,Oakland,CA,
1200 EVERETT AV,Oakland,CA,
6000 N CANYON,Oakland,CA,
3900 SANBORN DR,Oakland,CA,
3800 BLK SAN LEANDRO AV,Oakland,CA,
CHAMPION ST & WB I580,Oakland,CA,
BANCROFT/SPAULDING,Oakland,CA,
300 THORTON ST,Oakland,CA,
34TH AVE & FOOTHILL BLVD,Oakland,CA,
41ST ST,Oakland,CA,
TAC4,Oakland,CA,
2500 APPIAN WY,Oakland,CA,
500 OREGON ST&VALLEJO,Oakland,CA,
BARMIED PL & SKYLINE BLVD,Oakland,CA,
CORAL RD & FITZPATRICK RD,Oakland,CA,
14TH/BDWY CORRIDER,Oakland,CA,
HUDSON ST & JAMES AV,Oakland,CA,
BRISTOL BLVD & INTERNATIONAL BLV,Oakland,CA,
5600 1&2 TELEGRAPH AV,Oakland,CA,
64TH,Oakland,CA,
HARBORD DR & MARR AV,Oakland,CA,
3300 BROOKDALE AVE,Oakland,CA,
171-12TH ST,Oakland,CA,
INTL/FV CORRIDOR,Oakland,CA,
CASTLEWOOD ST & OAK KNOLL BLVD,Oakland,CA,
BT 12,Oakland,CA,
4100 MALCOLM AV,Oakland,CA,
200 PARK VIEW AV,Oakland,CA,
DIRECTED PATTROL,Oakland,CA,
8700 E,Oakland,CA,
INTL/95,Oakland,CA,
1000 105TH AVE,Oakland,CA,
4921A SHATTUCK AV,Oakland,CA,
300 LEASTER AVE,Oakland,CA,
1700 24TH,Oakland,CA,
"1900 MONTE DIABLO AV, STOCKTON",Oakland,CA,
MACARTHUR BART,Oakland,CA,
4646B SEQUOYAH RD,Oakland,CA,
MOUNTAIN BLVD & WB MOUNTAIN ONRP BL,Oakland,CA,
CLAREMONT AV & MYSTIC ST,Oakland,CA,
3100 E 22ND ST,Oakland,CA,
100 98TH AVE,Oakland,CA,
EMBARCADERO WEST & MARTIN LUTHER,Oakland,CA,
2500 PINE ST APT 205,Oakland,CA,
5040A INTERNATIONAL BLVD,Oakland,CA,
1500 HARMON,Oakland,CA,
FREMONT/TAMAYO,Oakland,CA,
1800 87TH AVE,Oakland,CA,
1200 ARIANE COURT,Oakland,CA,
CHINA TOWN,Oakland,CA,
IFO 583 57TH ST,Oakland,CA,
IKEA,Oakland,CA,
ASHBY AV & DOMINGO AV,Oakland,CA,
800 POPLAR WY,Oakland,CA,
1500 OAK ST,Oakland,CA,
2900 HARRINGTON AV,Oakland,CA,
30TH AND TELEGRAPH,Oakland,CA,
8700 HILLSIDE ST APT 122,Oakland,CA,
6900 OUTLOOK,Oakland,CA,
2300 SAN PABLO AN,Oakland,CA,
FLEMING/90TH,Oakland,CA,
SAN MATEO MEDICAL CENTER,Oakland,CA,
500 PALISADE,Oakland,CA,
4200 BAYO ST,Oakland,CA,
2300 WEST 133RD SAN LEANDRO,Oakland,CA,
36TH ST & MAGNOLIA ST,Oakland,CA,
ROSS CIR & ROSS ST,Oakland,CA,
CASTLE DR & MELVILLE DR,Oakland,CA,
9000 EARHART DR,Oakland,CA,
1800 HARMON,Oakland,CA,
1100 ELMHURST AVE,Oakland,CA,
3300 MAYBELL WAY,Oakland,CA,
200 CARO RD,Oakland,CA,
1600 100TH AVE,Oakland,CA,
60TH ST & MARTIN LUTHER KING JR,Oakland,CA,
"3700 39TH AVE, APT 2",Oakland,CA,
4704A MACARTHUR BLVD,Oakland,CA,
FALLON ST & OAK ST,Oakland,CA,
4500 LAWTON AV,Oakland,CA,
3500 TELEGRAPH AVE,Oakland,CA,
HEGENBERGER  WALMART,Oakland,CA,
5700 MILES AVE,Oakland,CA,
5500 OAKPORT ST,Oakland,CA,
900 72ND AVE,Oakland,CA,
MIDDLE HARBOR,Oakland,CA,
4900 LEONA ST,Oakland,CA,
0 KAISER PLAZA,Oakland,CA,
6400 OAKPORT ST,Oakland,CA,
0 ST AND BROADWAY,Oakland,CA,
20TH ST & MARTIN LUTHER KING J,Oakland,CA,
0 SOUTHWOOD CT,Oakland,CA,
DOLORES AV & PARK BLVD,Oakland,CA,
A & I 880,Oakland,CA,
500 21 ST,Oakland,CA,
0 EALING LN,Oakland,CA,
2700 ECREEMS,Oakland,CA,
DIRECT PATROL BEAT 23/27,Oakland,CA,
62ND AVE & AVENAL ST,Oakland,CA,
100 ISLETON AVE,Oakland,CA,
2600 BLK INTERNATIONAL BLVD,Oakland,CA,
PACKARD ST & STONEMASON CT,Oakland,CA,
700 12TH AV,Oakland,CA,
TRACY CA,Oakland,CA,
80TH AV,Oakland,CA,
1000 UNIVERSITY,Oakland,CA,
2400 89TH,Oakland,CA,
2700 67TH AVE,Oakland,CA,
SL/BROADMORE,Oakland,CA,
5200 SEMINARY AV,Oakland,CA,
6900 RUDSDALE ST,Oakland,CA,
DARIEN AV & GHORMLEY AV,Oakland,CA,
700 76TH AVE,Oakland,CA,
3900 MARTIN LUTHER KING WAY,Oakland,CA,
0 MADDUX AVE,Oakland,CA,
FLEMING AV & MORSE DR,Oakland,CA,
AREA THREE,Oakland,CA,
CRESTMONT DR & SAMARIA LN,Oakland,CA,
2000 51ST AV,Oakland,CA,
AREA1,Oakland,CA,
2600 THERMO ST,Oakland,CA,
ADAMS ST & CHETWOOD ST,Oakland,CA,
ADELINE ST & ALCATRAZ AV,Oakland,CA,
BURCKHALTER ELEMENTRY SCHOOL,Oakland,CA,
HAZELWOOD CT & MADDUX DR,Oakland,CA,
BIRDSALL AV & MELDON AV,Oakland,CA,
LYNDE/COOLIDGE,Oakland,CA,
HARWOOD AV & ROSS ST,Oakland,CA,
DISTRIC 3,Oakland,CA,
1700 ALICE ST,Oakland,CA,
3040C FRUITVALE AV,Oakland,CA,
9000 BANCROFT AVE,Oakland,CA,
2400 7TH ST,Oakland,CA,
5500 COLISEUM WY,Oakland,CA,
5500 PRINCETON,Oakland,CA,
855B 30TH ST,Oakland,CA,
7300 BLOCK OF BANCROFT,Oakland,CA,
BEATS 23 & 27,Oakland,CA,
69TH AV & RUDSDALE ST,Oakland,CA,
100 W JACKSON ST,Oakland,CA,
3500 OAKNOLL BLVD,Oakland,CA,
FT OF 29,Oakland,CA,
5300 BLK SHATTACK AV,Oakland,CA,
800 EVERETT AV,Oakland,CA,
BRANDON ST & ROSE AV,Oakland,CA,
FH/WESTBAY,Oakland,CA,
55TH AV & HARVEY AV,Oakland,CA,
1200 E. 12TH ST,Oakland,CA,
400 1&2 38TH ST,Oakland,CA,
DIRECTIVE PATR,Oakland,CA,
12100 DEWEY,Oakland,CA,
9300 G ST,Oakland,CA,
PEMBROKE CT & STANTONVILLE DR,Oakland,CA,
EDGEWOOD AV & EVERETT AV,Oakland,CA,
CALDECOTT LN & WB TUNNEL ONRP RD,Oakland,CA,
HERMOSA AV & JACOBUS AV,Oakland,CA,
1100 58TH AVE,Oakland,CA,
BRANDON ST & PIEDMONT AV,Oakland,CA,
46TH & SHATTUCK AVE,Oakland,CA,
SAN PABLO CORRIDOR,Oakland,CA,
1300 BLK 94TH AVE,Oakland,CA,
6400 BAYVIEW DR,Oakland,CA,
400 7TH AV,Oakland,CA,
1800 POWELL ST,Oakland,CA,
INTERNATIONAL FROM 1ST TO FV,Oakland,CA,
BEAT 28,Oakland,CA,
I205 & I5,Oakland,CA,
5532A SHATTUCK AV,Oakland,CA,
98TH AND INTERNATIONAL,Oakland,CA,
1200 53RD ST,Oakland,CA,
OAKLAND HIGH SCHOOL,Oakland,CA,
MACARTHUR/SEMINARY,Oakland,CA,
400 43RD STREET,Oakland,CA,
400 CLIFFTON AVE,Oakland,CA,
LAKE ANZA RD,Oakland,CA,
BANCROFT AV & BOND ST,Oakland,CA,
KENNEDY ST & E7TH ST,Oakland,CA,
7200 KAUSE ST,Oakland,CA,
22ND AV & E 26TH ST,Oakland,CA,
INTERSTATE 80 TOLL PLAZA,Oakland,CA,
0 KILLBEGS,Oakland,CA,
800 BLK ADELINE ST,Oakland,CA,
HUDSON ST & EB S24,Oakland,CA,
NEY AND COSGRAVE AVE,Oakland,CA,
7900 NEY AVE,Oakland,CA,
10700 MAC ARTHUR BLVD,Oakland,CA,
2000 FAIRMONT,Oakland,CA,
2200 WAKE AV,Oakland,CA,
2500 APPIAN WAY,Oakland,CA,
ABBEY ST & PENNIMAN AV,Oakland,CA,
45/ADE,Oakland,CA,
900 PANORAMIC WY,Oakland,CA,
35TH AV & WILLIS CT,Oakland,CA,
SPECIAL ASSIGNMENT DIST ONE,Oakland,CA,
529A 42ND ST,Oakland,CA,
9500 E STREET,Oakland,CA,
AUBURN AV & MYSTIC ST,Oakland,CA,
COLLE/AL,Oakland,CA,
CALIFORNIA ST & SILVERWOOD AV,Oakland,CA,
CASTELLO ST & FRUITVALE AV,Oakland,CA,
CATRON DR & NOVELDA DR,Oakland,CA,
1500 163 ST,Oakland,CA,
2000 SAN ANTONIO AV,Oakland,CA,
3100 BLK E14TH ST,Oakland,CA,
4900 UNIVERSITY,Oakland,CA,
ELWOOD AV & JEAN ST,Oakland,CA,
BT 17 AND 21,Oakland,CA,
2100 HIGH STREET,Oakland,CA,
23RD ST SACRAMENTO CA,Oakland,CA,
10900 STONE MASON CT.,Oakland,CA,
AREA ONE DIRECTIVE PATROL,Oakland,CA,
ELVESSA ST,Oakland,CA,
GUNN DRIVE AND SHEPPARDS CANYON,Oakland,CA,
CALDECOTT LN & NB TUNNEL CONN RD,Oakland,CA,
0 HILLSIDE AV,Oakland,CA,
35TH AVE & LYNDE ST,Oakland,CA,
1500 61ST AV,Oakland,CA,
2800 25TH AVE,Oakland,CA,
100 MCKENNON PLACE,Oakland,CA,
ADELINE/SHATTUCK,Oakland,CA,
101/MACARTHUR,Oakland,CA,
65TH ST & HOLLIS ST,Oakland,CA,
2500 61 AVE,Oakland,CA,
FV BART,Oakland,CA,
WALKING DOWNTOWN,Oakland,CA,
600 BRUSH ST,Oakland,CA,
2200 WEST GRAND AVE,Oakland,CA,
5400 BLK YGNACIO AVE,Oakland,CA,
CANYON VIEW LN & WILDING LN,Oakland,CA,
7300 EDGEWATER AV,Oakland,CA,
770B 22ND ST,Oakland,CA,
3900 LONETREE WAY,Oakland,CA,
1300 62ND ST,Oakland,CA,
600 BANCROFT AV,Oakland,CA,
1000 DERBY AV,Oakland,CA,
455B JACKSON ST,Oakland,CA,
WILLIAMS/RASHIDA MOHAMMED,Oakland,CA,
E 27THE ST & 22ND AV,Oakland,CA,
PIPPIN ST & PRUNE ST,Oakland,CA,
HEGENBERGER RD & EDGEWATER DR,Oakland,CA,
WEST GRAND & SAN PABLO AV,Oakland,CA,
8000 RUDSDALE,Oakland,CA,
1100 78TH AVE,Oakland,CA,
4700 PROCTOR AVE,Oakland,CA,
8500 E,Oakland,CA,
1500 46TH AV,Oakland,CA,
5400 TRASK AV,Oakland,CA,
COLLEGE AVE AND CLIFTON ST,Oakland,CA,
100 LINDA AV,Oakland,CA,
300 EUCLID AVE,Oakland,CA,
AREA 2 - DIRECTED PATROL,Oakland,CA,
SAN LEANDRO BART,Oakland,CA,
W GRAND/SP,Oakland,CA,
ADELINE/MLK,Oakland,CA,
27400 HESPERIAN BL,Oakland,CA,
35TH ST & MARTIN LUTHER KING J,Oakland,CA,
REDWOOD/I580,Oakland,CA,
1100 62ND AVE,Oakland,CA,
53RD ST & WEST ST,Oakland,CA,
2600 38TH AVE,Oakland,CA,
3800 SEMINARY AV,Oakland,CA,
ANDERSON AV & REINHARDT DR,Oakland,CA,
6200 AVENAL AVE,Oakland,CA,
1400 BRUSH ST,Oakland,CA,
2300 64TH AVE,Oakland,CA,
SOUTH PARK/GRIZZLY PEAK,Oakland,CA,
4800 LUSK,Oakland,CA,
5000 BLK MARTIN LUTHER KING JR WAY,Oakland,CA,
92ND/ELLINGTON WY,Oakland,CA,
BOWDEN/LAKESHORE,Oakland,CA,
E 36TH ST & BEAUMONT AV,Oakland,CA,
1000 65,Oakland,CA,
1699M W GRAND AV,Oakland,CA,
27400 HESPARIAN,Oakland,CA,
OAKLAND EMERYVILLE BORDER,Oakland,CA,
4500 MALCOLM AV,Oakland,CA,
AQUARIUS WY & BROADWAY TER,Oakland,CA,
ABERFOIL AV & LOCHARD ST,Oakland,CA,
2400 BURLINGTON ST.,Oakland,CA,
1600 1&2 FILBERT ST,Oakland,CA,
87TH/E,Oakland,CA,
84TH/C ST,Oakland,CA,
SB S13 CONN & WB S24,Oakland,CA,
9400 94 AV,Oakland,CA,
3100 68TH AV,Oakland,CA,
2500 MACARTHUR BLVD.,Oakland,CA,
E 12TH ST & E 8TH ST,Oakland,CA,
HANLY RD & OAKMORE PL,Oakland,CA,
2800 BLK OF PERALTA,Oakland,CA,
CREIGHTON WY & VAN CLEAVE WY,Oakland,CA,
3000 PATRRIDGE AVE,Oakland,CA,
3200 SUTTER ST,Oakland,CA,
1800 TELEGRAPH AVE,Oakland,CA,
9000 BURR ST.,Oakland,CA,
HOWARD AV & OAKLAND AV,Oakland,CA,
HAVENSCOURT & BANCROFT,Oakland,CA,
JULIA ST & PROCTOR AV,Oakland,CA,
BOULEVARD WY & WARFIELD AV,Oakland,CA,
3900 VAN MOURIK AVE,Oakland,CA,
3100 7TH ST,Oakland,CA,
BROADWAY/GRAND,Oakland,CA,
MELROSE AV & YGNACIO AV,Oakland,CA,
BROOKDALE AV & MAVIS ST,Oakland,CA,
11900 SP,Oakland,CA,
BFO2,Oakland,CA,
49TH ST & CORONADO AV,Oakland,CA,
CAPISTRONO,Oakland,CA,
CROCKETT PL & JOAQUIN MILLER RD,Oakland,CA,
3500 KANSAS STREET,Oakland,CA,
7200 BANKCROFT,Oakland,CA,
2800 75TH AVE,Oakland,CA,
5300 FOOTHILL BANCROFT AVE,Oakland,CA,
81000 81ST AVE,Oakland,CA,
4100 RETTIG PL,Oakland,CA,
200 MONTGOMERY ST,Oakland,CA,
WB HARRISON OFFRP ST & SANTA CLARA AV,Oakland,CA,
DIRECT PAT,Oakland,CA,
17TH ST & 18TH ST,Oakland,CA,
E 11TH ST & E 12TH ST,Oakland,CA,
17TH ST & MARTIN LUTHER KING J,Oakland,CA,
DIRECTIVE PATROL D4,Oakland,CA,
22ND AV & SAN ANTONIO WY,Oakland,CA,
ETTIE ST & MOSS LN,Oakland,CA,
69TH & LION WY,Oakland,CA,
9TH AV & LOOMIS CT,Oakland,CA,
200 W MAC ARTHUR BL,Oakland,CA,
HOLL/40TH,Oakland,CA,
5/INTERNATIONAL,Oakland,CA,
HARRISON/ W MACARTHUR,Oakland,CA,
6248A BROMLEY AV,Oakland,CA,
3800 ENOS AVE,Oakland,CA,
2100 SHATTUCK,Oakland,CA,
I880 & CENTRAL,Oakland,CA,
BROADWAY AND 13TH ST,Oakland,CA,
40TH ST & HOLLIS ST,Oakland,CA,
LAKESHORE & MAC ARTHUR BLVD,Oakland,CA,
9800 D,Oakland,CA,
8400 PLYMOUTH AV,Oakland,CA,
3400 LAKE SHORE AV,Oakland,CA,
400 LAGUNITAS AVE #106,Oakland,CA,
2800 CHAMPION ST,Oakland,CA,
7600 HANSON DR.,Oakland,CA,
9600 EDES AVE,Oakland,CA,
1300 BAYVIEW AV,Oakland,CA,
800 86TH AV,Oakland,CA,
NB 7TH OFFRP ST & FRONTAGE RD,Oakland,CA,
820J POPLAR CT,Oakland,CA,
19TH & RASHIDA MOHAMMED,Oakland,CA,
4100 INTERNATINAL BLVD,Oakland,CA,
1600 165TH AVE,Oakland,CA,
EB I580 & MARLOW DR,Oakland,CA,
2600 67TH AVE,Oakland,CA,
4300 REDDING ST,Oakland,CA,
1400 FRONTAGE,Oakland,CA,
DWNTOWN AREA,Oakland,CA,
1300 BRAODWAY,Oakland,CA,
1100 ADDISON,Oakland,CA,
3000 CLAREMONT AV,Oakland,CA,
1400 MYRTLE ST.,Oakland,CA,
5700 MANILA AV,Oakland,CA,
800 MILTON AVE,Oakland,CA,
47/ADE,Oakland,CA,
45TH AVE & INTERNATIONAL BLVD,Oakland,CA,
1000 37TH AV,Oakland,CA,
2900 11TH AV,Oakland,CA,
ELYSIAN FIELDS DR & ROYAL OAK RD,Oakland,CA,
0 EMBARCADERO AV,Oakland,CA,
ALVARADO RD & SILER PL,Oakland,CA,
2400 BLK OF WEBSTER,Oakland,CA,
1400 S MAIN,Oakland,CA,
WELL FARE OFFICER,Oakland,CA,
2300 JEFFERSON AV,Oakland,CA,
9900 99TH AVE,Oakland,CA,
45TH ST & LAWTON AVE,Oakland,CA,
100 EMBARCADERO EAST,Oakland,CA,
700 8TH ST,Oakland,CA,
1700 86TH AVE,Oakland,CA,
8100 S COLISEUM,Oakland,CA,
1800 101ST AVE,Oakland,CA,
W. GRAND AMD TELEGRAPH,Oakland,CA,
200 CASTRO ST,Oakland,CA,
1300 DERBY,Oakland,CA,
10700 PERALTA OAKS DR,Oakland,CA,
1700 BLK MACARTHUR BLVD,Oakland,CA,
MCMILLAN AV & OCEAN VIEW DR,Oakland,CA,
8300 GOLF LINKS,Oakland,CA,
MANDALAY RD & WILDING LN,Oakland,CA,
EMERY/40TH,Oakland,CA,
MACARTHUR AND GRAND AV,Oakland,CA,
2000 GRIZZLY PEAK BLVD,Oakland,CA,
4800 MOWRY,Oakland,CA,
WEST EMBARCADARO,Oakland,CA,
1000 21 ST,Oakland,CA,
1200 FRANQUETTE,Oakland,CA,
8000 GREENLY DR.,Oakland,CA,
100 KIRKHAM ST,Oakland,CA,
2100 SAN PABLO AVE,Oakland,CA,
4300 HOWARD,Oakland,CA,
4000 CAPISTRANO DR,Oakland,CA,
3700 39TH AVE,Oakland,CA,
SPECIAL ASSIGN BT 12Y,Oakland,CA,
2600 BLK 98TH AVE,Oakland,CA,
7200 SNELL ST,Oakland,CA,
4300 LOMA VISTA AVE,Oakland,CA,
3000 E.9TH STREET,Oakland,CA,
1800 101TH AV,Oakland,CA,
81ST AVE & B ST,Oakland,CA,
1100 WAKE AV,Oakland,CA,
0 MASONIC PL,Oakland,CA,
HEGENBERGER RD HWY 880,Oakland,CA,
47TH & ADELINE,Oakland,CA,
700 CALDWELL RD,Oakland,CA,
2100 65TH AVE,Oakland,CA,
2000 87TH AVE,Oakland,CA,
KINGSLAND AV & VIRGINIA AV,Oakland,CA,
1100 41ST,Oakland,CA,
LOWRY RD & SUN VALLEY DR,Oakland,CA,
UNK. LOCATION,Oakland,CA,
GRAND VIEW DR & SCHOONER HILL,Oakland,CA,
0 NORTH,Oakland,CA,
"DISTRICT 1,2,3",Oakland,CA,
CALMAR AV & CARLSTON AV,Oakland,CA,
GRAND/LAKESHORE,Oakland,CA,
3400 E.12TH ST,Oakland,CA,
6500 BRANN ST,Oakland,CA,
STANFORD AVE,Oakland,CA,
800 BROOKSIDE DRIVE,Oakland,CA,
10500 SAN LEANDRO ST,Oakland,CA,
2400 89,Oakland,CA,
500 105TH AVE,Oakland,CA,
1200 37TH AVE,Oakland,CA,
GRAND AV & OAKLAND AV,Oakland,CA,
400 BLK 12TH ST.,Oakland,CA,
1000 45 ST,Oakland,CA,
3300 BLK BROOKDALE AVE,Oakland,CA,
AYALA AV & MCAULEY ST,Oakland,CA,
1000 11TH AV,Oakland,CA,
741A 54TH ST,Oakland,CA,
58TH ST & HERMANN ST,Oakland,CA,
600 ARIMO AVENUE,Oakland,CA,
3400 1&2 MORRISON AV,Oakland,CA,
800 FALLON ST,Oakland,CA,
200 28TH ST.,Oakland,CA,
ELVERTON DR & THORNDALE DR,Oakland,CA,
2600 WILBUR ST,Oakland,CA,
BEAT 27/28,Oakland,CA,
6600 BRAUN ST,Oakland,CA,
6150A OUTLOOK AV,Oakland,CA,
5200 HOLLIS,Oakland,CA,
INTERNATIONAL CORRIDER,Oakland,CA,
2000 WILLOW ST,Oakland,CA,
3400 LINDEN,Oakland,CA,
14TH AV@E 20TH ST,Oakland,CA,
MERLIN CT & SCOTIA AV,Oakland,CA,
1100 86TH AVE,Oakland,CA,
6200 BOULDER LANE,Oakland,CA,
200 FRANK OGAWA PLAZA,Oakland,CA,
5800 TRASK,Oakland,CA,
LAKE MERRIT,Oakland,CA,
HAVENCOURT BLVD & INTERNATIONAL BLVD,Oakland,CA,
0 JEWELL CT,Oakland,CA,
SUTER ST & VIOLA ST,Oakland,CA,
4200 ADE,Oakland,CA,
2100 SEMINARY AVE,Oakland,CA,
1700 SAUSAL,Oakland,CA,
5000 SAN LEANDRO ST,Oakland,CA,
6000 BAYVIEW,Oakland,CA,
5TH & TOWNSEND,Oakland,CA,
FV/CORRIDOR DIRECTED PATROL,Oakland,CA,
6000 CLAREMONT,Oakland,CA,
3100 E 23RD ST,Oakland,CA,
SPECIAL ASSIGM,Oakland,CA,
3000 BLK ADELINE ST,Oakland,CA,
98TH AV INTERNATIONAL BLVD,Oakland,CA,
INTERNANTIONAL CORRIDOR,Oakland,CA,
1900 14TH AVE,Oakland,CA,
5600 LOS ANGELES ST,Oakland,CA,
1400 S. MAIN ST,Oakland,CA,
1100 48TH AV,Oakland,CA,
600 105TH AV,Oakland,CA,
700 JEROLD,Oakland,CA,
5900 BAGSHOTTE DR,Oakland,CA,
700 PINE,Oakland,CA,
3100 LOUISE ST,Oakland,CA,
1400 24TH AVE,Oakland,CA,
HAVENSCOURT BLVD,Oakland,CA,
500 98TH AVE,Oakland,CA,
5400 FOOTHIL BL,Oakland,CA,
8900 RIDGEMOOR RD,Oakland,CA,
40TH ST CORRIDR,Oakland,CA,
9900 SANTA MONICA BLVD,Oakland,CA,
3100 RICHMOND BLVD,Oakland,CA,
RICHMOND MEMORIAL AUDITORIUM,Oakland,CA,
6700 EXETER DR,Oakland,CA,
9500 STERNS AV,Oakland,CA,
6200 ROCKYPOINT WAY,Oakland,CA,
DIRECTED PATROL AREA3,Oakland,CA,
4600 CLAREWOOD,Oakland,CA,
1200 42ND ST,Oakland,CA,
OAK HILL RD & SAINT ANDREWS RD,Oakland,CA,
1000 BAYVIEW,Oakland,CA,
2400 GRANDA VISTA AV,Oakland,CA,
BT 34,Oakland,CA,
COLLEGE AREA,Oakland,CA,
2400 94TH AVE,Oakland,CA,
10300 E,Oakland,CA,
800 BLOCK OF 71ST AVE,Oakland,CA,
HIGH/BAN,Oakland,CA,
40TH/HARTON,Oakland,CA,
2600 66 AVE,Oakland,CA,
BEST AV & VIRGINIA AV,Oakland,CA,
CLEMENS RD & LEIMERT PL,Oakland,CA,
1800 E 38TH ST,Oakland,CA,
3700 1&2 HARRISON ST,Oakland,CA,
1100 51ST AV,Oakland,CA,
2A27 DISTRICT 4,Oakland,CA,
300 105TH AVE,Oakland,CA,
2300 HUGHES AVE,Oakland,CA,
66TH ST & VALLEJO ST,Oakland,CA,
300 PORTLAND AVE,Oakland,CA,
500 FALLON ST,Oakland,CA,
MONAN ST & ZIEGLER AV,Oakland,CA,
4700 KELLER AV,Oakland,CA,
7100 EXETER DR,Oakland,CA,
15TH/POPLAR,Oakland,CA,
0 FAIRVIEW AV,Oakland,CA,
11TH AV & E 8TH ST,Oakland,CA,
6100 BLK CAMDEN AVE,Oakland,CA,
14TH/E 15,Oakland,CA,
4400 MACARTHUR BOULEVARD,Oakland,CA,
PRINCE & TELE,Oakland,CA,
36TH & FRUITVALE,Oakland,CA,
1600 72ND AVE,Oakland,CA,
DIMOND/MACARTHUR,Oakland,CA,
E 8TH ST & 5TH AV,Oakland,CA,
I580/238,Oakland,CA,
15400 FOOTHILL BLVD,Oakland,CA,
5700 IVANHOE RD,Oakland,CA,
ARMANINO CT & COLLEGE AV,Oakland,CA,
7890-,Oakland,CA,
2400 86TH,Oakland,CA,
2200 65TH AVE,Oakland,CA,
HUNTER AV & HUNTER CT,Oakland,CA,
3000 20TH AVE,Oakland,CA,
I880/GILMAN,Oakland,CA,
WB S24 & WB TUNNEL ONRP RD,Oakland,CA,
DISTRICT 3 ON INTL,Oakland,CA,
38TH & AQUA VISTA,Oakland,CA,
DURANT AV & STRATFORD AV,Oakland,CA,
10200 BYRON AV,Oakland,CA,
1000 PORTRERO AVE,Oakland,CA,
BRAEMAR RD & BRENTWOOD RD,Oakland,CA,
IRO 3268 GRAND AV,Oakland,CA,
6000 CHABOLYN TERRACE,Oakland,CA,
3400 DIMOND AVE,Oakland,CA,
SB ASHBY OFFRP AV & EB I80,Oakland,CA,
HARBORD DR & MORRILL CT,Oakland,CA,
1600 76TH AV,Oakland,CA,
9900 MACARTHUR BLVD& WELCOME INN MOTEL,Oakland,CA,
6900 KRAUSE AVE,Oakland,CA,
2200 E20TH ST,Oakland,CA,
2200 82ND AVE,Oakland,CA,
2100 VALLEY ST,Oakland,CA,
1000 65TH AV,Oakland,CA,
6300 LAIRD AV,Oakland,CA,
37TH & SAN PABLO,Oakland,CA,
7600 SAN LEANDRO ST,Oakland,CA,
PINEWOOD RD & RUTHLAND RD,Oakland,CA,
14TH,Oakland,CA,
53RD AV & E 12TH ST,Oakland,CA,
900 E. 11TH STREET,Oakland,CA,
6900 FOOTHILL STE 100,Oakland,CA,
1600 SUNNYDALE AV,Oakland,CA,
64TH AV & FENHAM ST,Oakland,CA,
1300 13TH AV,Oakland,CA,
2400 WOOD ST,Oakland,CA,
2600 ALICIA ST,Oakland,CA,
OAKLAND HILLS,Oakland,CA,
SPECIAL ASSGNMNT,Oakland,CA,
10200 BANCROFT AV,Oakland,CA,
6900 LION W,Oakland,CA,
100 SANTA CLARA AVE.,Oakland,CA,
1100 47TH AV,Oakland,CA,
7900 CLAREMONT AV,Oakland,CA,
TEXAS CITY,Oakland,CA,
8400 HILLSIDE,Oakland,CA,
2100 47TH AVE,Oakland,CA,
1500 INDEPENDENCE WY,Oakland,CA,
4184D PIEDMONT AV,Oakland,CA,
3900 SP,Oakland,CA,
WB I580 CONN & EB S24,Oakland,CA,
3900 ROBLEY TER,Oakland,CA,
1500 68TH AVE,Oakland,CA,
MACARTHUR AND FRUITVALE,Oakland,CA,
700 KINGSTON AVE,Oakland,CA,
DUI ENFORCEMENT DIST 4/5,Oakland,CA,
5400 GRIZZLY PEAK BLVD,Oakland,CA,
2500 VALDEZ,Oakland,CA,
80TH AV & BANCROFT,Oakland,CA,
300 THOMAS BERKELEY WAY,Oakland,CA,
2800 MODESTO AVE,Oakland,CA,
INTERNATIONAL COORIDOR,Oakland,CA,
ALCATRAZ/COLLEGE,Oakland,CA,
77TH AV / RUDSDALE AV,Oakland,CA,
11400 GOLF LINKS ROAD,Oakland,CA,
800 5TH ST,Oakland,CA,
8000 CLAREMONT AV,Oakland,CA,
LESSER ST & MALAT ST,Oakland,CA,
800 BLK CLAY ST,Oakland,CA,
1400 89TH AVE,Oakland,CA,
4200 ADELINE,Oakland,CA,
400 BURMA RD,Oakland,CA,
2300 E.20TH ST,Oakland,CA,
300 1&2 PORTLAND AV,Oakland,CA,
EDGEWATER AND HEGENBER RD,Oakland,CA,
2L17 DIRECTIVE PATROL,Oakland,CA,
5800 E16TH ST,Oakland,CA,
0 ORINDA WY,Oakland,CA,
3700 SAN PABLO,Oakland,CA,
1400 81ST AVE,Oakland,CA,
1100 89TH AVE,Oakland,CA,
4400 LINCOLN AV,Oakland,CA,
2300 WOOLSEY ST,Oakland,CA,
1900 E 31ST ST,Oakland,CA,
768A 40TH ST,Oakland,CA,
6900 HALLIDAY AVE,Oakland,CA,
2000 40TH AVE,Oakland,CA,
300 LESTER AVE,Oakland,CA,
ASHBY/SAC,Oakland,CA,
78TH/NEY,Oakland,CA,
0 EARHART RD,Oakland,CA,
4100 LATIMER,Oakland,CA,
4900 SHATTUCK AVE,Oakland,CA,
2400 1&2 WARNER AV,Oakland,CA,
ELDERBERRY DR & GIRVIN DR,Oakland,CA,
100 HARRISON ST,Oakland,CA,
7TH AV & EMBARCADERO,Oakland,CA,
5500 FLORENCE TER,Oakland,CA,
BEAL AV & WALNUT ST,Oakland,CA,
2300 35TH AVE,Oakland,CA,
1000 22ND AVE,Oakland,CA,
2700 HASTE,Oakland,CA,
2700 E C REEMS CT,Oakland,CA,
6700 HILLMONT DR,Oakland,CA,
2500 90TH AVE,Oakland,CA,
1200 2ND ST,Oakland,CA,
100 MAIDEN LANE,Oakland,CA,
2300 FRUITVALE AVE.,Oakland,CA,
13TH ST & WEST ST,Oakland,CA,
BURK ST & LAGUNITAS AV,Oakland,CA,
WB KELLER ONRP AV & MOUNTAIN BLVD,Oakland,CA,
1200 E34TH,Oakland,CA,
6200 LOWELL,Oakland,CA,
DIRECTED PATROL INTERNATIONAL,Oakland,CA,
300 THOMAS L BERKLEY WAY,Oakland,CA,
0 PACIFIC AV,Oakland,CA,
CLEVELAND AVE AND PARK BLVD,Oakland,CA,
9400 EDES AVE,Oakland,CA,
HANSOM DR & PHAETON DR,Oakland,CA,
1900 HARDER RD,Oakland,CA,
EL CARMELO CIR & MONTEREY BLVD,Oakland,CA,
11TH/FRONTAGE,Oakland,CA,
E 11TH ST/ 23RD AV,Oakland,CA,
SEQUOYAH VIEW CT & SEQUOYAH VIEW DR,Oakland,CA,
EB I580 & EB MACARTHUR OFFRP BL,Oakland,CA,
2A03 DIRECT PATROL,Oakland,CA,
DOWNTOWN SPECIAL ENFORCEMENT,Oakland,CA,
I 580 OFFRP & WB MACARTHUR OFFRP BL,Oakland,CA,
2400 LAKESHORE AV,Oakland,CA,
6900 COLISEUM WAY,Oakland,CA,
BIRDSALL AV & ROBERTS AV,Oakland,CA,
2900 CAL,Oakland,CA,
1100 52ND AV,Oakland,CA,
CAMERON AV & DINGLEY ST,Oakland,CA,
FERNWOOD DR & MOUNTAIN BLVD,Oakland,CA,
REDWOOD RD,Oakland,CA,
1700 20TH AVE,Oakland,CA,
INTERNATION CORRIDOR,Oakland,CA,
CHAMBERS DR & RIDGEWOOD DR,Oakland,CA,
2100 LAKESHORE AVE,Oakland,CA,
INDIAN WY & WOODHAVEN WY,Oakland,CA,
HILLTOP CRES & STARK KNOLL PL,Oakland,CA,
96TH AVE & INTERNATIONAL BLVD,Oakland,CA,
DARIEN AV & ST ELMO DR,Oakland,CA,
4600 ADELINE,Oakland,CA,
1100 C ST,Oakland,CA,
WB HARRISON ONRP ST & EB MACARTHUR ONRP BL,Oakland,CA,
900 47TH ST,Oakland,CA,
E 38TH ST & BRIGHTON AV,Oakland,CA,
400 STANION ST,Oakland,CA,
LAKESHORE AV & MAC ARTHUR BLVD,Oakland,CA,
LAS AROMAS & MOUNTAIN GATE WY,Oakland,CA,
ADDISON ST & SPAULDING AV,Oakland,CA,
AUBURN AV & HARWOOD AV,Oakland,CA,
0 SHADOW MOUNTAIN,Oakland,CA,
1300 32ND AV,Oakland,CA,
400 LAKEPARK,Oakland,CA,
800 FRANKLIN STREET,Oakland,CA,
CAMPUS DR & VIEW CREST DR,Oakland,CA,
2500 WEST 10TH ST,Oakland,CA,
8000 BALDWIN ST,Oakland,CA,
GRIZZLY PEAK BLVD & SOUTH,Oakland,CA,
400 40TH AVE,Oakland,CA,
1300 FRUITVALE AVE,Oakland,CA,
7000 BANCROFT AVE,Oakland,CA,
100 40TH ST WY,Oakland,CA,
5800 BANCROFT AVE,Oakland,CA,
1000 45TH,Oakland,CA,
GRAND VIEW DR & LIVE OAK RD,Oakland,CA,
WERNER CT & WOODMINSTER LN,Oakland,CA,
200 BLK TUNIS ROAD,Oakland,CA,
1600 72 AVE,Oakland,CA,
4400 SHEL,Oakland,CA,
300 E. 15TH ST,Oakland,CA,
DIRECTED PAT DWTN,Oakland,CA,
800 E17TH ST,Oakland,CA,
2200 LINCOLN AV,Oakland,CA,
CALDECOTT LN & NB S13 CONN,Oakland,CA,
7700 1&2 MACARTHUR BLVD,Oakland,CA,
TEL/BANC,Oakland,CA,
300 CASWELL ST,Oakland,CA,
MAC CORRIDOR DIST 5,Oakland,CA,
2300 BLK OF VALDEZ ST,Oakland,CA,
INDEPENDENT RD & COLISEUM WY,Oakland,CA,
NB 7TH ONRP ST & NB I880,Oakland,CA,
1000 ANNERLEY RD,Oakland,CA,
CHINATOWN,Oakland,CA,
COTTON ST & SB DENNISON OFFRP ST,Oakland,CA,
6400 ADELINE,Oakland,CA,
547A 66TH ST,Oakland,CA,
7700 SURREY LANE,Oakland,CA,
ASPINWALL RD & GOULDIN RD,Oakland,CA,
1800 E25 ST,Oakland,CA,
I80E/POWELL,Oakland,CA,
400 LAGUNITAS AVE,Oakland,CA,
WB 35TH ONRP AV & WB I580,Oakland,CA,
WEST GRAND AND BROADWAY,Oakland,CA,
BUNA/MARITIME,Oakland,CA,
3100 DELAWARE ST,Oakland,CA,
3300 NICOL ST,Oakland,CA,
4100 TELEGRAPH AVE,Oakland,CA,
DIRECTED PATROL AREA 3,Oakland,CA,
TEL CORR,Oakland,CA,
BFO 1,Oakland,CA,
10500 TAMARISK DR,Oakland,CA,
40TH TEL COORD,Oakland,CA,
3400 RUBIN DR,Oakland,CA,
INTL & FH CORRIDORS,Oakland,CA,
HOME PL E & MCKINLEY AV,Oakland,CA,
200 SANTA SUSANA,Oakland,CA,
801A CAMPBELL VILLAGE CT,Oakland,CA,
400 WEST GRAND AVE,Oakland,CA,
300 RIDGE WAY,Oakland,CA,
2700 BLK 74TH AVE,Oakland,CA,
2300 E. 21ST ST,Oakland,CA,
PIEDMONT AREA,Oakland,CA,
ROYAL ST & SAN LEANDRO AVE,Oakland,CA,
247E E 18TH ST,Oakland,CA,
3800 BROADWAY AVE,Oakland,CA,
NB I880 & WINTON,Oakland,CA,
7400 HILLSIDE DR,Oakland,CA,
ESTATES DR & JOHNSTON DR,Oakland,CA,
10300 SAN PABLO,Oakland,CA,
2100 FRUITVALE AVE,Oakland,CA,
900 DURANT,Oakland,CA,
4200 HIGHKNOLL DR,Oakland,CA,
CENTRAL AV & HIGH ST,Oakland,CA,
ARLINGTON AV & GASKILL ST,Oakland,CA,
FAIRLANE DR & MOUNTAIN BLVD,Oakland,CA,
BT 23,Oakland,CA,
0 CAMELFORD CT,Oakland,CA,
INTL BLVD,Oakland,CA,
WHEELER ST & WOOLSEY ST,Oakland,CA,
12700 SKYLINE BLVD,Oakland,CA,
ISLETON AVE AND EL VERANO ST,Oakland,CA,
800 69 AVE,Oakland,CA,
71ST AV & E 14TH ST,Oakland,CA,
94TH AVE BIRCH ST,Oakland,CA,
3200 68TH AV,Oakland,CA,
926A 83RD AV,Oakland,CA,
1300 31ST AVE,Oakland,CA,
34TH AND TELEGRAPH,Oakland,CA,
2300 EAST,Oakland,CA,
2200 BLK VALLEY ST,Oakland,CA,
MOUNTAIN BLVD & NB MOUNTAIN OFFRP BL,Oakland,CA,
65TH ST & DANA ST,Oakland,CA,
EVERETT AV & LA CRESTA AV,Oakland,CA,
4200 ADELINE ST,Oakland,CA,
ESTATES DR & PERSHING DR,Oakland,CA,
4700 DAVENPORT AVE,Oakland,CA,
4000 MARTIN LUTHER KING JR WAY,Oakland,CA,
1100 KIRKHAM WAY,Oakland,CA,
0 DORIS PL,Oakland,CA,
CLEVELAND AV & HADDON RD,Oakland,CA,
22300 SOUTH GARDEN,Oakland,CA,
9900 98,Oakland,CA,
E 38TH ST & ELSTON AV,Oakland,CA,
28TH AVE AND INTERNATIONAL BLVD,Oakland,CA,
1135B 65TH AV,Oakland,CA,
COLISEUM WY & NB HIGH OFFRP ST,Oakland,CA,
DIRECTED PATROL FV/MAC,Oakland,CA,
FRANK OAGAWA,Oakland,CA,
0 1&2 NORMAN LN,Oakland,CA,
DIRECTED PATROL BT27,Oakland,CA,
6300 HILLEGASS AV,Oakland,CA,
SKYLINE AND GRASS VALLEY,Oakland,CA,
1400 45TH AVE,Oakland,CA,
85TH AV & WORTH ST,Oakland,CA,
BANCROFT AV & VICTORIA CT,Oakland,CA,
1700 100TH AVE.,Oakland,CA,
MONTEREY BLVD & NORTON AV,Oakland,CA,
TAC 1 FOR 977,Oakland,CA,
1700 99TH AVE,Oakland,CA,
2800 BONA ST,Oakland,CA,
DIRECTED PATROL ALL UNITS,Oakland,CA,
5600 COLLEGE AVE,Oakland,CA,
800 3RD ST,Oakland,CA,
BT 17 DIRECTED PATROL,Oakland,CA,
MACARTHUR BLVD & MARLOW DR,Oakland,CA,
7600 EARHART DR,Oakland,CA,
2500 73RD AVE,Oakland,CA,
8200 HILLSIDE ST,Oakland,CA,
6700 PASO ROBLES DR,Oakland,CA,
8800 INTERNATIONAL BLVD.,Oakland,CA,
43/ADELINE,Oakland,CA,
45TH ST & SAN PABLO AV,Oakland,CA,
400 ADAM ST,Oakland,CA,
1ST AV/E 18,Oakland,CA,
500 BLK 7TH STREET,Oakland,CA,
0 TREASURE HILL,Oakland,CA,
LOS ANGELES,Oakland,CA,
VERMONT ST & WELDON AV,Oakland,CA,
6500 SOBRANTE RD,Oakland,CA,
7800 OUTLOOK AVE,Oakland,CA,
2700 TELEGRAPH AVE,Oakland,CA,
0 CONVENT LN,Oakland,CA,
DIRECT PATROL DIST 3,Oakland,CA,
WB I580 & WB I980 CONN,Oakland,CA,
ANDREWS ST & SNAKE RD,Oakland,CA,
CALMAR AV & PALOMA AVE,Oakland,CA,
700 BLENHEIM ST,Oakland,CA,
CAPITAL ST & WESLEY AV,Oakland,CA,
86TH AV & BLAINE ST,Oakland,CA,
FRANKLIN ST & EMBARCADERO,Oakland,CA,
0 GAUSS WAY,Oakland,CA,
82ND AVE,Oakland,CA,
300 BLK MARTIN LUTHER KING JR WAY,Oakland,CA,
6100 CANNING ST,Oakland,CA,
DISTRICT 3 INTL CORRIDOR,Oakland,CA,
55/HARRISON,Oakland,CA,
100 BIGGE ST,Oakland,CA,
400 CASTRO ST,Oakland,CA,
DAIMOND PARK,Oakland,CA,
2400 MERCED,Oakland,CA,
BELGRAVE PL & CARLTON ST,Oakland,CA,
1200 74TH AVE,Oakland,CA,
2200 9TH AVE,Oakland,CA,
HOWARD/HIGH,Oakland,CA,
2600B HIGHLAND AV,Oakland,CA,
6500 SKYLINE BLVD,Oakland,CA,
39TH AV & REDDING ST,Oakland,CA,
2000 92ND AVE,Oakland,CA,
COTTER ST & STACEY ST,Oakland,CA,
NB BROADWAY ONRP TR & NB S13,Oakland,CA,
1600 46TH AVE,Oakland,CA,
3400 LAUREL AVE,Oakland,CA,
E 28TH ST & GARDEN ST,Oakland,CA,
100300 INTERNATIONAL BLVD,Oakland,CA,
MAC CORIDOR UNTILL 2100 HOURS,Oakland,CA,
NB 42ND CONN AV & NB HIGH ONRP ST,Oakland,CA,
3900 E. 14TH ST,Oakland,CA,
1700 HAVENSCOURT BLVD,Oakland,CA,
PINECREST DR & SURREY LN,Oakland,CA,
30TH ST BROADWAY,Oakland,CA,
800 1&2 ATHENS AV,Oakland,CA,
DISTRICT 2 DIRECTED PAT,Oakland,CA,
1300 80TH AVE,Oakland,CA,
SPECIAL ASSIGNMENT BT 27,Oakland,CA,
CHABOT RD & IVANHOE RD,Oakland,CA,
1100 POWELL ST,Oakland,CA,
1600 SONOMA WY,Oakland,CA,
"1900 UNION STREET,",Oakland,CA,
2400 RAVENWOOD LN,Oakland,CA,
5S36 SPECIAL ASSIGNMENT,Oakland,CA,
DOWLING BLVD & SUPERIOR AV,Oakland,CA,
900 BLOCK OF CASTRO,Oakland,CA,
8300 BLK INTERNATIONAL BLVD,Oakland,CA,
ALHAMBRA LN & ALMADEN LN,Oakland,CA,
1400 SONOMA WY,Oakland,CA,
3454A MORRISON AV,Oakland,CA,
27000 WHITMAN,Oakland,CA,
5100 WENTWORTH,Oakland,CA,
3900 HOLLIS,Oakland,CA,
6200 E16TH ST,Oakland,CA,
1600 96TH AVE,Oakland,CA,
2500 65TH AVENUE,Oakland,CA,
4000 RUSTING AVE,Oakland,CA,
DISTRICT 2 SPECIAL ASSIGNMENT,Oakland,CA,
KINGSLEY ST & PARK BLVD,Oakland,CA,
E 32ND ST & BAYVIEW AV,Oakland,CA,
SPEC ASSIGN BT 25,Oakland,CA,
3100 MABEL ST,Oakland,CA,
58TH ST & MACCALL ST,Oakland,CA,
ID # 2135087460,Oakland,CA,
3700 WISCONSON STREET,Oakland,CA,
37TH AVE & FRUITVALE,Oakland,CA,
85TH AND BANCROFT,Oakland,CA,
OAK HILL RD & SHORT HILL RD,Oakland,CA,
5133A WEST ST,Oakland,CA,
1200 107TH AVE,Oakland,CA,
1800 14TH,Oakland,CA,
100 FAIRMONT AV,Oakland,CA,
7300 MAC ARTHUR BLVD,Oakland,CA,
FRESNO ST & 73RD AV,Oakland,CA,
DURANT AV & MYERS ST,Oakland,CA,
LASALLE AV & MOUNTAIN BLVD,Oakland,CA,
2700 BONA ST,Oakland,CA,
5500 COLISEUM WAY,Oakland,CA,
6400 LEONA ST,Oakland,CA,
2000 64TH AVE,Oakland,CA,
WALNUT ST/HEGENBERGER,Oakland,CA,
200 NARISSA LN,Oakland,CA,
2700 MARITIME,Oakland,CA,
600 CHESTNUT ST,Oakland,CA,
1600 38TH AVE,Oakland,CA,
PHELPS ST & WORTH ST,Oakland,CA,
2000 10TH AVE,Oakland,CA,
SB 42ND OFFRP AV & SB I880,Oakland,CA,
3700 MAYBELLE AVE,Oakland,CA,
800 34TH,Oakland,CA,
6700 BROADWAY,Oakland,CA,
OAK HILL CIR & OAK HILL RD,Oakland,CA,
2900 MABEL,Oakland,CA,
1912E E 21ST ST,Oakland,CA,
KAISER CALL CENTER,Oakland,CA,
2900 58TH AVE,Oakland,CA,
KAPHAN AV & MATTIS CT,Oakland,CA,
ANTIOCH ST & LUCAS AV,Oakland,CA,
2100 E 31ST ST,Oakland,CA,
CHURCH ST & MARKET ST,Oakland,CA,
SPECIAL ASSIGN BT 34,Oakland,CA,
599A 58TH ST,Oakland,CA,
5700 GOLDEN GATE AV,Oakland,CA,
BEAUFOREST DR & THORNHILL DR,Oakland,CA,
GOLDEN GATE AV & GOLDEN GATE WY,Oakland,CA,
1238A CAMPBELL ST,Oakland,CA,
SAN FRANCISCO,Oakland,CA,
GOLFLINKS & EL MONTE,Oakland,CA,
160A 14TH ST,Oakland,CA,
MIRASOL AV & MURILLO AV,Oakland,CA,
BUENA VISTA AND CONTRA COSTA,Oakland,CA,
VILLANOVA & VILLANOVA DR,Oakland,CA,
10100 1&2 MACARTHUR BLVD,Oakland,CA,
MAYDON CT & SCOTIA AV,Oakland,CA,
5900 1&2 MACCALL ST,Oakland,CA,
10100 DANTE,Oakland,CA,
300 GARCIA AV,Oakland,CA,
155/INTL,Oakland,CA,
E 38TH ST & EVERS AV,Oakland,CA,
3500 LAGUNA AVE.,Oakland,CA,
600 HENRY ST,Oakland,CA,
7800 KITTY LANE,Oakland,CA,
CATRON DR & ROBLEDO DR,Oakland,CA,
DIRECT PATROL W OAK BART,Oakland,CA,
ELM ST & HAWTHORNE AV,Oakland,CA,
1803B WEBSTER ST,Oakland,CA,
4800 AQUA VISTA,Oakland,CA,
4100 MAC ARTHUR BLVD,Oakland,CA,
1100 71ST AVE,Oakland,CA,
WB 24TH/TELE,Oakland,CA,
GRAND AV & LAKESHORE AV,Oakland,CA,
90TH/OLIVE,Oakland,CA,
EB S24 & TELEGRAPH AV,Oakland,CA,
5200 BROADWAY TERRACE,Oakland,CA,
VALLEJO KAISER CALL CENTER,Oakland,CA,
9900 E STREET,Oakland,CA,
2200 CENTRAL,Oakland,CA,
1100 84TH AVE,Oakland,CA,
700 PALOMA AV,Oakland,CA,
100 PALISADE,Oakland,CA,
DAVENPORT AV & WB I580,Oakland,CA,
5100 OLD REDWOOD,Oakland,CA,
BELLAIRE PL & LYNDE ST,Oakland,CA,
1200 78TH AVE,Oakland,CA,
1700 16TH AVENUE,Oakland,CA,
2500 MECARTNEY RD,Oakland,CA,
COLISEUM FLEA MARKET,Oakland,CA,
6500 OUTLOOK AVE,Oakland,CA,
500 UNION ST,Oakland,CA,
I580/HAROLD,Oakland,CA,
NB 23RD ONRP AV & NB I880,Oakland,CA,
FRAZIER AV & SHAW ST,Oakland,CA,
2800 88TH AV,Oakland,CA,
LINCOLN AV & POTOMAC ST,Oakland,CA,
HANLY RD & WATERHOUSE RD,Oakland,CA,
UPPER TELEGRAPH AREA,Oakland,CA,
SHEPHERD CANYON RD & SKYLINE BLV,Oakland,CA,
BIRCH ST & 104TH AVE,Oakland,CA,
1500 SAN PABLO AV,Oakland,CA,
E 17TH DIRECTED PATROL,Oakland,CA,
HOLLIS ST & PARK AV,Oakland,CA,
14TH/BWY,Oakland,CA,
ASHTON AV & MADDUX DR,Oakland,CA,
2000 QUIGLEY,Oakland,CA,
EB 14TH ONRP AV & EB I580,Oakland,CA,
52ND ST & EB S24,Oakland,CA,
5100 SEMINARY AV,Oakland,CA,
1700 WARD,Oakland,CA,
NORTHGATE & I580,Oakland,CA,
3775A PARK BOULEVARD WY,Oakland,CA,
COMMERENCE,Oakland,CA,
2K22 40/TEL,Oakland,CA,
21ST. ST AND HARRISON ST.,Oakland,CA,
2134D 62ND AV,Oakland,CA,
5000 GRIZZLY PEAK BLVD,Oakland,CA,
5500 THORNHILL DR,Oakland,CA,
1600 BROADWAY VALLEJO,Oakland,CA,
400 E-19TH ST,Oakland,CA,
2900 BLK OF MARTIN LUTHER KING JR,Oakland,CA,
0 YORK DR,Oakland,CA,
2500 FAIRMONT,Oakland,CA,
1700 BLK SEMINARY,Oakland,CA,
2400 GEARY ST,Oakland,CA,
CHETWOOD ST & EB I580,Oakland,CA,
3200 63RD AVE,Oakland,CA,
1800 PINE ST,Oakland,CA,
6200 SAN LEANDRO AVE,Oakland,CA,
ORINDA VISTA DR & ROYAL OAK RD,Oakland,CA,
5900 MARTIN LUTHER KING WY,Oakland,CA,
HOLLY & 94TH AVE,Oakland,CA,
2L07 DIRECTED PATROL,Oakland,CA,
BEATS 23 AND 27,Oakland,CA,
4500 ADE,Oakland,CA,
BEAT 26,Oakland,CA,
1700 10TH AVE,Oakland,CA,
SPECIAL ASSIGNMENT -,Oakland,CA,
22ND E19TH ST,Oakland,CA,
22400 FOOTHILL BLVD,Oakland,CA,
3300 FRUITVALE AVE,Oakland,CA,
9TH AND HARRISON ST,Oakland,CA,
DURANT AV & MCINTYRE ST,Oakland,CA,
WEAVER AND SKYLINE BLVD,Oakland,CA,
4800 HARBORD DRIVE,Oakland,CA,
1200 GRAND AV,Oakland,CA,
27500 MERCED,Oakland,CA,
20TH & RASHIDA MOHAMMAD,Oakland,CA,
2700 CLAREMONT AV,Oakland,CA,
MALCOLM AV & MONTWOOD WY,Oakland,CA,
MERRIEWOOD CIR & MERRIEWOOD DR,Oakland,CA,
6200 MERRIEWOOD DR,Oakland,CA,
0 RUE BARRAUTT,Oakland,CA,
D3,Oakland,CA,
CHELSEA DR & CLIVE AV,Oakland,CA,
WB I580 CONN & EB I80,Oakland,CA,
EB I580 & TELEGRAPH AV,Oakland,CA,
55TH/FH,Oakland,CA,
33RD ST & 34TH ST,Oakland,CA,
1224A EXCELSIOR AV,Oakland,CA,
EL CAMINITO & MOUNTAIN BLVD,Oakland,CA,
BISHOPS CT & PASO ROBLES DR,Oakland,CA,
RITCHIE/BANCROFT,Oakland,CA,
1500 E 23RD ST,Oakland,CA,
BURGOS AV & GOLF LINKS RD,Oakland,CA,
800 CEDAR ST,Oakland,CA,
BAKER ST,Oakland,CA,
"PARKER ST & TELEGRAPH AV, BERKELEY CA",Oakland,CA,
FRANK H OGAWA PLZ & SAN PABLO AV,Oakland,CA,
6400 VALLEJO ST,Oakland,CA,
1500 BLOCK OF 89TH AVE,Oakland,CA,
300 DAVIS ST,Oakland,CA,
FRUITVALE AND INTERNATIONAL,Oakland,CA,
CURRAN WY & MONTANA ST,Oakland,CA,
INTL CORRIDOR DIST 4,Oakland,CA,
1000 29TH AVE,Oakland,CA,
HIGH/FRUIT,Oakland,CA,
ARMSTRONG DR & HAWKINS DR,Oakland,CA,
900 16ST ST,Oakland,CA,
5700 LOWELL ST,Oakland,CA,
SPECIAL ASSIGMENT,Oakland,CA,
2700 RAWSOM ST,Oakland,CA,
SKYLINE BLVD & SKYLINE CIR,Oakland,CA,
EB I238 CONN & SB I88,Oakland,CA,
570B CANYON OAKS DR,Oakland,CA,
2100 11TH AVENUE,Oakland,CA,
COOLIDGE AV MACARTHUR BLVD,Oakland,CA,
2400 WEST 19TH ST,Oakland,CA,
GRIZZLY PEAK BLVD & SOUTH PARK DR,Oakland,CA,
2400 90TH AVE.,Oakland,CA,
INTL D 3,Oakland,CA,
BART BERKELEY,Oakland,CA,
KAISER HOSPITAL RICHMOND,Oakland,CA,
3200 13TH AVE #B,Oakland,CA,
LINCOLN AV & MAIDEN LN,Oakland,CA,
1200 75TH AVE,Oakland,CA,
SL HOSP,Oakland,CA,
SHELTERWOOD DR & WESTOVER DR,Oakland,CA,
500 LAGUNITAS AV,Oakland,CA,
1900 92ND AVE,Oakland,CA,
CHABOT CT & CHABOT RD,Oakland,CA,
27200 CALAROGA AV,Oakland,CA,
AROUND THE LAKE,Oakland,CA,
WB 106TH ONRP ST & WB I580,Oakland,CA,
4600 OAKPORT ST,Oakland,CA,
DOUGLAS & EDES,Oakland,CA,
3600 PATTERSON AVE,Oakland,CA,
7900 BANCROFT AVE,Oakland,CA,
1700 55TH AVE,Oakland,CA,
1000 MACARTHUR BL,Oakland,CA,
2100 CHASE,Oakland,CA,
2200 108TH AVE,Oakland,CA,
1600 86TH AVE,Oakland,CA,
2600 61ST AV,Oakland,CA,
3600 SP,Oakland,CA,
ENTRADA AV & GLEN AV,Oakland,CA,
"DIRECTED PATROL 2,5,7",Oakland,CA,
23RD AV CORRIDOR,Oakland,CA,
5000 SHAFTER AVE,Oakland,CA,
200 PARK VIEW TERRANCE,Oakland,CA,
900 62ND ST GRND FLR,Oakland,CA,
9800 INTERNATIONAL AVE,Oakland,CA,
6600 LION WAY,Oakland,CA,
DISTRICT 5 BZ 33X,Oakland,CA,
2000 SAN PABLO AVE,Oakland,CA,
3600 MARTIN LUTHER KING JR WAY,Oakland,CA,
4500 SHELLMOUND,Oakland,CA,
1000 ARLINGTON AVE,Oakland,CA,
ON INTERNATIONAL,Oakland,CA,
7800 KRAUSE,Oakland,CA,
DIRECTED PAT BT 6,Oakland,CA,
44/SP,Oakland,CA,
BROADWAY & VIRMAR AV,Oakland,CA,
0 FAIRMONT AVE,Oakland,CA,
8400 NEY AVE,Oakland,CA,
WB I80 & POWELL ST,Oakland,CA,
2400 GRANDE VISTA ST,Oakland,CA,
PASEO PADRE/KAPLAN,Oakland,CA,
E 12TH ST,Oakland,CA,
TELEGRAPH COR,Oakland,CA,
4400 MAC ARTHUR BLVD,Oakland,CA,
3000 SCHOOL ST&PLEITNER,Oakland,CA,
5400 FH,Oakland,CA,
5300 SAN PABLO AVE,Oakland,CA,
2700 55TH AVE,Oakland,CA,
4200 RODERICK RD,Oakland,CA,
MACARTHUR/OAKLAND,Oakland,CA,
2100 50TH AVE,Oakland,CA,
900 82ND AVE,Oakland,CA,
FALLON ST & E 8TH ST,Oakland,CA,
1200 44TH AVE,Oakland,CA,
STERLING DR AND LAMP,Oakland,CA,
E 36TH ST & CHATHAM RD,Oakland,CA,
1800 VENDER WAY,Oakland,CA,
17A HUNTER CT,Oakland,CA,
VETERAN WAY/CANNON,Oakland,CA,
500 WEBSTER,Oakland,CA,
3RD ST & UNION ST,Oakland,CA,
SB 880/16TH AV,Oakland,CA,
GRAND AV AREA,Oakland,CA,
3100 COLLEGE,Oakland,CA,
9900 E,Oakland,CA,
2300 TELEGRAPH AVE,Oakland,CA,
PLEASANT VALLEY AV & RONADA AV,Oakland,CA,
200 GLACIER DR,Oakland,CA,
BALFOUR AV & VIONA AV,Oakland,CA,
4200 LINNET AVE,Oakland,CA,
7TH ST/MIDDLE HARBOR RD,Oakland,CA,
"2000 POWELL ST, EMERYVILLE",Oakland,CA,
ROSEDALE AV & SAN JUAN ST,Oakland,CA,
"200 ATHOL ST, APT 206",Oakland,CA,
ASCOT DR & MORLEY DR,Oakland,CA,
KUHNLE AV & SUNNYMERE AV,Oakland,CA,
524A FAIRBANKS AV,Oakland,CA,
1300 CARRION BERKELEY,Oakland,CA,
GRIZZLY PEAK/SOUTH PARK,Oakland,CA,
1900 BLK WEBSTER ST,Oakland,CA,
700 FALLON ST,Oakland,CA,
0 BRIDGE RD,Oakland,CA,
2700 LAKESHORE AV,Oakland,CA,
5300 GASKILL ST,Oakland,CA,
1200 CAMPUS DR,Oakland,CA,
800 34TH ST.,Oakland,CA,
3500 MLK JR WAY,Oakland,CA,
ALCALA AV & ENCINA WY,Oakland,CA,
4600 OAK HILL RD,Oakland,CA,
3800 LINCOLN AVE,Oakland,CA,
35TH AVE & E 16TH ST,Oakland,CA,
PACKARD ST & PEERLESS CT,Oakland,CA,
1900 7TH AVE,Oakland,CA,
CLARENDON CRES & MANDANA BLVD,Oakland,CA,
400 PERALTA ST,Oakland,CA,
DETROIT AV & REDWOOD RD,Oakland,CA,
4700 TELEGRAPH AVE,Oakland,CA,
INTERNATIONAL & 44TH AV,Oakland,CA,
STANDFORD AV/ADELINE ST,Oakland,CA,
400 GILCREST,Oakland,CA,
3600 MALCOLM AVE,Oakland,CA,
8000 EDES AV,Oakland,CA,
KINGSTON AV & LINDA AV,Oakland,CA,
MAC ARTHUR BLVD & BROADWAY,Oakland,CA,
6900 FOOTHILL BLVD # 200,Oakland,CA,
11TH ST & LAKE MERRITT BLVD,Oakland,CA,
2700 SHATTUCK AV,Oakland,CA,
NB 5TH OFFRP AV & EMBARCADERO,Oakland,CA,
600 ELMHURST,Oakland,CA,
FAIRBANKS AV & KENMORE AV,Oakland,CA,
300 BLOCK OF FAIRMOUNT ST,Oakland,CA,
CLAREMONT/ALCATRAZ,Oakland,CA,
7100 SAYRE DR,Oakland,CA,
HAVENSCOURT AND AVENAL,Oakland,CA,
4300 MLK WY,Oakland,CA,
400 BLK 8TH ST,Oakland,CA,
10900 BEVERLEY,Oakland,CA,
SAN PABLO AV & THOMAS L. BERKLEY,Oakland,CA,
SAN PABLO & W. MAC ARTHUR,Oakland,CA,
900 82D AV,Oakland,CA,
FIELD ST & STERLING DR,Oakland,CA,
2700 ADELINE ST.,Oakland,CA,
DIST 2 SPECIAL ASSIGNMENT,Oakland,CA,
SUNKIST ST AND SAMSON ST,Oakland,CA,
2700 INYO AVE,Oakland,CA,
ACACIA AV & MANCHESTER DR,Oakland,CA,
5200 STAR THISTLE,Oakland,CA,
ATT OPER ASSIST,Oakland,CA,
9800BLK BIRCH ST,Oakland,CA,
5500 PICARDY,Oakland,CA,
6800 LIONWAY,Oakland,CA,
"500 CHARLES AV, MODESTO, CA 95350",Oakland,CA,
MAYNARD AV & MOUNTAIN BLVD,Oakland,CA,
RETTIG PL & WISCONSIN ST,Oakland,CA,
1400 85TH AVE,Oakland,CA,
DIRECTED PATROL BART WEST,Oakland,CA,
8100 INTERNATIONAL BL,Oakland,CA,
1500 102ND AVE,Oakland,CA,
SPEC ASSIN,Oakland,CA,
OUTLOOK AV & PARTRIDGE AV,Oakland,CA,
MOUNTAIN BLVD & SEACOR CT,Oakland,CA,
10900 SUNNYSIDE ST,Oakland,CA,
CRESTMONT DR & SKYLINE BLVD,Oakland,CA,
7300 BLOCK OF GARFIELD,Oakland,CA,
1900 70TH AVE,Oakland,CA,
1100 E 8TH ST,Oakland,CA,
2500 66TH AVE,Oakland,CA,
5700 HOLLOWAY,Oakland,CA,
HARBORD DR & MAXWELTON RD,Oakland,CA,
COOLIDGE AV,Oakland,CA,
500 85TH AVE,Oakland,CA,
100TH AVE & INTERNATIONAL BLVD,Oakland,CA,
1100 WASHINGTON ST,Oakland,CA,
1300 40TH ST,Oakland,CA,
4100 7TH ST,Oakland,CA,
INTL 8200 9800,Oakland,CA,
7200 BANCROFT AVE (BANK OF AMERICA),Oakland,CA,
WB I80 & SB POWELL ONRP,Oakland,CA,
3000 POPLAR ST,Oakland,CA,
4500 MALABAR AV CASTRO VALLEY,Oakland,CA,
143RD AV & E 14TH ST,Oakland,CA,
HEGENBERGER,Oakland,CA,
IFO 722 33RD ST,Oakland,CA,
3200 DEL MONTE ST,Oakland,CA,
21400 MISSION,Oakland,CA,
4800A TELEGRAPH AV,Oakland,CA,
ECHO AV & ROSE AV,Oakland,CA,
2400 SANTA RITA,Oakland,CA,
ASCOT DR & CAMINO LENADA ST,Oakland,CA,
15TH ST AT 12TH AV,Oakland,CA,
62/ADELINE,Oakland,CA,
3000 BLK INTERNATIONAL BLVD,Oakland,CA,
MAYNARD AV & SANFORD ST,Oakland,CA,
300 LINDA AV,Oakland,CA,
1400 50TH AVENUE #11,Oakland,CA,
400 26TH,Oakland,CA,
6700 LAIRD,Oakland,CA,
ACACIA AV & BUENA VISTA AV,Oakland,CA,
EB I580 CONN & EB I980 CONN,Oakland,CA,
3900 LONE TREE WAY,Oakland,CA,
6700 CHARING CROSS RD,Oakland,CA,
3400 MAPLE AVE,Oakland,CA,
4900 COLLISIUM WY,Oakland,CA,
4500 MACARTHUR,Oakland,CA,
HAWTHORNE AV & SUMMIT ST,Oakland,CA,
A ST & MISSION ST,Oakland,CA,
WELCOME INN,Oakland,CA,
700 NEVADA ST.,Oakland,CA,
1300 92ND AVE,Oakland,CA,
2500 107TH AV,Oakland,CA,
AREA OF E 18TH ST & PARK BLVD,Oakland,CA,
150/FREEDOM,Oakland,CA,
0 GAUSS WY,Oakland,CA,
1200 98TH AVE,Oakland,CA,
2200 E. 22ND ST,Oakland,CA,
1700 40TH AVE,Oakland,CA,
4500 BLK OF BANCROFT,Oakland,CA,
CARISBROOK DR & CHELTON DR,Oakland,CA,
ASILOMAR DR & DRAKE DR,Oakland,CA,
ID # 0000017815,Oakland,CA,
1200 BLK HARRISON ST,Oakland,CA,
0 TAURUS PL,Oakland,CA,
3800 LAUREL,Oakland,CA,
9TH/ADELINE,Oakland,CA,
5TH AV AND INTERNATIONAL BLVD,Oakland,CA,
ELYSIAN FIELDS DR & PEBBLE BEACH DR,Oakland,CA,
I24 & FWY 13,Oakland,CA,
4500 BANCROFT,Oakland,CA,
9700 BLK OF E,Oakland,CA,
3600 MARTINLUTHER KING JR WY,Oakland,CA,
WEST GRAND AVE & VALLEY ST,Oakland,CA,
PIEDMONT AVE,Oakland,CA,
AMY DR & HARBORD DR,Oakland,CA,
500 MORAGA,Oakland,CA,
800 100TH AVE,Oakland,CA,
11300 SKYLINE BLVD,Oakland,CA,
27200 SLEPPY HOLLOW AVE,Oakland,CA,
DIEHL AV & MACARTHUR BLVD,Oakland,CA,
23RD AV & E 8TH ST,Oakland,CA,
2500 PARKER AVE,Oakland,CA,
2100 DWIGHT WAY,Oakland,CA,
5100 YGNACIOA AVE,Oakland,CA,
I880/DECOTO,Oakland,CA,
1700 WILLOW ST,Oakland,CA,
ADE/YERBA BUENA,Oakland,CA,
SP ASSIGN 3A10,Oakland,CA,
1400 HOLLY ST,Oakland,CA,
3500 FIELD ST,Oakland,CA,
6400 BAY VIEW DRIVE,Oakland,CA,
9400 BANCROFT AVE,Oakland,CA,
1900 82ND AVENUE,Oakland,CA,
600 GERRY ADAMS WY,Oakland,CA,
1900 83RD AVE,Oakland,CA,
0 LINDA AVE,Oakland,CA,
BUCKINGHAM BLVD & TUNNEL RD,Oakland,CA,
5900 ROMANY RD,Oakland,CA,
FOOTHILL BLVD & MARLOW DR,Oakland,CA,
1500 GRAND AV,Oakland,CA,
KIMBERLIN HEIGHTS DR & SKYLINE BLVD,Oakland,CA,
2000 24TH AVE,Oakland,CA,
200 5TH AV,Oakland,CA,
BUTTERS DR & ROBINSON DR,Oakland,CA,
900 LISBON AV,Oakland,CA,
1400 34TH AVE,Oakland,CA,
CAMPUS DR & SKYPOINT CT,Oakland,CA,
98TH AVE & STANLEY,Oakland,CA,
6700 BROADWAY TERRACE,Oakland,CA,
4900 GRIZZLY PEAK BLVD,Oakland,CA,
CHESTER ST & 6TH ST,Oakland,CA,
100 EASTMONT TOWN CENTER,Oakland,CA,
DIRECTED PATROL- BT 2,Oakland,CA,
600 MONTCLAIR AVE,Oakland,CA,
SB LINCOLN ONRP AV & SB S13,Oakland,CA,
SPECIAL ASSIGNMENT BT 14,Oakland,CA,
5300 1&2 BRYANT AV,Oakland,CA,
WB HARRISON ONRP ST & EB I580,Oakland,CA,
LAKESHORE CORRIDOR,Oakland,CA,
6500 VALLEY VIEW RD,Oakland,CA,
3600 HILLVIEW ST,Oakland,CA,
UC BEREKELY 2195 HEARST,Oakland,CA,
ARMOUR DR & SNAKE RD,Oakland,CA,
400 BATAAN ST,Oakland,CA,
CALDWELL RD & MONZAL AV,Oakland,CA,
10300 STANLEY,Oakland,CA,
5700 FLORENCE TERR,Oakland,CA,
KELTON CT & MONTE CRESTA AV,Oakland,CA,
1500 CHANDLER ST.,Oakland,CA,
0 EDGEMONT WAY,Oakland,CA,
88TH AVE & INTERNATIONAL BLVD,Oakland,CA,
1400 BLK OF MARKET ST,Oakland,CA,
100 JEROME AV,Oakland,CA,
5300 CLARKE ST,Oakland,CA,
2700 WEBSTER ST,Oakland,CA,
40TH & SP,Oakland,CA,
9TH ST & MCELROY ST,Oakland,CA,
6800 LUCILLE,Oakland,CA,
E 29TH ST AND 14TH AV,Oakland,CA,
1700 150TH,Oakland,CA,
GIRVIN DR & THACKERAY DR,Oakland,CA,
200 MAGNOLIA ST,Oakland,CA,
39400 CIVIC CENTER DRIVE,Oakland,CA,
0 ALAN SHEPARD WY,Oakland,CA,
4600 BROOKDALE AVE,Oakland,CA,
1200 55TH ST.,Oakland,CA,
2A12 DIRECTIVE PATROL,Oakland,CA,
900 HEGENBERGER RD,Oakland,CA,
MARLBOROUGH TER & NORFOLK RD,Oakland,CA,
10500 EAST COURT,Oakland,CA,
1500 62ND AV,Oakland,CA,
62/KING,Oakland,CA,
2900 MERCED ST,Oakland,CA,
E 27TH ST & VALLECITO PL,Oakland,CA,
2500 BLK KINGSLAND AVE,Oakland,CA,
PARK BLVD & WAYNE PL,Oakland,CA,
10300 MAC ARTHUR BLVD,Oakland,CA,
WB 52ND ONRP ST & WB S24,Oakland,CA,
1600 HARRISON STREET,Oakland,CA,
LOUISIANA ST & OSCAR AV,Oakland,CA,
DIRWECTED PATROL,Oakland,CA,
SPECIAL ASSISGNMENT,Oakland,CA,
2200 50TH AV.,Oakland,CA,
ELLINGTON & 92ND,Oakland,CA,
523A 22ND ST,Oakland,CA,
1900 E 21,Oakland,CA,
7000 INT,Oakland,CA,
1700 SHATTUCK,Oakland,CA,
2100 62ND AVE,Oakland,CA,
ALCATRAZ AND COLLEGE,Oakland,CA,
400 DAVIS ST,Oakland,CA,
2000 POPLAR ST,Oakland,CA,
1100 PORTAL AVE,Oakland,CA,
7000 THORNDALE DR,Oakland,CA,
600 39TH,Oakland,CA,
1600 AUSEON AVE,Oakland,CA,
GRAND AV & ROSE AV,Oakland,CA,
3200 SAN LEANDRO AVE,Oakland,CA,
0 & INTERNATIONAL BLVD,Oakland,CA,
1000 88TH AVE,Oakland,CA,
SAN ANTONIO WY@19TH AV,Oakland,CA,
EB I80 & NB POWELL OFFRP ST,Oakland,CA,
2300 MACARTHUR BLVD,Oakland,CA,
401A PANORAMIC WY,Oakland,CA,
3500 WOOD ST,Oakland,CA,
3900 ROYAL ARCH,Oakland,CA,
SB BROADWAY ONRP & SB I880,Oakland,CA,
GRANADA AV & MARGARITA AV,Oakland,CA,
4200 TELEGRAPH AVE,Oakland,CA,
FAIRBANKS AV & WARFIELD AV,Oakland,CA,
3900 MLK WY,Oakland,CA,
1800 78TH AVE,Oakland,CA,
KEMPTON WY & SANTA CLARA AV,Oakland,CA,
3000 11TH AV,Oakland,CA,
2164B 48TH AV,Oakland,CA,
PV/PARKSIDE,Oakland,CA,
3200 MORRISON AV,Oakland,CA,
3200 GRAND AVE,Oakland,CA,
3100 HENDERSON DR,Oakland,CA,
2100 99TH AVE,Oakland,CA,
24EB /HILLER,Oakland,CA,
10500 VOLTAIRE,Oakland,CA,
LAKESHORE/INTL,Oakland,CA,
4000 MAYBELLE AVE,Oakland,CA,
7600 EDGEWATER DR,Oakland,CA,
4400 SHELLMOUND,Oakland,CA,
2200 MILLER PL,Oakland,CA,
100 REQUA RD,Oakland,CA,
MAC & SAN PABLO,Oakland,CA,
1300 WARD ST,Oakland,CA,
6100 LASALLE AVE,Oakland,CA,
1400 38TH AVE,Oakland,CA,
2700 EC REEMS CRT,Oakland,CA,
3500 60TH AVE,Oakland,CA,
10TH AV & BELLA VISTA AV,Oakland,CA,
2J02/2J07 DIRECTIVE PATROL,Oakland,CA,
1300 96TH AVE,Oakland,CA,
10200 BLOSSOM RIDGE,Oakland,CA,
DIRECTED PATR,Oakland,CA,
5TH ST UNION ST,Oakland,CA,
1000 WASHINGTON ST,Oakland,CA,
TRESTLE GLEN RD & VALANT PL,Oakland,CA,
4TH AVE AND E18TH ST,Oakland,CA,
EB I580 & MARTIN LUTHER KING JR WY,Oakland,CA,
BAY FOREST DR & TUNNEL RD,Oakland,CA,
59TH ST & LOS ANGELES ST,Oakland,CA,
2100 94TH AVE,Oakland,CA,
I80 & SAN PABLO,Oakland,CA,
1100 69TH AVE,Oakland,CA,
E 16TH ST & 64TH AV,Oakland,CA,
102ND AVE,Oakland,CA,
1400 YERBA BUENA AV,Oakland,CA,
MARKET & BANCROFT,Oakland,CA,
2000 WARNER AVE,Oakland,CA,
1900 4TH AVE,Oakland,CA,
2700 E 28TH,Oakland,CA,
900 77TH AVE,Oakland,CA,
EASTMONT MALL LIBRARY,Oakland,CA,
61ST ST & GENOA ST,Oakland,CA,
DIRECTED PATROL BEAT 13,Oakland,CA,
900 2ND ST,Oakland,CA,
12TH AND SAN PABLO,Oakland,CA,
E 14TH & ESTUDILLO,Oakland,CA,
8500 C ST,Oakland,CA,
5800 1&2 VALLEJO ST,Oakland,CA,
BARNER AV & BARNER PL,Oakland,CA,
E 23RD AVE & E 30TH ST,Oakland,CA,
9700 GOLF LINKS ROAD,Oakland,CA,
3300 69TH AVE,Oakland,CA,
41/ADELIN,Oakland,CA,
8300 INTERNATIONAL,Oakland,CA,
DISTRICT 2-BT 14,Oakland,CA,
6500 MOUNTAIN BLVD,Oakland,CA,
SEMINARY AREA,Oakland,CA,
200 HEGENBERGER RD.,Oakland,CA,
4000 ALAMEDA AVE,Oakland,CA,
7000 MAC ARTHUR BLVD,Oakland,CA,
6200 MOUNTAIN BLVD,Oakland,CA,
9600 LAS VEGAS AV,Oakland,CA,
HOOD ST & MARK ST,Oakland,CA,
ANZA AV & GOLF LINKS RD,Oakland,CA,
4200 ALISO AV,Oakland,CA,
6500 LAIRD AV,Oakland,CA,
2200 SHORELINE DR,Oakland,CA,
3700 PENNIMAN AVE,Oakland,CA,
2000 83RD AVE,Oakland,CA,
2100 WRENN ST,Oakland,CA,
40/ADELINE,Oakland,CA,
7500 CROSSROADS,Oakland,CA,
CALMAR AV & PALOMA AV,Oakland,CA,
2714A ADELINE ST,Oakland,CA,
HEGENBERGER/COLLINS,Oakland,CA,
2A02 DIRECTIVE PATROL,Oakland,CA,
2600 WOOLSEY ST,Oakland,CA,
BT 17 & 21,Oakland,CA,
WEBSTER/W GRAND,Oakland,CA,
RIDGEMONT CT & RIDGEMONT DR,Oakland,CA,
DISTRICT 2- SPECIAL ASSIGNMENT,Oakland,CA,
2100 GRIZZLY PEAK BLVD,Oakland,CA,
DONNA WY & SILVERADO CT,Oakland,CA,
61ST PL & 61ST ST,Oakland,CA,
E 12/6TH AV,Oakland,CA,
30000 INDUSTRIAL PKWY SW,Oakland,CA,
700 BLK 86TH AVE,Oakland,CA,
2400 BLK 35TH AVE,Oakland,CA,
MANDELA PKWY CORRIDOR,Oakland,CA,
6200 SAN PABLO AVE,Oakland,CA,
DOWNTOWN DETAIL SPECIAL,Oakland,CA,
27400 TERELL,Oakland,CA,
JOAQUIN MILLER RD & PIERPOINT AV,Oakland,CA,
INT CORRIDOR,Oakland,CA,
MAXWELTON RD & MORAGA AV,Oakland,CA,
17TH ST & WB I980,Oakland,CA,
1500 PARK AV,Oakland,CA,
40ST CORRIDOR,Oakland,CA,
200 BLK 17TH ST,Oakland,CA,
ELYSIAN FIELDS DR & IRONWOOD ST,Oakland,CA,
500 BODEN WAY,Oakland,CA,
0 MANILA ST,Oakland,CA,
933A FRANKLIN ST,Oakland,CA,
COLLEG/PIED,Oakland,CA,
GREENBRIER ST & TURNER CT,Oakland,CA,
DIRECTIVE PATROL INTL FROM 1ST AND FV,Oakland,CA,
INT CORRIDOR BETWEEN FV/66TH,Oakland,CA,
1600 79TH AVE,Oakland,CA,
1200 76TH AVE,Oakland,CA,
14TH ST & PALISADE RD,Oakland,CA,
1800 DURANT AVE,Oakland,CA,
BROOKLYN AV & ZORAH ST,Oakland,CA,
MOUNTAIN BLVD & MOUNTAIN VIEW AV,Oakland,CA,
69TH AV/LION WY,Oakland,CA,
32ND ST & SAN PABLO AVE,Oakland,CA,
40TH/SP,Oakland,CA,
2600 HILLAGATE,Oakland,CA,
1200 EL CAMINO REAL,Oakland,CA,
1000 101ST AVE,Oakland,CA,
12700 SLOAN,Oakland,CA,
1700 MARITIME,Oakland,CA,
"700 BLOSSOM WAY, HAYWARD",Oakland,CA,
34TH AV & E 12TH ST,Oakland,CA,
5900 MARDEN LN,Oakland,CA,
ESTUDILLO AV & WB I580,Oakland,CA,
4700 BLK INTERNATIONAL BLVD,Oakland,CA,
LIESE AV & MINNA AV,Oakland,CA,
ALTA VISTA AV & JEAN ST,Oakland,CA,
8000 BANCROFT AVE,Oakland,CA,
6500 EASTLAWN,Oakland,CA,
1500 80TH AVE,Oakland,CA,
9300 BROADWAY TER,Oakland,CA,
3100 BLK SAN PABLO,Oakland,CA,
73RD AV & SNELL,Oakland,CA,
8300 BLK MAC ARTHUR BLVD,Oakland,CA,
6600 ARTHUR,Oakland,CA,
INTL DIST 5,Oakland,CA,
200 TUNNEL RD,Oakland,CA,
MAC ARTHUR & MAPLE,Oakland,CA,
DIRECTED PATROL BEAT 2,Oakland,CA,
1000 5TH ST,Oakland,CA,
2000 UNION ST,Oakland,CA,
HEGENBERGER RD,Oakland,CA,
3800 FIELD ST,Oakland,CA,
100 MARQUETTE ST VALLEJO CA,Oakland,CA,
ADELINE/ASH,Oakland,CA,
1200 51ST ST,Oakland,CA,
6700 EASTLAWN STREET,Oakland,CA,
W MACARTHUR BLVD & SAN PABLO AV,Oakland,CA,
GRAND AVE & MACARTHUR BLVD,Oakland,CA,
I580/FV,Oakland,CA,
DIRECTED PATROL 14TH/BWY,Oakland,CA,
3700 MANDELA PRKY,Oakland,CA,
8100 SURREY LANE,Oakland,CA,
1500 E 32ND ST,Oakland,CA,
SPECIAL ASGN,Oakland,CA,
MORCOM PL AND MORCOM AVE,Oakland,CA,
0 WEE BLYTHEN,Oakland,CA,
TELEGRAPH BTWN BT 8 & BT 12,Oakland,CA,
6000 E 16TH ST,Oakland,CA,
COLLEGE AV & EB S24,Oakland,CA,
8000 GREEN RIDGE DR,Oakland,CA,
5600 BROOKDALE AV,Oakland,CA,
10600 STELLA ST,Oakland,CA,
900 107TH AVE,Oakland,CA,
2000 88TH AVE,Oakland,CA,
MARVIN CT & SCOTIA AV,Oakland,CA,
3200 64TH AVE,Oakland,CA,
600 HEGENBERGER DR,Oakland,CA,
3500 CALIFORNIA ST,Oakland,CA,
0 MONTWOOD WAY,Oakland,CA,
2200 92ND AVE,Oakland,CA,
5600 COLISEUM WY,Oakland,CA,
900 5TH AV,Oakland,CA,
2700 MIDDLE HARBOR RD,Oakland,CA,
700 WARFIELD AVE,Oakland,CA,
4010A OPAL ST,Oakland,CA,
1424A MARKET ST,Oakland,CA,
2400 E.22ND STREET,Oakland,CA,
3900BLK OF ADELINE,Oakland,CA,
23RD AV & E 31ST ST,Oakland,CA,
5500 SAN PABLO,Oakland,CA,
164TH AV & EB I 580,Oakland,CA,
WB I580 CONN & WB SEMINARY ONRP AV,Oakland,CA,
TELEGRAPH CORRIDOR DIRECTED PATROL,Oakland,CA,
OAKLAND COLESIUM,Oakland,CA,
2000 WOOLSEY ST,Oakland,CA,
3200 KERNEY,Oakland,CA,
100 W GRAND AV,Oakland,CA,
2600 WEST 10TH ST,Oakland,CA,
300 LENOX AVE,Oakland,CA,
CARISBROOK DR & SKYLINE BLVD,Oakland,CA,
CLAREMONT/UPLAND,Oakland,CA,
66TH AVE & EASTLAWN ST,Oakland,CA,
ESTUDILLO AV & EB I580,Oakland,CA,
4500 MOUNTAIN BLVD,Oakland,CA,
300 KIRKHAM ST,Oakland,CA,
3300 - 68TH AV,Oakland,CA,
ATLANTIC AV & WEBSTER ST,Oakland,CA,
2700 68TH AVENUE,Oakland,CA,
LAGUNA AV & MADELINE ST,Oakland,CA,
2100 69TH AVE,Oakland,CA,
300 W BROADMOOR BLVD,Oakland,CA,
SEMINARY AVE & FOOTHILL BLVD,Oakland,CA,
8300 SAN LEANDRO ST,Oakland,CA,
9200 FLINTRIDGE LN,Oakland,CA,
BENEVIDES AV & EL CENTRO AV,Oakland,CA,
68TH/TELEGRAPH,Oakland,CA,
2200 READING AV,Oakland,CA,
AITKEN DR & EVERGREEN AV,Oakland,CA,
2600 HOLWAY ST,Oakland,CA,
100 GRAND AVE,Oakland,CA,
3800 BRUNELL DR,Oakland,CA,
INTERNATIONAL & 42ND AVE,Oakland,CA,
5900 STANFORD AVE,Oakland,CA,
1600 DAYTON AV,Oakland,CA,
106TH AVE & INTERNATIONAL BLVD,Oakland,CA,
3800 TWIN OAKS WAY,Oakland,CA,
85TH AVE INTERNATIONAL BLVD,Oakland,CA,
INTL DIRECTIVE PATROL,Oakland,CA,
VOLTAIRE & BAN,Oakland,CA,
1600 ALICE ST,Oakland,CA,
HIGH ST & HYACINTH AV,Oakland,CA,
INTER,Oakland,CA,
3300 MANDELA PKWY,Oakland,CA,
1421A 38TH AV,Oakland,CA,
2215E E 22ND ST,Oakland,CA,
3100 63RD AVE,Oakland,CA,
800 W 14TH ST,Oakland,CA,
6600 BLK OAKPORT ST,Oakland,CA,
5300 BLK COLISEUM WAY,Oakland,CA,
EB GRAND OFFRP AV & MACARTHUR BLVD,Oakland,CA,
BEAUFOREST DR & VALLEY VIEW RD,Oakland,CA,
8300 OAKPORT ST.,Oakland,CA,
COOLIDGE AVE & DELAWARE ST OAKLAND,Oakland,CA,
4742A REDDING ST,Oakland,CA,
3500 MAYBELLE AVE,Oakland,CA,
SAN LEAN/BRO,Oakland,CA,
SKYLINE HIGH SCHOOL,Oakland,CA,
3800 EMERY,Oakland,CA,
"1000 47TH ST, OAKLAND CA",Oakland,CA,
LAWTON AV & ROCKRIDGE BLVD,Oakland,CA,
3200 61ST ST,Oakland,CA,
1000 51ST AVE,Oakland,CA,
DIST 1/DIST 2,Oakland,CA,
4800 1&2 CLARKE ST,Oakland,CA,
29TH ST & OAKLAND AV,Oakland,CA,
800 44TH STREET,Oakland,CA,
3100 GRIZZLY PEAK,Oakland,CA,
ERIE ST & PRINCE ST,Oakland,CA,
2400 MONTANA ST,Oakland,CA,
1100 HARBOR BAY PKWY,Oakland,CA,
7900 GARFIELD,Oakland,CA,
BOWSMAN CT & GLASCOCK ST,Oakland,CA,
DOUGLAS AV & KNIGHT ST,Oakland,CA,
300 E18TH ST,Oakland,CA,
4500 1&2 THOMPSON ST,Oakland,CA,
DUNSMUIR AV & VICTOR AV,Oakland,CA,
400 LAKE PARK AVE,Oakland,CA,
2700 21ST AVE,Oakland,CA,
60TH AND BRANN ST,Oakland,CA,
BT 2,Oakland,CA,
LOWER TELEGRAPH,Oakland,CA,
85TH AVE & ENTERPRISE WAY,Oakland,CA,
1800 8TH AVE,Oakland,CA,
1427A 15TH ST,Oakland,CA,
400 HANOVER AVE,Oakland,CA,
46TH ST & 47TH ST,Oakland,CA,
400 E. 17TH STREET,Oakland,CA,
8400 PARDEE RD,Oakland,CA,
6100 BUENA VISTA AVE,Oakland,CA,
400 WAYNE ST,Oakland,CA,
ADAMS AV & DOOLITTLE DR,Oakland,CA,
BROADWAY TER & THOMAS AV,Oakland,CA,
BROOKFIELD AV & MARLOW DR,Oakland,CA,
1400 BLK 73RD AVE,Oakland,CA,
E12TH ST AND 23RD AVE,Oakland,CA,
900 ALMA PLACE,Oakland,CA,
700 DERBY AV,Oakland,CA,
E 10TH ST & PARK WY,Oakland,CA,
ALHAMBRA AV & GOULDIN RD,Oakland,CA,
600 FRUITVALE AV,Oakland,CA,
1400 DOOLITTLE,Oakland,CA,
DIRECTIVE PATROL INTERNATIONAL BLVD,Oakland,CA,
SHORELINE PARK,Oakland,CA,
1600 47TH AVE,Oakland,CA,
37TH ST AND WEST MAC,Oakland,CA,
WEST OAKLAND,Oakland,CA,
6000 MERRIEWOOD DR,Oakland,CA,
5500 W LAS POSITAS,Oakland,CA,
900 E 8TH ST,Oakland,CA,
3600 SAN,Oakland,CA,
1100 BLK JEFFERSON ST,Oakland,CA,
96/B,Oakland,CA,
1600 1&2 E 21ST ST,Oakland,CA,
HADDON PL & TRESTLE GLEN RD,Oakland,CA,
FREMONT CA,Oakland,CA,
3400 SALISBURY STREET,Oakland,CA,
12000 DANTE,Oakland,CA,
DIRECT PATROL 3100 MLK,Oakland,CA,
2500 WEST 14TH ST,Oakland,CA,
SPECIAL ASSIGNMENT FRM 23 AV TO E 18,Oakland,CA,
BIRDSALL AV & YUBA AV,Oakland,CA,
200 FAIRMONT AVE,Oakland,CA,
AVON ST & SHAFTER AV,Oakland,CA,
1800 41ST AVE,Oakland,CA,
EMBARCADERO & EMBARCADERO COVE,Oakland,CA,
SIENA DR / KELLER AVE,Oakland,CA,
1000 GLENCOURT DR,Oakland,CA,
2200 1&2 E 20TH ST,Oakland,CA,
1600 42ND AV,Oakland,CA,
CHURCH ST AND INTERNATIONAL BLVD,Oakland,CA,
9700 RAILROAD AV,Oakland,CA,
0 ANAIR WAY,Oakland,CA,
9000 BLK MAC ARTHUR BLVD,Oakland,CA,
12TH ST & HARISON,Oakland,CA,
3500 E. 12TH ST,Oakland,CA,
3700 MONTEREY BLVD,Oakland,CA,
EB I238 CONN & SB I880,Oakland,CA,
73RD AV & BANCROFT,Oakland,CA,
6900 RUDSALE,Oakland,CA,
CASTRO VALLEY,Oakland,CA,
40TH/ADE,Oakland,CA,
3200 PRESTISS ST,Oakland,CA,
2900 62 AVE,Oakland,CA,
7700 SAN LEANDRO ST,Oakland,CA,
1000 ALCATRAZ AVE,Oakland,CA,
5300 WENTWORTH AVE,Oakland,CA,
700 BANCROFT,Oakland,CA,
900 7TH AV,Oakland,CA,
DIRECTED PATROL 3300 LAKESHORE,Oakland,CA,
7200 BRANCROFT AV,Oakland,CA,
200 20TH ST,Oakland,CA,
869A W GRAND AV,Oakland,CA,
ARMOUR DR & THORNHILL DR,Oakland,CA,
2600 EC REEMS CT,Oakland,CA,
2100 KEVINS CT,Oakland,CA,
5000 BROOKDALE AV,Oakland,CA,
3RD/BRUSH,Oakland,CA,
SAN LEANDRO ST @ 92ND AV,Oakland,CA,
12700 BROOKPARK RD,Oakland,CA,
E 15TH ST & E 16TH ST,Oakland,CA,
BACON RD & SKYLINE BLVD,Oakland,CA,
1000 45TH AVE,Oakland,CA,
4700 BLOCK FOOTHILL BLVD,Oakland,CA,
10500 BREED AVE,Oakland,CA,
11000 ALCALANES SR,Oakland,CA,
4200 BANCROFT WY,Oakland,CA,
2000 UNIVERSITY AV,Oakland,CA,
1500 FITZGERALD DRIVE,Oakland,CA,
1600 23RD AVE,Oakland,CA,
3800 EMERY ST,Oakland,CA,
MANDELA PKWY & WILLOW ST,Oakland,CA,
1300 52ND AVE,Oakland,CA,
1800 E 26TH ST,Oakland,CA,
DISTRICT 3 DIRECTED PATROL,Oakland,CA,
GRAND/LAKE PARK,Oakland,CA,
1900 69TH AVE,Oakland,CA,
OAKLAND AV & OLIVE AV,Oakland,CA,
164TH/FOOTHILL AV,Oakland,CA,
5000 TELEGRAPH AVE,Oakland,CA,
4200 GLEN AV,Oakland,CA,
4600 7TH ST,Oakland,CA,
57TH AVE & INTERNATIONAL BLVD,Oakland,CA,
PINE HILLS DR & PINE HILLS LN,Oakland,CA,
2100 103RD AVE,Oakland,CA,
1000 46 ST,Oakland,CA,
700 DURANT,Oakland,CA,
2300 E27TH ST,Oakland,CA,
SPECIAL AASSIGN,Oakland,CA,
15900 MAUBERT ST,Oakland,CA,
3300 INTERNATIOPNAL BLVD,Oakland,CA,
S13/THORHILL,Oakland,CA,
SAN LEANDRO BLVD,Oakland,CA,
4200 REDWOOD RD,Oakland,CA,
ASCOT DR,Oakland,CA,
BROADWAY & WATER ST,Oakland,CA,
2400 CAMPBELL ST,Oakland,CA,
CHATHAM RD & WB PARK ONRP BL,Oakland,CA,
3400 TELEGRAPH AVE,Oakland,CA,
E 32ND AVE AND HAMLINE,Oakland,CA,
0 ENGINEER,Oakland,CA,
BANCROFT/JUANA,Oakland,CA,
CATHY LN & SKYLINE BLVD,Oakland,CA,
DEERWOOD AV & MAYWOOD AV,Oakland,CA,
5TH AV & E8TH ST,Oakland,CA,
5800 INTERNATIONAL BVLD,Oakland,CA,
11TH & WASHINGTON,Oakland,CA,
AILEEN/TELEGRAPH,Oakland,CA,
ARLINGTON AV & LOWELL ST,Oakland,CA,
TAC CHANNEL,Oakland,CA,
35TH AVE & ALLENDALE,Oakland,CA,
EL VERANO ST & HUNTER AV,Oakland,CA,
40TH/HOLLIS,Oakland,CA,
2700 POPLAR ST,Oakland,CA,
LA SALLE & ANTIOCH CT,Oakland,CA,
1600 92ND ST,Oakland,CA,
DIRECT PATROL DIST 2,Oakland,CA,
4300 FAIRFAX,Oakland,CA,
200 MYERS CT,Oakland,CA,
300 ALICE ST,Oakland,CA,
GLENVIEW AV & RAND AV,Oakland,CA,
3200 BLANDON ROAD,Oakland,CA,
6000 HARMON AVENUE,Oakland,CA,
LILY ST & TULIP AV,Oakland,CA,
FRUITVALE & INT,Oakland,CA,
EMER,Oakland,CA,
CHINATOWN AREA,Oakland,CA,
17100 FH,Oakland,CA,
2800 LONDON RD,Oakland,CA,
1800 SOLANO WAY,Oakland,CA,
52ND AV & E 8TH ST,Oakland,CA,
23RD AV & E7TH ST,Oakland,CA,
E 24TH ST & INYO AV,Oakland,CA,
0 & CUTTING,Oakland,CA,
1300 ASHBY AV,Oakland,CA,
10300 BLK KNIGHT ST,Oakland,CA,
200 EBONY WY,Oakland,CA,
BEREKELY,Oakland,CA,
800 E20TH ST,Oakland,CA,
SB I880/MARINA,Oakland,CA,
BROADWAY AND LAWTON,Oakland,CA,
5000 SCOTIA AV,Oakland,CA,
DIRECTD PATROL BT3,Oakland,CA,
300 STATEN AVE,Oakland,CA,
0 TOWN SQUARE PLACE,Oakland,CA,
1200 3RD ST,Oakland,CA,
1000 DOOLITTLE,Oakland,CA,
PLEASANT VALLEY ROAD & BROADWAY,Oakland,CA,
CHAMPION ST & LINCOLN AVE,Oakland,CA,
EB BROADWAY ONRP & EB S24,Oakland,CA,
1000 60TH AV,Oakland,CA,
HIGHT ST & COLOSIEUM WAY,Oakland,CA,
SPEC ASSIG - DIST 3,Oakland,CA,
2400 12TH AVE,Oakland,CA,
BEAT 23 SPECIAL ASSIGN,Oakland,CA,
4700 YGNACIO AVE,Oakland,CA,
BAYBERRY/159TH AV,Oakland,CA,
700 1&2 29TH ST,Oakland,CA,
TYLER ST & WALTER AV,Oakland,CA,
EUCALYPTUS RD & HILLCREST RD,Oakland,CA,
3900 REDDING ST,Oakland,CA,
107TH AVE & MACARTHUR BLVD,Oakland,CA,
500 ASCOT DR,Oakland,CA,
PERKINS AT GRAND AVENUE,Oakland,CA,
LAGUNA AV & POTOMAC ST,Oakland,CA,
DIRECTIVE PATROL DOWNTWN OAKLAND,Oakland,CA,
1000 POTRERO,Oakland,CA,
4TH AND BROADWAY,Oakland,CA,
200 TUNNEL,Oakland,CA,
47TH AVE & INTERNATIONAL,Oakland,CA,
NEY AV,Oakland,CA,
1ST/INTL DIRECTED PATROL,Oakland,CA,
ESTATES DR & MCANDREW DR,Oakland,CA,
57TH ST & MACCALL ST,Oakland,CA,
5500 GOLD CREEK,Oakland,CA,
VALLECITO PL & E. 28TH ST,Oakland,CA,
SHATTUCK AV & WOOLSEY ST,Oakland,CA,
0 EUCALYPTUS PATH,Oakland,CA,
ADELINE ST & WOOLSEY,Oakland,CA,
35TH AVE & MACARTHUR BLVD,Oakland,CA,
6500 LUCAS AVE,Oakland,CA,
2500 HAVENSOURT,Oakland,CA,
900 39TH AVE,Oakland,CA,
3700 1&2 MIDVALE AV,Oakland,CA,
2100 39TH AVE,Oakland,CA,
SPEC,Oakland,CA,
1900 90TH AVE,Oakland,CA,
23RD AV & CALCOT PL,Oakland,CA,
"SAN FRANCISCO, CA",Oakland,CA,
0 WEST CIR,Oakland,CA,
2100 VAN NESS AV,Oakland,CA,
AVENAL OAKLAND,Oakland,CA,
100 SAMARIA LN,Oakland,CA,
1800 36TH AVE,Oakland,CA,
2200 54TH AV,Oakland,CA,
3146A COOLIDGE AV,Oakland,CA,
1000 38TH AV,Oakland,CA,
DOMINGO AV & RUSSELL ST,Oakland,CA,
400 CHETWOOD,Oakland,CA,
600 LINDEN ST,Oakland,CA,
MORCOM AV & MORCOM PL,Oakland,CA,
2700 76TH AVE,Oakland,CA,
GRIZZLY PEAK BLVD & LOMA CANTADAS,Oakland,CA,
NB I880 & MARKET ST,Oakland,CA,
MAC/PATTERSON,Oakland,CA,
400 FOX HILLS CT,Oakland,CA,
99TH AV,Oakland,CA,
HERMANN ST & MARTIN ST,Oakland,CA,
ALAMEDA PD,Oakland,CA,
4300 ST ANDREWS,Oakland,CA,
W GRAND AV & WB I980,Oakland,CA,
200 ATHOL AVE,Oakland,CA,
58TH AV & SEMINARY,Oakland,CA,
ANZA AV & CALAFIA AV,Oakland,CA,
BROADWAY AND PLEASANTVALLEY,Oakland,CA,
7830N HANSOM DR,Oakland,CA,
2800 MAXWELL AV,Oakland,CA,
KINGSLAND AV & RUTH AV,Oakland,CA,
EB I580 & PIEDMONT AV,Oakland,CA,
PIEDMONT AVE/40TH ST,Oakland,CA,
14TH ST AND HARRISON ST,Oakland,CA,
1100 KIRKHAM LANE,Oakland,CA,
35TH AV AND GALINDO ST,Oakland,CA,
1000 KIRKHAM ST,Oakland,CA,
1400 E 17TH,Oakland,CA,
2300 108TH AVE,Oakland,CA,
E14/FARRELY,Oakland,CA,
BANCROFT AV & INTERNATIONAL BLVD,Oakland,CA,
SAN PABLO & HWY 24,Oakland,CA,
1100 HARBOR BAY,Oakland,CA,
BURKHALTER SCHOOL,Oakland,CA,
EB I980 & NORTHGATE AV,Oakland,CA,
ANGELO AV & MINNA AV,Oakland,CA,
3000 EL MONTE AVE,Oakland,CA,
700 106TH AV,Oakland,CA,
56TH ST & MARTIN LUTHER KING J,Oakland,CA,
7000 WESTMOORLAND DR,Oakland,CA,
1000 BLK OF INTERNATIONAL BLVD,Oakland,CA,
2500 63RD AVE,Oakland,CA,
NB I880 & WASHINGTON ST,Oakland,CA,
90TH AVE AND INTERNATIONAL AVE,Oakland,CA,
EMPIRE CT & EMPIRE RD,Oakland,CA,
6300 CHRISTIE,Oakland,CA,
4200 MALCOLM AV,Oakland,CA,
ATL/WEB,Oakland,CA,
NEWTON/5TH AV,Oakland,CA,
BRANDY ROCK WY & BROOKPARK RD,Oakland,CA,
60TH/COLL,Oakland,CA,
3000BLK CAPP ST,Oakland,CA,
5900 MLK,Oakland,CA,
107TH ST & E 14TH ST,Oakland,CA,
2126G CASLAND AV,Oakland,CA,
1900 ALICE ST,Oakland,CA,
22Y,Oakland,CA,
LEIMERT BLVD & OAK CREST DR,Oakland,CA,
10500 ACALANES,Oakland,CA,
4800 FAIRFAX AVE,Oakland,CA,
6600 LAIRD AVE,Oakland,CA,
9100 D,Oakland,CA,
1900 TELEGRAPH AVE,Oakland,CA,
4300 ADELINE,Oakland,CA,
1000 84TH AVE,Oakland,CA,
SIDESHOW,Oakland,CA,
4144A MASTERSON ST,Oakland,CA,
BEATS 27 & 28,Oakland,CA,
7400 LOCKHEED,Oakland,CA,
5100 GATELY AV,Oakland,CA,
1900 SAN PABLO AVE,Oakland,CA,
101ST,Oakland,CA,
2200 PROSPERITY WY,Oakland,CA,
500 BOULEVARD WY,Oakland,CA,
1600 AUSEON,Oakland,CA,
1000 ALICE,Oakland,CA,
FITZGERALD ST & PERALTA ST,Oakland,CA,
EB I80 & SB I880 CONN,Oakland,CA,
1100 MIDDLE HARBOUR RD,Oakland,CA,
12R CROXTON AV,Oakland,CA,
9600 WOODSON,Oakland,CA,
3400 66TH AVE,Oakland,CA,
10900 VOLTAIRE AV,Oakland,CA,
1000 75TH AVE,Oakland,CA,
7000 EARHART RD,Oakland,CA,
2000 DWIGHT,Oakland,CA,
100 40TH STREET WY,Oakland,CA,
10500 BLOCK OF E ST,Oakland,CA,
2900 1&2 FRUITVALE AV,Oakland,CA,
E. 14TH,Oakland,CA,
1300 63RD AVE,Oakland,CA,
RESULTS WY,Oakland,CA,
ALCATRAZ AV & COLLEGE AV,Oakland,CA,
700 HARRISON ST.,Oakland,CA,
200 MACARTHUR,Oakland,CA,
1400 E33RD ST,Oakland,CA,
COURTLAND AV & MELROSE AV,Oakland,CA,
100 GARCIA AVE,Oakland,CA,
DAVIS ST & SAN LEANDRO BLVD,Oakland,CA,
COLLEGE/TELEGRAPH AREA,Oakland,CA,
4400 REDWOOD RD,Oakland,CA,
2400 8TH,Oakland,CA,
1108F MANDELA PKWY,Oakland,CA,
0 PEROLY COURT,Oakland,CA,
3500 MARKET,Oakland,CA,
0 FALLON ST,Oakland,CA,
24200 TRUMAN AVE,Oakland,CA,
900 9TH AV,Oakland,CA,
1300 53RD AVE,Oakland,CA,
INTL COR,Oakland,CA,
0 PLAZA DR,Oakland,CA,
800 SENECA,Oakland,CA,
700 1&2 E 23RD ST,Oakland,CA,
37TH AVE & SAN LEANDRO BLVD,Oakland,CA,
HIGH/E 12,Oakland,CA,
600 HUNTING FIELD RD,Oakland,CA,
1400 S MAIN ST,Oakland,CA,
4900 BLK TELEGRAPH AV,Oakland,CA,
AILEEN AND CARBERRY,Oakland,CA,
HARVARD RD & LAKESHORE AV,Oakland,CA,
51ST ST & 52ND ST,Oakland,CA,
CAMPUS DR & CANYON OAKS DR,Oakland,CA,
W GRAND AV & WILLOW ST,Oakland,CA,
1600 YGNACIO VALLEY RD,Oakland,CA,
2300 BRUSH ST,Oakland,CA,
2000 AUSEON AVE,Oakland,CA,
1500 39TH AVENUE,Oakland,CA,
106TH AVE INTERNATIONAL BLVD,Oakland,CA,
2600 REEMS CT,Oakland,CA,
500 JONES AVE,Oakland,CA,
SPECIAL ASSINGMENT DIST 2,Oakland,CA,
1500 78TH AVE,Oakland,CA,
SPCENF DIST 1,Oakland,CA,
EB I580 CONN & MARTIN LUTHER KING JR WY,Oakland,CA,
4400 SAN CARLOS AVE,Oakland,CA,
6700 LION WAY,Oakland,CA,
54TH AV & VICKSBURG AV,Oakland,CA,
4100 LINDEN ST,Oakland,CA,
9800 STANLEY AVE,Oakland,CA,
LAKESHORE SPECIAL ASSIGN,Oakland,CA,
6800 BLK SAN LEANDRO BLVD,Oakland,CA,
51ST AND SAN LEANDRO ST,Oakland,CA,
2100 POPLAR ST,Oakland,CA,
1300 SAN LUIS AV,Oakland,CA,
3RD AVE & E. 18TH ST,Oakland,CA,
6447B INTERNATIONAL BLVD,Oakland,CA,
721B 34TH ST,Oakland,CA,
800 67TH,Oakland,CA,
1000 PETRERO AV,Oakland,CA,
700 56TH STREET,Oakland,CA,
2100 BLK HARRINGTON AVE,Oakland,CA,
10500 EDES AV,Oakland,CA,
2200 FAIRWAY DR,Oakland,CA,
2900 BLK 14TH AVE,Oakland,CA,
3300 BLK 69TH AVE,Oakland,CA,
3500 65TH AVE,Oakland,CA,
2100 SEMINARY AVE.,Oakland,CA,
2300 79TH AV,Oakland,CA,
6300 OAKPORT ST,Oakland,CA,
11TH AV & E 11TH ST,Oakland,CA,
